{"type": "FeatureCollection", "features": [{"type": "Feature", "properties": {"name": "Kualaka\u02bbi Station", "line": "1-line", "stopCode": 1, "shared": false, "lines": "1", "altName": "East Kapolei"}, "geometry": {"type": "Point", "coordinates": [-158.051023987542, 21.3455523406063]}}, {"type": "Feature", "properties": {"name": "Keone\u02bbae Station", "line": "1-line", "stopCode": 2, "shared": false, "lines": "1", "altName": "UH West O\u02bbahu"}, "geometry": {"type": "Point", "coordinates": [-158.051206328336, 21.3585112784192]}}, {"type": "Feature", "properties": {"name": "Honouliuli Station", "line": "1-line", "stopCode": 3, "shared": false, "lines": "1", "altName": "Ho\u02bbopili"}, "geometry": {"type": "Point", "coordinates": [-158.045281842757, 21.3669266912792]}}, {"type": "Feature", "properties": {"name": "H\u014d\u02bbae\u02bbae Station", "line": "1-line", "stopCode": 4, "shared": false, "lines": "1", "altName": "West Loch"}, "geometry": {"type": "Point", "coordinates": [-158.022685593, 21.3781615359324]}}, {"type": "Feature", "properties": {"name": "Pouhala Station", "line": "1-line", "stopCode": 5, "shared": false, "lines": "1", "altName": "Waipahu Transit Center"}, "geometry": {"type": "Point", "coordinates": [-158.00383750789, 21.3840729981172]}}, {"type": "Feature", "properties": {"name": "H\u0101laulani Station", "line": "1-line", "stopCode": 6, "shared": false, "lines": "1", "altName": "Leeward Community College"}, "geometry": {"type": "Point", "coordinates": [-157.985626646487, 21.3943086921707]}}, {"type": "Feature", "properties": {"name": "Waiawa Station", "line": "1-line", "stopCode": 7, "shared": false, "lines": "1", "altName": "Pearl Highlands"}, "geometry": {"type": "Point", "coordinates": [-157.979915080123, 21.3966524363227]}}, {"type": "Feature", "properties": {"name": "Kalauao Station", "line": "1-line", "stopCode": 8, "shared": false, "lines": "1", "altName": "Pearlridge"}, "geometry": {"type": "Point", "coordinates": [-157.947115721222, 21.3838612062439]}}, {"type": "Feature", "properties": {"name": "H\u0101lawa Station", "line": "1-line", "stopCode": 9, "shared": false, "lines": "1", "altName": "Aloha Stadium"}, "geometry": {"type": "Point", "coordinates": [-157.933841311732, 21.3710616465305]}}, {"type": "Feature", "properties": {"name": "Makalapa Station", "line": "1-line", "stopCode": 10, "shared": false, "lines": "1", "altName": "Pearl Harbor / Hickam"}, "geometry": {"type": "Point", "coordinates": [-157.935375383065, 21.352024849957]}}, {"type": "Feature", "properties": {"name": "Lelepaua Station", "line": "1-line", "stopCode": 11, "shared": false, "lines": "1", "altName": "Daniel K. Inouye International Airport"}, "geometry": {"type": "Point", "coordinates": [-157.920974014074, 21.3337622226329]}}, {"type": "Feature", "properties": {"name": "\u0100hua Station", "line": "1-line", "stopCode": 12, "shared": false, "lines": "1", "altName": "Lagoon Drive"}, "geometry": {"type": "Point", "coordinates": [-157.901404562186, 21.3327633472269]}}, {"type": "Feature", "properties": {"name": "Kahauiki Station", "line": "1-line", "stopCode": 13, "shared": false, "lines": "1", "altName": "Middle Street Transit Center"}, "geometry": {"type": "Point", "coordinates": [-157.888827186567, 21.3327254693821]}}]}