{"type": "FeatureCollection", "features": [{"type": "Feature", "properties": {"line": "1-line"}, "geometry": {"type": "LineString", "coordinates": [[-158.050663787382, 21.3459760652566], [-158.050413625701, 21.3462792127084], [-158.05021652847, 21.3465610913105], [-158.050043314008, 21.3468564180654], [-158.04989502397, 21.3471634216095], [-158.049714496701, 21.3476647824882], [-158.049278759917, 21.3492960043281], [-158.049098784878, 21.3501495925299], [-158.048991340614, 21.3509777846234], [-158.048948232127, 21.3518110932851], [-158.048969686575, 21.3526451380984], [-158.049055592724, 21.3534755341568], [-158.049205498994, 21.354297916451], [-158.049340618817, 21.3548395827419], [-158.049503523371, 21.3553744985046], [-158.049799131682, 21.3561614850229], [-158.050125222041, 21.3568598993027], [-158.05044278982, 21.3574180010347], [-158.051691395794, 21.3592581706606], [-158.051827879624, 21.3595160831701], [-158.05198211244, 21.3599227734969], [-158.052073059023, 21.360345872288], [-158.052097565154, 21.3606328183298], [-158.052092873122, 21.3609206476906], [-158.052059027154, 21.3612067592142], [-158.051996331807, 21.3614885670033], [-158.051849504681, 21.3618976561091], [-158.051642084007, 21.3622830364429], [-158.051472172576, 21.362522894729], [-158.05117369332, 21.3628516751775], [-158.050870440705, 21.3631068849258], [-158.042100233735, 21.3691176889464], [-158.041788070189, 21.3693458180937], [-158.041530827289, 21.3695702490352], [-158.04132446021, 21.3697868076511], [-158.041138809322, 21.3700192369043], [-158.04097526073, 21.3702658033353], [-158.040835032762, 21.3705246678512], [-158.040660767975, 21.3709608567754], [-158.04031486968, 21.3721153628264], [-158.04018633254, 21.3724148757353], [-158.04003813275, 21.3726845496978], [-158.039864582793, 21.3729406124126], [-158.039559870971, 21.373294658572], [-158.039329550853, 21.3735078541704], [-158.039079649595, 21.3737007353388], [-158.038672575979, 21.3739485779455], [-158.038233508805, 21.3741426826755], [-158.037926972523, 21.3742404339285], [-158.037452668395, 21.3743375935341], [-158.03689676465, 21.3743786664969], [-158.031869852499, 21.3744788772847], [-158.031261936095, 21.3745063460003], [-158.030775817377, 21.3745565826828], [-158.030293591548, 21.374632942419], [-158.029816856067, 21.3747351702636], [-158.029347191997, 21.3748629281996], [-158.028659353216, 21.375101484564], [-158.02793756518, 21.3754238039593], [-158.02471320643, 21.37712922794], [-158.020687068156, 21.3792049033353], [-158.017566952646, 21.3807546918492], [-158.016547402776, 21.3812182472395], [-158.015853023376, 21.3814973247978], [-158.015148024832, 21.3817519786715], [-158.014433385201, 21.3819818555044], [-158.013345521791, 21.3822795234533], [-158.012611145639, 21.382446135039], [-158.011332023568, 21.3827102441365], [-158.010296268791, 21.3829485865219], [-158.009800165387, 21.3830433489943], [-158.008672302141, 21.3832166737051], [-158.006651549914, 21.3835619843328], [-158.002354582412, 21.3843690156259], [-158.001930006627, 21.384462257239], [-158.001471784771, 21.3845880817897], [-158.000800977679, 21.3848229325698], [-158.000154507855, 21.3851115121102], [-157.999739474088, 21.385332683284], [-157.99914433312, 21.3857057587882], [-157.99876779435, 21.3859808000933], [-157.997354375133, 21.3871502730304], [-157.995601156232, 21.3886562197386], [-157.995200098472, 21.3889584187712], [-157.994355563622, 21.3895259324254], [-157.994036804103, 21.3897584707304], [-157.991767543883, 21.3916739926063], [-157.991509425211, 21.3918743788481], [-157.991246733353, 21.3920497222382], [-157.990827239922, 21.3922752919611], [-157.990533111532, 21.3923993586075], [-157.990229510176, 21.3925014663024], [-157.989770375796, 21.3926121658284], [-157.98809754753, 21.3929233602675], [-157.987715906023, 21.3930332639512], [-157.987257984472, 21.3932183517338], [-157.986967454527, 21.3933700096607], [-157.986538685028, 21.3936488450162], [-157.98254032256, 21.3965883479341], [-157.982197785547, 21.3967662969366], [-157.981828457922, 21.3968885266778], [-157.981442590053, 21.3969516458113], [-157.981050886424, 21.3969539032845], [-157.980791879335, 21.3969214942685], [-157.980519951715, 21.3968576241333], [-157.978484383215, 21.3962242449769], [-157.978104119817, 21.3961183496414], [-157.977497707723, 21.3960008671888], [-157.976763010904, 21.3959136896564], [-157.978221413106, 21.3961480512131], [-157.978032996934, 21.3960999734728], [-157.977458230417, 21.3959950210859], [-157.976635706409, 21.395898528515], [-157.976145382523, 21.3958228027309], [-157.975660752568, 21.395719832212], [-157.975183540097, 21.3955899839492], [-157.968201536946, 21.393174975477], [-157.965674136322, 21.3922723391751], [-157.964960134387, 21.3919907997414], [-157.961659988793, 21.3904645252633], [-157.960275398206, 21.3898505049412], [-157.958722331412, 21.3891214084786], [-157.956445507281, 21.3880834083584], [-157.954947226011, 21.3874429544421], [-157.953805922733, 21.3868895403802], [-157.951599746182, 21.3858967823642], [-157.950365452005, 21.3853041022921], [-157.947484981634, 21.3840512071342], [-157.945606156711, 21.3831938088489], [-157.94412587675, 21.3824642672183], [-157.942009370652, 21.381556678334], [-157.939855844883, 21.3805282827709], [-157.938343396539, 21.3798801842796], [-157.937866641427, 21.3796549949819], [-157.937206707252, 21.3792879126568], [-157.936580714881, 21.3788719347191], [-157.933954951547, 21.3768193502031], [-157.933766309187, 21.3766626107755], [-157.93353443429, 21.3764403921237], [-157.933227992151, 21.3760734084004], [-157.932975884753, 21.3756717838815], [-157.932782513328, 21.3752425309899], [-157.932687941623, 21.3749446992286], [-157.93259943277, 21.3744862343742], [-157.932576231058, 21.3740208412719], [-157.932618741954, 21.3735566459486], [-157.932726221566, 21.373101752219], [-157.932896793148, 21.3726641035112], [-157.933053266375, 21.3723691447812], [-157.936193203925, 21.3671740095003], [-157.936548304687, 21.3665367000105], [-157.937329346037, 21.3649704885425], [-157.937540315007, 21.3644893745738], [-157.937637709977, 21.3641930326915], [-157.937709355027, 21.3638903147224], [-157.937754784746, 21.3635831804124], [-157.937773705345, 21.3632736202679], [-157.937752160444, 21.3628091129523], [-157.937671652011, 21.3623195269926], [-157.936132669423, 21.355266969792], [-157.935702332937, 21.3536402972171], [-157.935474744112, 21.3525344337022], [-157.934814394143, 21.34950999893], [-157.933681706138, 21.3448621983402], [-157.933460601235, 21.3441641154121], [-157.933176027086, 21.343486509895], [-157.932830105925, 21.3428344364911], [-157.932425418812, 21.3422127594671], [-157.931964986343, 21.3416261156291], [-157.931628740331, 21.341256655319], [-157.931270353206, 21.3409059406146], [-157.930693874593, 21.3404175455553], [-157.930074566605, 21.3399775734155], [-157.929640170965, 21.3397127968512], [-157.928959890346, 21.3393606343041], [-157.928249714631, 21.339064778277], [-157.927762263967, 21.3388999304555], [-157.927014127607, 21.3387026083272], [-157.925971158005, 21.3385111575727], [-157.923709047622, 21.3382176651102], [-157.923541548314, 21.3381706924937], [-157.923390137522, 21.3381050349184], [-157.923249954969, 21.3380202729407], [-157.923123727971, 21.337918057938], [-157.923001449591, 21.3377846923082], [-157.922902945576, 21.3376350478159], [-157.922830641321, 21.3374728078635], [-157.922786316147, 21.3373019680483], [-157.92277616188, 21.3370191464978], [-157.922880481868, 21.3364021418855], [-157.922893739112, 21.3361543047361], [-157.922855144005, 21.3358862018063], [-157.922600460023, 21.3347534052713], [-157.922524522932, 21.3345367425835], [-157.922435641556, 21.334380841384], [-157.922321509511, 21.3342401108601], [-157.922109434892, 21.3340651153608], [-157.921859203949, 21.3339420751343], [-157.921663625945, 21.3338887292207], [-157.920437994285, 21.3337008194754], [-157.920192168248, 21.3336750753174], [-157.919916748327, 21.3336862566111], [-157.918734681009, 21.3338394279512], [-157.918442186702, 21.3338609751631], [-157.917202503347, 21.3337990308041], [-157.916695121239, 21.3337590683679], [-157.914369367147, 21.3334140921344], [-157.913131550056, 21.3332567848609], [-157.910566346603, 21.3328752278056], [-157.908970176607, 21.3327048584162], [-157.908545184038, 21.3326720194679], [-157.908163584356, 21.3326803238628], [-157.907722907627, 21.3327362772517], [-157.906471479348, 21.3330691818464], [-157.906114420896, 21.3331206363448], [-157.905753331107, 21.3331309364145], [-157.905434910065, 21.3331061352019], [-157.904401532951, 21.332958617505], [-157.90399695108, 21.3329196406818], [-157.903583955248, 21.3329037287877], [-157.902484094522, 21.33291190393], [-157.902209790579, 21.3328976333597], [-157.899305859524, 21.3324706242407], [-157.898918906974, 21.3324395404225], [-157.898639517922, 21.3324455607546], [-157.898361982917, 21.3324762628323], [-157.898088779419, 21.3325313726975], [-157.89769241774, 21.3326586676041], [-157.897373795661, 21.3328058409863], [-157.896554645429, 21.333250146681], [-157.896165199487, 21.3334109581711], [-157.895918600252, 21.3334824031188], [-157.895691532017, 21.3335292058348], [-157.895461626914, 21.3335593067591], [-157.895203904458, 21.3335727327581], [-157.894894457354, 21.3335609996783], [-157.894576852756, 21.3335173896471], [-157.892943842339, 21.3331605316069], [-157.892611776424, 21.3331000355259], [-157.892154095185, 21.333069881722], [-157.891144669246, 21.3331250193452], [-157.890716436631, 21.3331119218145], [-157.890313429069, 21.3330499977187], [-157.888857722855, 21.3327513891648]]}}]}