{"type": "FeatureCollection", "features": [{"type": "Feature", "properties": {"id": 13525193166, "stationKey": "1-1", "stationName": "Kualaka\u02bbi Station", "name": "NE entrance", "bearingFromStation": 25.0, "source": "osm", "accessible": true}, "geometry": {"type": "Point", "coordinates": [-158.0508197, 21.345961]}}, {"type": "Feature", "properties": {"id": 13367947345, "stationKey": "1-10", "stationName": "Makalapa Station", "name": "N entrance", "bearingFromStation": 21.1, "source": "osm", "accessible": true}, "geometry": {"type": "Point", "coordinates": [-157.9352097, 21.3524256]}}, {"type": "Feature", "properties": {"id": 13298483992, "stationKey": "1-11", "stationName": "Lelepaua Station", "name": "N entrance", "bearingFromStation": 10.5, "source": "osm", "accessible": true}, "geometry": {"type": "Point", "coordinates": [-157.9209078, 21.334095]}}, {"type": "Feature", "properties": {"id": 13298483991, "stationKey": "1-11", "stationName": "Lelepaua Station", "name": "S entrance", "bearingFromStation": 187.4, "source": "osm", "accessible": true}, "geometry": {"type": "Point", "coordinates": [-157.9209817, 21.3337071]}}, {"type": "Feature", "properties": {"id": 13298483979, "stationKey": "1-11", "stationName": "Lelepaua Station", "name": "S entrance", "bearingFromStation": 188.0, "source": "osm", "accessible": true}, "geometry": {"type": "Point", "coordinates": [-157.9210189, 21.3334653]}}, {"type": "Feature", "properties": {"id": 13298502164, "stationKey": "1-12", "stationName": "\u0100hua Station", "name": "SW entrance", "bearingFromStation": 244.1, "source": "osm", "accessible": true}, "geometry": {"type": "Point", "coordinates": [-157.9016076, 21.3326714]}}, {"type": "Feature", "properties": {"id": 13298502163, "stationKey": "1-12", "stationName": "\u0100hua Station", "name": "NW entrance", "bearingFromStation": 322.5, "source": "osm", "accessible": true}, "geometry": {"type": "Point", "coordinates": [-157.9015623, 21.3329546]}}, {"type": "Feature", "properties": {"id": 13298274193, "stationKey": "1-13", "stationName": "Kahauiki Station", "name": "N entrance", "bearingFromStation": 14.2, "source": "osm", "accessible": true}, "geometry": {"type": "Point", "coordinates": [-157.8886092, 21.3335255]}}, {"type": "Feature", "properties": {"id": 12813070636, "stationKey": "1-2", "stationName": "Keone\u02bbae Station", "name": "SW entrance", "bearingFromStation": 238.9, "source": "osm", "accessible": true}, "geometry": {"type": "Point", "coordinates": [-158.0521233, 21.357997]}}, {"type": "Feature", "properties": {"id": 12810665856, "stationKey": "1-3", "stationName": "Honouliuli Station", "name": "NE entrance", "bearingFromStation": 46.6, "source": "osm", "accessible": true}, "geometry": {"type": "Point", "coordinates": [-158.0450422, 21.3671381]}}, {"type": "Feature", "properties": {"id": 12458582341, "stationKey": "1-4", "stationName": "H\u014d\u02bbae\u02bbae Station", "name": "SE entrance", "bearingFromStation": 151.7, "source": "osm", "accessible": true}, "geometry": {"type": "Point", "coordinates": [-158.0223767, 21.3776263]}}, {"type": "Feature", "properties": {"id": 13525104992, "stationKey": "1-4", "stationName": "H\u014d\u02bbae\u02bbae Station", "name": "N entrance", "bearingFromStation": 353.7, "source": "osm", "accessible": true}, "geometry": {"type": "Point", "coordinates": [-158.02272, 21.3784507]}}, {"type": "Feature", "properties": {"id": 13595879394, "stationKey": "1-5", "stationName": "Pouhala Station", "name": "SE entrance", "bearingFromStation": 155.8, "source": "osm", "accessible": true}, "geometry": {"type": "Point", "coordinates": [-158.0037583, 21.3839091]}}, {"type": "Feature", "properties": {"id": 12829276233, "stationKey": "1-5", "stationName": "Pouhala Station", "name": "S entrance", "bearingFromStation": 159.8, "source": "osm"}, "geometry": {"type": "Point", "coordinates": [-158.003745, 21.3838392]}}, {"type": "Feature", "properties": {"id": 12829276248, "stationKey": "1-5", "stationName": "Pouhala Station", "name": "N entrance", "bearingFromStation": 346.9, "source": "osm", "accessible": true}, "geometry": {"type": "Point", "coordinates": [-158.0040023, 21.3847324]}}, {"type": "Feature", "properties": {"id": 13525170888, "stationKey": "1-6", "stationName": "H\u0101laulani Station", "name": "S entrance", "bearingFromStation": 167.2, "source": "osm"}, "geometry": {"type": "Point", "coordinates": [-157.985559, 21.3940317]}}, {"type": "Feature", "properties": {"id": 13525152360, "stationKey": "1-7", "stationName": "Waiawa Station", "name": "NW entrance", "bearingFromStation": 311.7, "source": "osm"}, "geometry": {"type": "Point", "coordinates": [-157.980401, 21.3970553]}}, {"type": "Feature", "properties": {"id": 13525152359, "stationKey": "1-7", "stationName": "Waiawa Station", "name": "NW entrance", "bearingFromStation": 325.6, "source": "osm", "accessible": true}, "geometry": {"type": "Point", "coordinates": [-157.9801542, 21.3969776]}}, {"type": "Feature", "properties": {"id": 13295812611, "stationKey": "1-8", "stationName": "Kalauao Station", "name": "Mauka Entrance", "bearingFromStation": 71.4, "source": "osm", "accessible": true}, "geometry": {"type": "Point", "coordinates": [-157.9468162, 21.383955]}}, {"type": "Feature", "properties": {"id": 13295812612, "stationKey": "1-8", "stationName": "Kalauao Station", "name": "Makai Entrance", "bearingFromStation": 161.8, "source": "osm", "accessible": true}, "geometry": {"type": "Point", "coordinates": [-157.947015, 21.3835764]}}, {"type": "Feature", "properties": {"id": 13368101029, "stationKey": "1-9", "stationName": "H\u0101lawa Station", "name": "NE entrance", "bearingFromStation": 27.6, "source": "osm", "accessible": true}, "geometry": {"type": "Point", "coordinates": [-157.9336654, 21.3713747]}}]}