{"type": "FeatureCollection", "crs": {"type": "name", "properties": {"name": "EPSG:4326"}}, "features": [{"type": "Feature", "id": 1, "geometry": {"type": "Point", "coordinates": [-158.051023987542, 21.3455523406063]}, "properties": {"OBJECTID": 1, "ID": 1, "STATION": "Kualaka\u02bbi Station", "GlobalID": "924f7617-51b1-473e-acea-33044c546fd9", "station_name_FEIS": "East Kapolei Station"}}, {"type": "Feature", "id": 2, "geometry": {"type": "Point", "coordinates": [-158.051206328336, 21.3585112784192]}, "properties": {"OBJECTID": 2, "ID": 2, "STATION": "Keone\u02bbae Station", "GlobalID": "afe91172-cdc9-492b-84c7-27bb22a1ded3", "station_name_FEIS": "UH West O\u2019ahu Station"}}, {"type": "Feature", "id": 3, "geometry": {"type": "Point", "coordinates": [-158.045281842757, 21.3669266912792]}, "properties": {"OBJECTID": 3, "ID": 3, "STATION": "Honouliuli Station", "GlobalID": "7061192e-7e18-44b0-8a31-f4471398c5a8", "station_name_FEIS": "Ho\u02bbopili Station"}}, {"type": "Feature", "id": 4, "geometry": {"type": "Point", "coordinates": [-158.022685593, 21.3781615359324]}, "properties": {"OBJECTID": 4, "ID": 4, "STATION": "H\u014d\u02bbae\u02bbae Station", "GlobalID": "09a50b09-aca7-4904-ac30-a478bc8b59b6", "station_name_FEIS": "West Loch Station"}}, {"type": "Feature", "id": 5, "geometry": {"type": "Point", "coordinates": [-158.00383750789, 21.3840729981172]}, "properties": {"OBJECTID": 5, "ID": 5, "STATION": "Pouhala Station", "GlobalID": "5b1dccbd-4d10-47fd-af81-9545cf1f5827", "station_name_FEIS": "Waipahu Transit Center Station"}}, {"type": "Feature", "id": 6, "geometry": {"type": "Point", "coordinates": [-157.985626646487, 21.3943086921707]}, "properties": {"OBJECTID": 6, "ID": 6, "STATION": "H\u0101laulani Station", "GlobalID": "f16b6dfe-ce8f-4946-b2f8-48aa66d9219f", "station_name_FEIS": "Leeward Community College Station"}}, {"type": "Feature", "id": 7, "geometry": {"type": "Point", "coordinates": [-157.979915080123, 21.3966524363227]}, "properties": {"OBJECTID": 7, "ID": 7, "STATION": "Waiawa Station", "GlobalID": "c74ec6f0-84d3-44c1-b1e3-3a255d78e2fb", "station_name_FEIS": "Pearl Highlands Station"}}, {"type": "Feature", "id": 8, "geometry": {"type": "Point", "coordinates": [-157.947115721222, 21.3838612062439]}, "properties": {"OBJECTID": 8, "ID": 8, "STATION": "Kalauao Station", "GlobalID": "182adceb-f950-40cb-b2b0-8254fb6e870d", "station_name_FEIS": "Kalauao Station"}}, {"type": "Feature", "id": 9, "geometry": {"type": "Point", "coordinates": [-157.933841311732, 21.3710616465305]}, "properties": {"OBJECTID": 9, "ID": 9, "STATION": "H\u0101lawa Station", "GlobalID": "21a40804-7e4e-4890-a18d-cbf760f297c0", "station_name_FEIS": "H\u0101lawa Station"}}, {"type": "Feature", "id": 10, "geometry": {"type": "Point", "coordinates": [-157.935375383065, 21.352024849957]}, "properties": {"OBJECTID": 10, "ID": 10, "STATION": "Makalapa Station", "GlobalID": "8d2c4284-df21-4b1c-b53c-34fb3b2b6152", "station_name_FEIS": "Pearl Harbor Naval Base Station"}}, {"type": "Feature", "id": 11, "geometry": {"type": "Point", "coordinates": [-157.920974014074, 21.3337622226329]}, "properties": {"OBJECTID": 11, "ID": 11, "STATION": "Lelepaua Station", "GlobalID": "55407362-e6ee-4bfa-97d0-3a9e295420e7", "station_name_FEIS": "Honolulu International Airport Station"}}, {"type": "Feature", "id": 12, "geometry": {"type": "Point", "coordinates": [-157.901404562186, 21.3327633472269]}, "properties": {"OBJECTID": 12, "ID": 12, "STATION": "\u0100hua Station", "GlobalID": "5bc394eb-db75-4ea6-b040-600d8d03c25f", "station_name_FEIS": "Lagoon Drive Station"}}, {"type": "Feature", "id": 13, "geometry": {"type": "Point", "coordinates": [-157.888827186567, 21.3327254693821]}, "properties": {"OBJECTID": 13, "ID": 13, "STATION": "Kahauiki Station", "GlobalID": "b92a6c98-27ff-462e-a093-a9070b22f471", "station_name_FEIS": "Middle Street Transit Center Station"}}, {"type": "Feature", "id": 14, "geometry": {"type": "Point", "coordinates": [-157.881329656506, 21.3284382411711]}, "properties": {"OBJECTID": 14, "ID": 14, "STATION": "Mokauea Station", "GlobalID": "8a52bf8f-808f-4f4e-b9d5-5e6f34033fd2", "station_name_FEIS": "Kalihi Station"}}, {"type": "Feature", "id": 15, "geometry": {"type": "Point", "coordinates": [-157.872544671617, 21.3218140376178]}, "properties": {"OBJECTID": 15, "ID": 15, "STATION": "Niuhelewai Station", "GlobalID": "e6b99ff2-c382-457b-9fa1-2de75dce608e", "station_name_FEIS": "Kapalama Station"}}, {"type": "Feature", "id": 16, "geometry": {"type": "Point", "coordinates": [-157.866434118197, 21.3176512875807]}, "properties": {"OBJECTID": 16, "ID": 16, "STATION": "K\u016bwili Station", "GlobalID": "2ba6c57f-1aad-4e9e-98ff-d88f1e056cd1", "station_name_FEIS": "Iwilei Station"}}, {"type": "Feature", "id": 17, "geometry": {"type": "Point", "coordinates": [-157.86513264953, 21.312496634572]}, "properties": {"OBJECTID": 17, "ID": 17, "STATION": "H\u014dlau Station", "GlobalID": "2b040391-f0a6-4017-9e64-b5f5a869abd1", "station_name_FEIS": "Chinatown Station"}}, {"type": "Feature", "id": 18, "geometry": {"type": "Point", "coordinates": [-157.863334603573, 21.3065226639621]}, "properties": {"OBJECTID": 18, "ID": 18, "STATION": "Kuloloia Station", "GlobalID": "06ea3fee-d2bf-4ba7-b88f-ad5c09dfc949", "station_name_FEIS": "Downtown Station"}}, {"type": "Feature", "id": 19, "geometry": {"type": "Point", "coordinates": [-157.859293582913, 21.3012428191922]}, "properties": {"OBJECTID": 19, "ID": 19, "STATION": "Ka\u02bb\u0101kaukukui Station", "GlobalID": "6e33a4b1-3fdf-48f1-a0ee-73462735dfef", "station_name_FEIS": "Civic Center Station"}}, {"type": "Feature", "id": 20, "geometry": {"type": "Point", "coordinates": [-157.854681727331, 21.2965986111103]}, "properties": {"OBJECTID": 20, "ID": 20, "STATION": "K\u016bkuluae\u02bbo Station", "GlobalID": "faf3d40e-4885-488a-8090-af2d3841a847", "station_name_FEIS": "Kaka'ako Station"}}, {"type": "Feature", "id": 21, "geometry": {"type": "Point", "coordinates": [-157.845308833644, 21.2932581941592]}, "properties": {"OBJECTID": 21, "ID": 21, "STATION": "K\u0101lia Station", "GlobalID": "148bb5db-db8f-436f-a520-e4f5c756a057", "station_name_FEIS": "Ala Moana Center Station"}}]}