{"type": "FeatureCollection", "features": [{"type": "Feature", "properties": {"id": 1535298078, "name": "Splash Park", "category": "playground", "tags": ["playground"], "sources": ["osm"]}, "geometry": {"type": "Point", "coordinates": [-157.9090087, 21.3605996]}}, {"type": "Feature", "properties": {"id": 1533179191, "name": "Physical Fitness Center", "category": "fitness_centre", "tags": ["fitness-centre"], "sources": ["osm"], "address": "Kauhini Road"}, "geometry": {"type": "Point", "coordinates": [-157.9087453, 21.3611734]}}]}