{"type": "FeatureCollection", "features": [{"type": "Feature", "properties": {"id": 1269307259, "name": "Building 140", "category": "clinic", "tags": ["clinic"], "sources": ["osm"]}, "geometry": {"type": "Point", "coordinates": [-157.9569901, 21.3482843]}}, {"type": "Feature", "properties": {"id": 1270356082, "name": "Building 207", "category": "clinic", "tags": ["clinic"], "sources": ["osm"]}, "geometry": {"type": "Point", "coordinates": [-157.9532714, 21.3493534]}}, {"type": "Feature", "properties": {"id": 1558196405, "name": "Building 1750", "category": "clinic", "tags": ["clinic"], "sources": ["osm"], "address": "480 Central Avenue"}, "geometry": {"type": "Point", "coordinates": [-157.9574164, 21.3475552]}}, {"type": "Feature", "properties": {"id": 1237470913, "name": "Navy Federal Credit Union", "category": "bank", "tags": ["bank"], "sources": ["osm"]}, "geometry": {"type": "Point", "coordinates": [-157.9520533, 21.3413927]}}]}