{"type": "FeatureCollection", "features": [{"type": "Feature", "properties": {"id": 494890791, "name": "Jack in the Box", "category": "fast_food", "tags": ["fast-food", "burger", "takeaway"], "sources": ["osm"], "website": "https://locations.jackinthebox.com/us/hi/honolulu/2183-n-king-st", "address": "2183 North King Street", "stations": [{"stopCode": 13, "lines": "1", "name": "Kahauiki Station", "walkingMeters": 1279, "walkingSeconds": 926, "band": 15}]}, "geometry": {"type": "Point", "coordinates": [-157.8806698, 21.3344416]}}, {"type": "Feature", "properties": {"id": 5750422326, "name": "Samurai", "category": "ice_cream", "tags": ["ice-cream"], "sources": ["osm"], "address": "738 Umi Street"}, "geometry": {"type": "Point", "coordinates": [-157.8826606, 21.3340515]}}, {"type": "Feature", "properties": {"id": 11880736398, "name": "Mitsu-Ken Okazu and Catering", "category": "restaurant", "tags": ["restaurant", "japanese", "regional", "takeaway"], "sources": ["osm"], "website": "https://foodeist.com/place/mitsu-ken", "phone": "+18088485573", "address": "2300 North King Street"}, "geometry": {"type": "Point", "coordinates": [-157.882047, 21.3362251]}}, {"type": "Feature", "properties": {"id": 11374439496, "name": "Marukai", "category": "supermarket", "tags": ["supermarket", "japanese", "wheelchair-accessible"], "sources": ["osm"], "website": "https://www.marukaihawaii.com/", "phone": "+1 808-845-5051", "address": "2310 Kamehameha Highway", "stations": [{"stopCode": 13, "lines": "1", "name": "Kahauiki Station", "walkingMeters": 423, "walkingSeconds": 309, "band": 5}]}, "geometry": {"type": "Point", "coordinates": [-157.8855598, 21.3328456]}}, {"type": "Feature", "properties": {"id": 12769334927, "name": "PC Plug Hawaii", "category": "electronics", "tags": ["electronics", "wifi"], "sources": ["osm"], "website": "https://pcplughi.com/", "phone": "+1 808-888-7584", "address": "2290 Alahao Place", "hours": "Mo-Sa 10:00-18:00"}, "geometry": {"type": "Point", "coordinates": [-157.888207, 21.3304741]}}, {"type": "Feature", "properties": {"id": 13480296203, "name": "Sand Island Surf Shop", "category": "sports", "tags": ["sports", "surfing"], "sources": ["osm"], "website": "https://www.sandislandsurfshop.com", "phone": "+1-808-591-9995", "address": "2290 Alahao Place", "hours": "Tu-Su 11:00-17:00"}, "geometry": {"type": "Point", "coordinates": [-157.8885667, 21.3303098]}}, {"type": "Feature", "properties": {"id": 11880657231, "name": "House of Finance Inc.", "category": "bank", "tags": ["bank", "air-conditioned"], "sources": ["osm"], "website": "https://www.hofhawaii.com/", "address": "2300 North King Street"}, "geometry": {"type": "Point", "coordinates": [-157.8821647, 21.3362346]}}]}