{"type": "FeatureCollection", "features": [{"type": "Feature", "properties": {"id": 827785525, "name": "McDonald's", "category": "fast_food", "tags": ["fast-food", "burger", "takeaway", "drive-through"], "sources": ["osm"], "website": "https://www.mcdonalds.com/us/en-us/location/hi/pearl-city/1180-kuala-street/33309.html", "phone": "+1-808-453-5005", "address": "1180 Kuala Street", "hours": "24/7"}, "geometry": {"type": "Point", "coordinates": [-157.9741525, 21.4001678]}}, {"type": "Feature", "properties": {"id": 967422532, "name": "Raising Cane's", "category": "fast_food", "tags": ["fast-food", "chicken", "outdoor-seating", "takeaway", "drive-through", "wheelchair-accessible"], "sources": ["osm"], "website": "https://www.raisingcanes.com/", "phone": "+1-808-400-8108", "address": "1240 Kuala Street", "hours": "Mo-Su 10:00-24:00"}, "geometry": {"type": "Point", "coordinates": [-157.9718429, 21.4018957]}}, {"type": "Feature", "properties": {"id": 595894321, "name": "Shigeo Ushiro Manana Neighborhood Park", "category": "park", "tags": ["park"], "sources": ["osm"]}, "geometry": {"type": "Point", "coordinates": [-157.9706919, 21.4079064]}}, {"type": "Feature", "properties": {"id": 827780250, "name": "M\u0101nana Kai Neighborhood Park", "category": "park", "tags": ["park"], "sources": ["osm"], "address": "1378 Hooli Circle"}, "geometry": {"type": "Point", "coordinates": [-157.9741437, 21.4011711]}}, {"type": "Feature", "properties": {"id": 1086581281, "name": "7-Eleven", "category": "convenience", "tags": ["convenience"], "sources": ["osm"], "website": "https://7elevenhawaii.com/the-kuala-store/", "phone": "+1-808-455-7414", "address": "1255 Kuala Street"}, "geometry": {"type": "Point", "coordinates": [-157.9701183, 21.4021337]}}, {"type": "Feature", "properties": {"id": 392879834, "name": "Foodland Farms", "category": "supermarket", "tags": ["supermarket"], "sources": ["osm"]}, "geometry": {"type": "Point", "coordinates": [-157.9749961, 21.4006469]}}, {"type": "Feature", "properties": {"id": 1088310660, "name": "Hickam Federal Credit Union", "category": "bank", "tags": ["bank", "drive-through"], "sources": ["osm"], "website": "https://www.hickamfcu.org/", "address": "1260 Kuala Street", "hours": "Mo-Th 08:30-17:00; Fr 08:30-18:00; Sa 09:00-14:00; Su off"}, "geometry": {"type": "Point", "coordinates": [-157.9704042, 21.4027612]}}]}