{"type": "FeatureCollection", "features": [{"type": "Feature", "properties": {"id": 806731014, "name": "Waiau District Park", "category": "park", "tags": ["park"], "sources": ["osm"], "address": "98-1650 Kaahumanu Street", "hours": "Mo-Su 05:00-22:00"}, "geometry": {"type": "Point", "coordinates": [-157.9519269, 21.4038917]}}, {"type": "Feature", "properties": {"id": 11104219157, "name": "Leahi Swim School", "category": "sports_centre", "tags": ["sports-centre", "swimming"], "sources": ["osm"], "website": "https://www.leahiswimschool.com/", "phone": "+1-808-234-7946"}, "geometry": {"type": "Point", "coordinates": [-157.9596783, 21.4085776]}}, {"type": "Feature", "properties": {"id": 806731009, "name": "Waiau District Park Recreation Center", "category": "sports_centre", "tags": ["sports-centre"], "sources": ["osm"]}, "geometry": {"type": "Point", "coordinates": [-157.9510646, 21.4046122]}}]}