{"type": "FeatureCollection", "features": [{"type": "Feature", "properties": {"id": 11140163752, "name": "Starbucks", "category": "cafe", "tags": ["cafe", "coffee-shop", "takeaway"], "sources": ["osm"]}, "geometry": {"type": "Point", "coordinates": [-157.9287793, 21.3447529]}}, {"type": "Feature", "properties": {"id": 11140163750, "name": "Jack in the Box", "category": "fast_food", "tags": ["fast-food", "burger", "takeaway"], "sources": ["osm"], "website": "https://locations.jackinthebox.com/us/hi/honolulu/4859-warden-ave"}, "geometry": {"type": "Point", "coordinates": [-157.9282386, 21.3450736]}}, {"type": "Feature", "properties": {"id": 4286375789, "name": "Taco Del Mar", "category": "fast_food", "tags": ["fast-food", "mexican", "takeaway"], "sources": ["osm"]}, "geometry": {"type": "Point", "coordinates": [-157.9286951, 21.3444419]}}, {"type": "Feature", "properties": {"id": 11140163753, "name": "Jamba", "category": "fast_food", "tags": ["fast-food", "juice", "takeaway"], "sources": ["osm"]}, "geometry": {"type": "Point", "coordinates": [-157.9287204, 21.3445239]}}, {"type": "Feature", "properties": {"id": 7041344890, "name": "Taco Bell", "category": "fast_food", "tags": ["fast-food", "tex-mex", "takeaway", "drive-through"], "sources": ["osm"], "website": "https://locations.tacobell.com/hi/honolulu/934-valkenburgh-st.html", "hours": "07:00-20:00"}, "geometry": {"type": "Point", "coordinates": [-157.9278399, 21.3446833]}}, {"type": "Feature", "properties": {"id": 9845557431, "name": "Ruby Tuesday", "category": "restaurant", "tags": ["restaurant", "american"], "sources": ["osm"]}, "geometry": {"type": "Point", "coordinates": [-157.9294157, 21.3450466]}}, {"type": "Feature", "properties": {"id": 9845557432, "name": "Tex 808", "category": "restaurant", "tags": ["restaurant", "barbecue"], "sources": ["osm"], "website": "https://tex808.com"}, "geometry": {"type": "Point", "coordinates": [-157.9290158, 21.3450052]}}, {"type": "Feature", "properties": {"id": 863638084, "name": "McDonald's", "category": "fast_food", "tags": ["fast-food", "burger", "takeaway", "drive-through", "wheelchair-accessible", "air-conditioned"], "sources": ["osm"], "website": "https://www.mcdonalds.com/us/en-us/location/hi/honolulu/928-valkenburgh-st/4029.html"}, "geometry": {"type": "Point", "coordinates": [-157.9281476, 21.3441478]}}, {"type": "Feature", "properties": {"id": 11140163754, "name": "Yummy Korean B-B-Q", "category": "restaurant", "tags": ["restaurant", "korean"], "sources": ["osm"]}, "geometry": {"type": "Point", "coordinates": [-157.9288044, 21.3448151]}}, {"type": "Feature", "properties": {"id": 8045254451, "name": "McDonald's PlayPlace", "category": "playground", "tags": ["playground"], "sources": ["osm"]}, "geometry": {"type": "Point", "coordinates": [-157.9281002, 21.3441374]}}, {"type": "Feature", "properties": {"id": 11140163751, "name": "AT&T", "category": "mobile_phone", "tags": ["mobile-phone"], "sources": ["osm"]}, "geometry": {"type": "Point", "coordinates": [-157.9288495, 21.3448654]}}, {"type": "Feature", "properties": {"id": 192374807, "name": "NEX Furniture Store", "category": "furniture", "tags": ["furniture"], "sources": ["osm"]}, "geometry": {"type": "Point", "coordinates": [-157.929893, 21.3427241]}}]}