{"type": "FeatureCollection", "features": [{"type": "Feature", "properties": {"id": 13709821307, "name": "Starbucks", "category": "cafe", "tags": ["cafe", "coffee-shop", "takeaway"], "sources": ["osm"], "website": "https://www.starbucks.com/", "phone": "+1 808-484-9548", "address": "98-125 Kaonohi Street", "hours": "Mo-Su 03:30-20:00", "stations": [{"stopCode": 8, "lines": "1", "name": "Kalauao Station", "walkingMeters": 317, "walkingSeconds": 229, "band": 5}]}, "geometry": {"type": "Point", "coordinates": [-157.9449657, 21.3836722]}}, {"type": "Feature", "properties": {"id": 14027795641, "name": "Starbucks", "category": "cafe", "tags": ["cafe", "coffee-shop", "takeaway"], "sources": ["osm"], "address": "98-1005 Moanalua Road", "hours": "Mo-Sa 10:30-19:00;Su 11:30-18:00", "stations": [{"stopCode": 8, "lines": "1", "name": "Kalauao Station", "walkingMeters": 913, "walkingSeconds": 660, "band": 10}]}, "geometry": {"type": "Point", "coordinates": [-157.9416499, 21.3852939]}}, {"type": "Feature", "properties": {"id": 14027795668, "name": "Panda Express", "category": "fast_food", "tags": ["fast-food", "chinese"], "sources": ["osm"], "address": "98-1005 Moanalua Road", "hours": "Mo-Sa 10:00-20:00; Su 10:00-18:00", "stations": [{"stopCode": 8, "lines": "1", "name": "Kalauao Station", "walkingMeters": 786, "walkingSeconds": 569, "band": 10}]}, "geometry": {"type": "Point", "coordinates": [-157.9413759, 21.3851151]}}, {"type": "Feature", "properties": {"id": 4380061359, "name": "Teddy's Bigger Burgers", "category": "fast_food", "tags": ["fast-food", "burger", "takeaway", "delivery", "wheelchair-accessible", "has-bar"], "sources": ["osm"], "website": "https://www.teddysbb.com/", "phone": "+1 808-486-2167", "address": "98-150 Kaahele Street", "hours": "Mo-Su 10:00-21:00", "stations": [{"stopCode": 8, "lines": "1", "name": "Kalauao Station", "walkingMeters": 296, "walkingSeconds": 214, "band": 5}]}, "geometry": {"type": "Point", "coordinates": [-157.9458593, 21.3843445]}}, {"type": "Feature", "properties": {"id": 14027795686, "name": "Subway", "category": "fast_food", "tags": ["fast-food", "sandwich", "takeaway"], "sources": ["osm"], "address": "98-1005 Moanalua Road", "hours": "Mo-Sa 10:00-20:00; Su 10:00-18:00", "stations": [{"stopCode": 8, "lines": "1", "name": "Kalauao Station", "walkingMeters": 893, "walkingSeconds": 645, "band": 10}]}, "geometry": {"type": "Point", "coordinates": [-157.9415944, 21.3850797]}}, {"type": "Feature", "properties": {"id": 14027795671, "name": "Jamba", "category": "fast_food", "tags": ["fast-food", "juice", "takeaway"], "sources": ["osm"], "address": "98-1005 Moanalua Road", "hours": "Mo-Sa 07:00-21:00; Su 07:00-18:00", "stations": [{"stopCode": 8, "lines": "1", "name": "Kalauao Station", "walkingMeters": 919, "walkingSeconds": 665, "band": 10}]}, "geometry": {"type": "Point", "coordinates": [-157.9416443, 21.3852347]}}, {"type": "Feature", "properties": {"id": 5678211722, "name": "Curry House", "category": "fast_food", "tags": ["fast-food", "asian"], "sources": ["osm"], "stations": [{"stopCode": 8, "lines": "1", "name": "Kalauao Station", "walkingMeters": 710, "walkingSeconds": 511, "band": 10}]}, "geometry": {"type": "Point", "coordinates": [-157.9417557, 21.3809833]}}, {"type": "Feature", "properties": {"id": 5678211723, "name": "Domo Cafe", "category": "restaurant", "tags": ["restaurant", "japanese"], "sources": ["osm"], "stations": [{"stopCode": 8, "lines": "1", "name": "Kalauao Station", "walkingMeters": 702, "walkingSeconds": 506, "band": 10}]}, "geometry": {"type": "Point", "coordinates": [-157.941823, 21.3810141]}}, {"type": "Feature", "properties": {"id": 9671367502, "name": "Five Guys", "category": "fast_food", "tags": ["fast-food", "burger", "outdoor-seating", "takeaway"], "sources": ["osm"], "website": "https://restaurants.fiveguys.com/98-1005-moanalua-road", "phone": "+1 808-488-4442", "address": "98-1005 Moanalua Road", "hours": "Mo-Su 11:00-22:00", "stations": [{"stopCode": 8, "lines": "1", "name": "Kalauao Station", "walkingMeters": 740, "walkingSeconds": 536, "band": 10}]}, "geometry": {"type": "Point", "coordinates": [-157.9420062, 21.3850237]}}, {"type": "Feature", "properties": {"id": 7848217296, "name": "Dunkin'", "category": "fast_food", "tags": ["fast-food", "donut", "coffee-shop", "takeaway"], "sources": ["osm"], "stations": [{"stopCode": 8, "lines": "1", "name": "Kalauao Station", "walkingMeters": 593, "walkingSeconds": 430, "band": 10}]}, "geometry": {"type": "Point", "coordinates": [-157.942731, 21.3849119]}}, {"type": "Feature", "properties": {"id": 9610143446, "name": "Jumbo Popcorn", "category": "fast_food", "tags": ["fast-food", "popcorn"], "sources": ["osm"], "address": "98-1005 Moanalua Road", "hours": "Mo-Sa 10:00-20:00; Su 10:00-18:00", "stations": [{"stopCode": 8, "lines": "1", "name": "Kalauao Station", "walkingMeters": 881, "walkingSeconds": 637, "band": 15}]}, "geometry": {"type": "Point", "coordinates": [-157.9409893, 21.3851469]}}, {"type": "Feature", "properties": {"id": 9610143450, "name": "Goma Tei", "category": "restaurant", "tags": ["restaurant", "noodles"], "sources": ["osm"], "address": "98-1005 Moanalua Road", "stations": [{"stopCode": 8, "lines": "1", "name": "Kalauao Station", "walkingMeters": 884, "walkingSeconds": 639, "band": 10}]}, "geometry": {"type": "Point", "coordinates": [-157.9409795, 21.3850924]}}, {"type": "Feature", "properties": {"id": 9610143452, "name": "The Hall by Beerlab", "category": "restaurant", "tags": ["restaurant", "reservations", "has-bar", "brewery"], "sources": ["osm"], "website": "https://www.beerlabhi.com/pearlridge", "phone": "+1-808-762-0027", "address": "98-1005 Moanalua Road", "hours": "Mo-Th 11:00-22:00; Fr 11:00-00:00; Sa 08:00-00:00; Su 08:00-20:00", "stations": [{"stopCode": 8, "lines": "1", "name": "Kalauao Station", "walkingMeters": 864, "walkingSeconds": 625, "band": 10}]}, "geometry": {"type": "Point", "coordinates": [-157.9411559, 21.3851621]}}, {"type": "Feature", "properties": {"id": 841082604, "name": "McDonald's", "category": "fast_food", "tags": ["fast-food", "burger", "takeaway", "drive-through"], "sources": ["osm"], "website": "https://www.mcdonalds.com/us/en-us/location/hi/aiea/98-147-kamehameha-hwy/23244.html", "address": "98-147 Kamehameha Highway", "hours": "Mo-Su 06:00-23:00", "stations": [{"stopCode": 8, "lines": "1", "name": "Kalauao Station", "walkingMeters": 510, "walkingSeconds": 367, "band": 10}]}, "geometry": {"type": "Point", "coordinates": [-157.9436967, 21.3818892]}}, {"type": "Feature", "properties": {"id": 14027795645, "name": "Auntie Anne's", "category": "fast_food", "tags": ["fast-food", "pretzel", "takeaway"], "sources": ["osm"], "address": "98-1005 Moanalua Road", "stations": [{"stopCode": 8, "lines": "1", "name": "Kalauao Station", "walkingMeters": 914, "walkingSeconds": 661, "band": 10}]}, "geometry": {"type": "Point", "coordinates": [-157.941609, 21.385301]}}, {"type": "Feature", "properties": {"id": 11160892222, "name": "Toe Beans & Dreams Adoption Cafe", "category": "cafe", "tags": ["cafe"], "sources": ["osm"], "website": "https://www.toebeanshi.com/", "address": "98-199 Kamehameha Highway", "stations": [{"stopCode": 8, "lines": "1", "name": "Kalauao Station", "walkingMeters": 647, "walkingSeconds": 466, "band": 10}]}, "geometry": {"type": "Point", "coordinates": [-157.943633, 21.3808149]}}, {"type": "Feature", "properties": {"id": 14027795653, "name": "L&L Hawaiian Barbecue", "category": "fast_food", "tags": ["fast-food", "hawaiian", "takeaway"], "sources": ["osm"], "address": "98-1005 Moanalua Road", "hours": "Mo-Sa 10:00-20:00; Su 10:00-18:00", "stations": [{"stopCode": 8, "lines": "1", "name": "Kalauao Station", "walkingMeters": 896, "walkingSeconds": 648, "band": 10}]}, "geometry": {"type": "Point", "coordinates": [-157.9416234, 21.3850859]}}, {"type": "Feature", "properties": {"id": 11520648587, "name": "Ichiriki", "category": "restaurant", "tags": ["restaurant", "japanese", "takeaway"], "sources": ["osm"], "website": "https://www.ichirikinabe.com/", "phone": "+1 808-431-2856", "address": "98-150 Kaonohi Street", "hours": "Mo-Th 11:00-14:00,16:00-21:30; Fr 11:00-14:00,16:00-22:30; Sa 11:00-22:30; Su 11:00-21:30", "stations": [{"stopCode": 8, "lines": "1", "name": "Kalauao Station", "walkingMeters": 324, "walkingSeconds": 234, "band": 5}]}, "geometry": {"type": "Point", "coordinates": [-157.9457758, 21.3844839]}}, {"type": "Feature", "properties": {"id": 11535424677, "name": "Bravo", "category": "restaurant", "tags": ["restaurant", "italian"], "sources": ["osm"], "website": "https://www.bravorestaurant.com/", "phone": "+1 808-487-5544", "address": "98-115 Kaonohi Street", "hours": "Mo-Su 11:00-21:00", "stations": [{"stopCode": 8, "lines": "1", "name": "Kalauao Station", "walkingMeters": 265, "walkingSeconds": 191, "band": 5}]}, "geometry": {"type": "Point", "coordinates": [-157.9455578, 21.3835111]}}, {"type": "Feature", "properties": {"id": 11535424678, "name": "Anna Miller's", "category": "restaurant", "tags": ["restaurant", "american"], "sources": ["osm"], "website": "http://annamillersrestaurant.com/", "phone": "+1 808-487-2421", "address": "98-115 Kaonohi Street", "hours": "Mo-Fr 08:00-15:00; Sa,Su 07:00-15:00", "stations": [{"stopCode": 8, "lines": "1", "name": "Kalauao Station", "walkingMeters": 271, "walkingSeconds": 195, "band": 5}]}, "geometry": {"type": "Point", "coordinates": [-157.9454868, 21.3836022]}}, {"type": "Feature", "properties": {"id": 14027795658, "name": "Genki Sushi", "category": "restaurant", "tags": ["restaurant", "sushi"], "sources": ["osm"], "address": "98-1005 Moanalua Road", "stations": [{"stopCode": 8, "lines": "1", "name": "Kalauao Station", "walkingMeters": 861, "walkingSeconds": 623, "band": 10}]}, "geometry": {"type": "Point", "coordinates": [-157.9417332, 21.3851112]}}, {"type": "Feature", "properties": {"id": 13670786415, "name": "Thai Cuisine Express", "category": "restaurant", "tags": ["restaurant", "thai"], "sources": ["osm"], "website": "https://thaicuisineexpresshi.com/", "phone": "+1 808-431-9416", "address": "98-020 Kamehameha Highway", "hours": "Mo-Su 09:30-21:00", "stations": [{"stopCode": 8, "lines": "1", "name": "Kalauao Station", "walkingMeters": 469, "walkingSeconds": 338, "band": 10}]}, "geometry": {"type": "Point", "coordinates": [-157.9494457, 21.3855797]}}, {"type": "Feature", "properties": {"id": 13670786417, "name": "Pho Five-O", "category": "restaurant", "tags": ["restaurant", "vietnamese"], "sources": ["osm"], "website": "https://osegateas.com/phofive-o/index.html", "phone": "+1 808-487-5091", "address": "98-020 Kamehameha Highway", "hours": "Mo-Su 09:00-21:00", "stations": [{"stopCode": 8, "lines": "1", "name": "Kalauao Station", "walkingMeters": 449, "walkingSeconds": 323, "band": 10}]}, "geometry": {"type": "Point", "coordinates": [-157.9496858, 21.3856084]}}, {"type": "Feature", "properties": {"id": 13670786418, "name": "Waimalu Chop Suey", "category": "restaurant", "tags": ["restaurant", "chinese"], "sources": ["osm"], "phone": "+1 808-488-9010", "address": "98-020 Kamehameha Highway", "hours": "Mo-Su 10:00-21:00", "stations": [{"stopCode": 8, "lines": "1", "name": "Kalauao Station", "walkingMeters": 431, "walkingSeconds": 310, "band": 10}]}, "geometry": {"type": "Point", "coordinates": [-157.9495295, 21.3855341]}}, {"type": "Feature", "properties": {"id": 13670786419, "name": "Jin Joo Korean Restaurant", "category": "restaurant", "tags": ["restaurant", "korean"], "sources": ["osm"], "phone": "+1 808-488-3355", "address": "98-020 Kamehameha Highway", "hours": "Mo-Sa 10:00-21:00", "stations": [{"stopCode": 8, "lines": "1", "name": "Kalauao Station", "walkingMeters": 496, "walkingSeconds": 357, "band": 10}]}, "geometry": {"type": "Point", "coordinates": [-157.949671, 21.3857002]}}, {"type": "Feature", "properties": {"id": 13670786422, "name": "Shiro's Saimin Haven", "category": "restaurant", "tags": ["restaurant", "hawaiian"], "sources": ["osm"], "website": "https://shiros-saimin.com/", "address": "98-020 Kamehameha Highway", "hours": "Mo-Su 07:00-21:00", "stations": [{"stopCode": 8, "lines": "1", "name": "Kalauao Station", "walkingMeters": 483, "walkingSeconds": 348, "band": 10}]}, "geometry": {"type": "Point", "coordinates": [-157.9499791, 21.3857439]}}, {"type": "Feature", "properties": {"id": 13670786437, "name": "Chun Wah Kam Noodle Factory", "category": "restaurant", "tags": ["restaurant", "chinese", "hawaiian", "noodles"], "sources": ["osm"], "website": "https://chunwahkam.com/", "phone": "+1-808-485-1107", "address": "98-040 Kamehameha Highway", "hours": "Mo-Su 08:00-16:00; Dec 24,Dec 31 08:00-17:30; Dec 25 closed; Jan 01 closed", "stations": [{"stopCode": 8, "lines": "1", "name": "Kalauao Station", "walkingMeters": 396, "walkingSeconds": 285, "band": 5}]}, "geometry": {"type": "Point", "coordinates": [-157.9492274, 21.3853995]}}, {"type": "Feature", "properties": {"id": 13685832772, "name": "Ige\u2019s Lunchwagon and Catering", "category": "restaurant", "tags": ["restaurant", "hawaiian"], "sources": ["osm"], "website": "https://www.igeslwcatering.com/", "phone": "+1 808-486-8728", "address": "98-025 Hekaha Street", "hours": "Tu-Fr 09:30-13:15", "stations": [{"stopCode": 8, "lines": "1", "name": "Kalauao Station", "walkingMeters": 874, "walkingSeconds": 629, "band": 10}]}, "geometry": {"type": "Point", "coordinates": [-157.9497079, 21.3835473]}}, {"type": "Feature", "properties": {"id": 13702885269, "name": "Jessica's", "category": "restaurant", "tags": ["restaurant", "american", "filipino"], "sources": ["osm"], "website": "https://jessicaskitchen808.com/", "phone": "+1 808-900-2864", "address": "98-150 Kaonohi Street", "hours": "Mo-Th 07:00-15:00; Fr-Su 07:00-21:00", "stations": [{"stopCode": 8, "lines": "1", "name": "Kalauao Station", "walkingMeters": 375, "walkingSeconds": 271, "band": 5}]}, "geometry": {"type": "Point", "coordinates": [-157.9453077, 21.3847355]}}, {"type": "Feature", "properties": {"id": 13702885270, "name": "Kehau's Kitchen", "category": "restaurant", "tags": ["restaurant", "hawaiian"], "sources": ["osm"], "website": "https://kehauskitchen.com/", "phone": "+1 808-487-2220", "address": "91-150 Kaonohi Street", "hours": "Mo-Su 10:00-20:00", "stations": [{"stopCode": 8, "lines": "1", "name": "Kalauao Station", "walkingMeters": 325, "walkingSeconds": 234, "band": 5}]}, "geometry": {"type": "Point", "coordinates": [-157.9450871, 21.3846843]}}, {"type": "Feature", "properties": {"id": 13702885271, "name": "Chez Sports Bar & Grill", "category": "restaurant", "tags": ["restaurant"], "sources": ["osm"], "website": "https://chezsportsbarandgrill.com/", "phone": "+1 808-488-2439", "address": "98-150 Kaonohi Street", "hours": "Mo-Su 13:00-04:00", "stations": [{"stopCode": 8, "lines": "1", "name": "Kalauao Station", "walkingMeters": 335, "walkingSeconds": 242, "band": 5}]}, "geometry": {"type": "Point", "coordinates": [-157.9456068, 21.3844695]}}, {"type": "Feature", "properties": {"id": 13831375591, "name": "Blue Tropix Bar & Grill", "category": "bar", "tags": ["bar"], "sources": ["osm"], "stations": [{"stopCode": 8, "lines": "1", "name": "Kalauao Station", "walkingMeters": 1026, "walkingSeconds": 739, "band": 15}]}, "geometry": {"type": "Point", "coordinates": [-157.9401264, 21.3817821]}}, {"type": "Feature", "properties": {"id": 14027795642, "name": "Kyoto", "category": "fast_food", "tags": ["fast-food", "japanese"], "sources": ["osm"], "address": "98-1005 Moanalua Road", "hours": "Mo-Sa 10:00-20:00; Su 10:00-18:00", "stations": [{"stopCode": 8, "lines": "1", "name": "Kalauao Station", "walkingMeters": 772, "walkingSeconds": 559, "band": 10}]}, "geometry": {"type": "Point", "coordinates": [-157.9415043, 21.3851556]}}, {"type": "Feature", "properties": {"id": 14027795672, "name": "Pearl's Hawaiian BBQ", "category": "fast_food", "tags": ["fast-food", "korean", "barbecue"], "sources": ["osm"], "address": "98-1005 Moanalua Road", "hours": "Mo-Sa 10:00-20:00; Su 10:00-18:00", "stations": [{"stopCode": 8, "lines": "1", "name": "Kalauao Station", "walkingMeters": 780, "walkingSeconds": 564, "band": 10}]}, "geometry": {"type": "Point", "coordinates": [-157.9414358, 21.3851294]}}, {"type": "Feature", "properties": {"id": 14027795674, "name": "Kawaii Wave", "category": "ice_cream", "tags": ["ice-cream"], "sources": ["osm"], "address": "98-1005 Moanalua Road", "stations": [{"stopCode": 8, "lines": "1", "name": "Kalauao Station", "walkingMeters": 769, "walkingSeconds": 556, "band": 10}]}, "geometry": {"type": "Point", "coordinates": [-157.9416892, 21.3852463]}}, {"type": "Feature", "properties": {"id": 14027795680, "name": "Steve's Chicken", "category": "fast_food", "tags": ["fast-food", "chicken"], "sources": ["osm"], "address": "98-1005 Moanalua Road", "hours": "Mo-Sa 10:00-20:00; Su 10:00-18:00", "stations": [{"stopCode": 8, "lines": "1", "name": "Kalauao Station", "walkingMeters": 923, "walkingSeconds": 668, "band": 10}]}, "geometry": {"type": "Point", "coordinates": [-157.9415641, 21.3851624]}}, {"type": "Feature", "properties": {"id": 14027795681, "name": "Bautista's Filipino Kitchen", "category": "fast_food", "tags": ["fast-food", "filipino"], "sources": ["osm"], "address": "98-1005 Moanalua Road", "hours": "Mo-Sa 10:00-20:00; Su 10:00-18:00", "stations": [{"stopCode": 8, "lines": "1", "name": "Kalauao Station", "walkingMeters": 890, "walkingSeconds": 643, "band": 10}]}, "geometry": {"type": "Point", "coordinates": [-157.9415714, 21.3850683]}}, {"type": "Feature", "properties": {"id": 14027795688, "name": "Charleys Philly Steaks", "category": "fast_food", "tags": ["fast-food", "sandwich", "takeaway"], "sources": ["osm"], "address": "98-1005 Moanalua Road", "hours": "Mo-Sa 10:00-20:00; Su 10:00-18:00", "stations": [{"stopCode": 8, "lines": "1", "name": "Kalauao Station", "walkingMeters": 902, "walkingSeconds": 652, "band": 10}]}, "geometry": {"type": "Point", "coordinates": [-157.9416352, 21.3851647]}}, {"type": "Feature", "properties": {"id": 14027865091, "name": "Aloha Sushi", "category": "fast_food", "tags": ["fast-food", "sushi"], "sources": ["osm"], "address": "98-1005 Moanalua Road", "hours": "Mo-Sa 10:00-20:00; Su 10:00-18:00", "stations": [{"stopCode": 8, "lines": "1", "name": "Kalauao Station", "walkingMeters": 900, "walkingSeconds": 651, "band": 15}]}, "geometry": {"type": "Point", "coordinates": [-157.940834, 21.3850404]}}, {"type": "Feature", "properties": {"id": 14027865099, "name": "Boba Bliss", "category": "cafe", "tags": ["cafe", "bubble-tea"], "sources": ["osm"], "address": "98-1005 Moanalua Road", "hours": "Mo-Sa 10:00-20:00; Su 10:00-18:00", "stations": [{"stopCode": 8, "lines": "1", "name": "Kalauao Station", "walkingMeters": 876, "walkingSeconds": 634, "band": 10}]}, "geometry": {"type": "Point", "coordinates": [-157.9413404, 21.3852842]}}, {"type": "Feature", "properties": {"id": 14027886610, "name": "Happy Lemon", "category": "cafe", "tags": ["cafe", "bubble-tea", "takeaway"], "sources": ["osm"], "website": "https://www.happylemonusa.com/", "address": "98-1005 Moanalua Road", "stations": [{"stopCode": 8, "lines": "1", "name": "Kalauao Station", "walkingMeters": 873, "walkingSeconds": 631, "band": 10}]}, "geometry": {"type": "Point", "coordinates": [-157.9410789, 21.3851315]}}, {"type": "Feature", "properties": {"id": 14027886612, "name": "Cat Cafe MOFF", "category": "cafe", "tags": ["cafe"], "sources": ["osm"], "address": "98-1005 Moanalua Road", "hours": "Mo-Sa 10:00-20:00; Su 10:00-18:00", "stations": [{"stopCode": 8, "lines": "1", "name": "Kalauao Station", "walkingMeters": 874, "walkingSeconds": 632, "band": 10}]}, "geometry": {"type": "Point", "coordinates": [-157.9412806, 21.3853588]}}, {"type": "Feature", "properties": {"id": 14027886618, "name": "Moe's Southwest Grill", "category": "fast_food", "tags": ["fast-food", "mexican", "takeaway"], "sources": ["osm"], "address": "98-1005 Moanalua Road", "stations": [{"stopCode": 8, "lines": "1", "name": "Kalauao Station", "walkingMeters": 878, "walkingSeconds": 635, "band": 15}]}, "geometry": {"type": "Point", "coordinates": [-157.9406978, 21.3848879]}}, {"type": "Feature", "properties": {"id": 14028024724, "name": "Sugah Daddeh's Kane Juice", "category": "fast_food", "tags": ["fast-food", "juice", "ice-cream"], "sources": ["osm"], "website": "https://freshjuiceaiea.com/", "phone": "+1-808-425-9837", "address": "98-129 Kaonohi Street", "hours": "Mo-Sa 11:00-19:30; Su 11:00-18:00", "stations": [{"stopCode": 8, "lines": "1", "name": "Kalauao Station", "walkingMeters": 307, "walkingSeconds": 221, "band": 5}]}, "geometry": {"type": "Point", "coordinates": [-157.9452251, 21.3845899]}}, {"type": "Feature", "properties": {"id": 1240045099, "name": "KFC", "category": "fast_food", "tags": ["fast-food", "chicken", "takeaway", "drive-through"], "sources": ["osm"], "website": "https://locations.kfc.com/hi/aiea/98-150-kaonohi", "address": "98-150 Kaonohi Street", "hours": "Mo-Su 10:30-21:00", "stations": [{"stopCode": 8, "lines": "1", "name": "Kalauao Station", "walkingMeters": 396, "walkingSeconds": 285, "band": 10}]}, "geometry": {"type": "Point", "coordinates": [-157.944474, 21.3849224]}}, {"type": "Feature", "properties": {"id": 13709813725, "name": "Keiki Kingdom", "category": "playground", "tags": ["playground"], "sources": ["osm"], "website": "https://www.keikikingdom.com/aiea", "phone": "+1 808-207-5888", "address": "98-145 Kaonohi Street", "hours": "Mo-Su 10:00-20:00; Fr,Sa 10:00-21:00", "stations": [{"stopCode": 8, "lines": "1", "name": "Kalauao Station", "walkingMeters": 346, "walkingSeconds": 252, "band": 5}]}, "geometry": {"type": "Point", "coordinates": [-157.9446747, 21.3839859]}}, {"type": "Feature", "properties": {"id": 1087100160, "name": "Pearlridge Community Park", "category": "park", "tags": ["park"], "sources": ["osm"], "address": "98-960 Moanalua Road"}, "geometry": {"type": "Point", "coordinates": [-157.9432574, 21.3880884]}}, {"type": "Feature", "properties": {"id": 1087393139, "name": "Waimalu Neighborhood Park", "category": "park", "tags": ["park"], "sources": ["osm"], "stations": [{"stopCode": 8, "lines": "1", "name": "Kalauao Station", "walkingMeters": 978, "walkingSeconds": 706, "band": 15}]}, "geometry": {"type": "Point", "coordinates": [-157.9488558, 21.3898937]}}, {"type": "Feature", "properties": {"id": 13799959599, "name": "\u30d6\u30c3\u30af\u30aa\u30d5", "category": "books", "tags": ["books"], "sources": ["osm"], "website": "https://www.bookoffusa.com/bookoff-pearlridge-store/", "phone": "+1 808-485-0841", "address": "98-1005 Moanalua Road", "hours": "Mo-Sa 10:00-20:00; Su 10:00-18:00", "stations": [{"stopCode": 8, "lines": "1", "name": "Kalauao Station", "walkingMeters": 905, "walkingSeconds": 654, "band": 15}]}, "geometry": {"type": "Point", "coordinates": [-157.9407437, 21.3851209]}}, {"type": "Feature", "properties": {"id": 4184376400, "name": "Ross", "category": "department_store", "tags": ["department-store"], "sources": ["osm"], "address": "Moanalua Road", "stations": [{"stopCode": 8, "lines": "1", "name": "Kalauao Station", "walkingMeters": 922, "walkingSeconds": 666, "band": 15}]}, "geometry": {"type": "Point", "coordinates": [-157.9402845, 21.3849543]}}, {"type": "Feature", "properties": {"id": 4196250392, "name": "Macy's", "category": "department_store", "tags": ["department-store"], "sources": ["osm"], "website": "https://www.macys.com/stores/hi/aiea/pearlridge-center_467.html", "phone": "+1 808-486-6701", "address": "98-205 Kaonohi Street", "hours": "Mo-Sa 10:00-20:00; Su 10:00-18:00", "stations": [{"stopCode": 8, "lines": "1", "name": "Kalauao Station", "walkingMeters": 734, "walkingSeconds": 531, "band": 10}]}, "geometry": {"type": "Point", "coordinates": [-157.9426798, 21.385139]}}, {"type": "Feature", "properties": {"id": 5678211721, "name": "T-Mobile", "category": "mobile_phone", "tags": ["mobile-phone"], "sources": ["osm"], "website": "https://www.t-mobile.com/stores/bd/t-mobile-aiea-hi-96701", "phone": "+1 808 460 3795", "address": "98-199 Kamehameha Highway", "hours": "Tu-Sa 10:00-20:00; Su 10:00-17:00", "stations": [{"stopCode": 8, "lines": "1", "name": "Kalauao Station", "walkingMeters": 700, "walkingSeconds": 504, "band": 10}]}, "geometry": {"type": "Point", "coordinates": [-157.9419502, 21.3810258]}}, {"type": "Feature", "properties": {"id": 9610143449, "name": "T-Mobile", "category": "mobile_phone", "tags": ["mobile-phone"], "sources": ["osm"], "website": "https://www.t-mobile.com/stores/bd/t-mobile-aiea-hi-96701-533f", "address": "98-1005 Moanalua Road", "stations": [{"stopCode": 8, "lines": "1", "name": "Kalauao Station", "walkingMeters": 895, "walkingSeconds": 647, "band": 15}]}, "geometry": {"type": "Point", "coordinates": [-157.9408323, 21.3851576]}}, {"type": "Feature", "properties": {"id": 7847774450, "name": "TJ Maxx", "category": "department_store", "tags": ["department-store"], "sources": ["osm"], "stations": [{"stopCode": 8, "lines": "1", "name": "Kalauao Station", "walkingMeters": 933, "walkingSeconds": 674, "band": 15}]}, "geometry": {"type": "Point", "coordinates": [-157.9402545, 21.3850068]}}, {"type": "Feature", "properties": {"id": 11523944027, "name": "HomeWorld", "category": "furniture", "tags": ["furniture"], "sources": ["osm"], "website": "https://www.homeworld.com/", "phone": "+1 808-488-1065", "address": "98-107 Kamehameha Highway", "hours": "Mo-Su 10:00-18:00", "stations": [{"stopCode": 8, "lines": "1", "name": "Kalauao Station", "walkingMeters": 178, "walkingSeconds": 128, "band": 5}]}, "geometry": {"type": "Point", "coordinates": [-157.9463477, 21.3830272]}}, {"type": "Feature", "properties": {"id": 11523944028, "name": "SlumberWorld", "category": "furniture", "tags": ["furniture"], "sources": ["osm"], "website": "https://www.slumberworldhawaii.com/", "phone": "+1 808-487-1291", "address": "98-107 Kamehameha Highway", "hours": "Mo-Su 10:00-18:00", "stations": [{"stopCode": 8, "lines": "1", "name": "Kalauao Station", "walkingMeters": 168, "walkingSeconds": 121, "band": 5}]}, "geometry": {"type": "Point", "coordinates": [-157.9464135, 21.3830871]}}, {"type": "Feature", "properties": {"id": 11523944029, "name": "Ashley HomeStore", "category": "furniture", "tags": ["furniture"], "sources": ["osm"], "website": "https://www.ashleyfurniture.com/", "phone": "+1 808-485-3450", "address": "98-107 Kamehameha Highway", "hours": "Mo-Su 10:00-18:00", "stations": [{"stopCode": 8, "lines": "1", "name": "Kalauao Station", "walkingMeters": 163, "walkingSeconds": 117, "band": 5}]}, "geometry": {"type": "Point", "coordinates": [-157.9464859, 21.383142]}}, {"type": "Feature", "properties": {"id": 13685832760, "name": "The Custom Company", "category": "clothes", "tags": ["clothes"], "sources": ["osm"], "website": "https://www.uniformsbytcc.com/", "phone": "+1 808-799-8191", "address": "98-027 Hekaha Street", "hours": "Mo-Fr 10:00-16:00; Sa 10:00-14:00", "stations": [{"stopCode": 8, "lines": "1", "name": "Kalauao Station", "walkingMeters": 883, "walkingSeconds": 636, "band": 10}]}, "geometry": {"type": "Point", "coordinates": [-157.9498829, 21.3831358]}}, {"type": "Feature", "properties": {"id": 13685832763, "name": "Xtreme Sports Hawaii", "category": "clothes", "tags": ["clothes"], "sources": ["osm"], "website": "https://www.xtremesportshi.com/", "phone": "+1 808-486-0540", "address": "98-025 Hekaha Street", "hours": "Tu-Th 12:00-17:00; Fr 10:00-17:00; Sa 10:00-13:00", "stations": [{"stopCode": 8, "lines": "1", "name": "Kalauao Station", "walkingMeters": 840, "walkingSeconds": 605, "band": 10}]}, "geometry": {"type": "Point", "coordinates": [-157.9499892, 21.3837068]}}, {"type": "Feature", "properties": {"id": 13702885277, "name": "7-Eleven", "category": "convenience", "tags": ["convenience"], "sources": ["osm"], "website": "https://7elevenhawaii.com/location/the-westridge-store/", "address": "98-150 Kaonohi Street", "hours": "24/7", "stations": [{"stopCode": 8, "lines": "1", "name": "Kalauao Station", "walkingMeters": 334, "walkingSeconds": 241, "band": 5}]}, "geometry": {"type": "Point", "coordinates": [-157.9450093, 21.3847324]}}, {"type": "Feature", "properties": {"id": 13846866260, "name": "FoodMart", "category": "convenience", "tags": ["convenience"], "sources": ["osm"], "stations": [{"stopCode": 8, "lines": "1", "name": "Kalauao Station", "walkingMeters": 324, "walkingSeconds": 234, "band": 5}]}, "geometry": {"type": "Point", "coordinates": [-157.9452148, 21.3825757]}}, {"type": "Feature", "properties": {"id": 14027795640, "name": "Crazy Shirts", "category": "clothes", "tags": ["clothes"], "sources": ["osm"], "address": "98-1005 Moanalua Road", "hours": "Mo-Sa 10:00-20:00; Su 10:00-18:00", "stations": [{"stopCode": 8, "lines": "1", "name": "Kalauao Station", "walkingMeters": 723, "walkingSeconds": 523, "band": 10}]}, "geometry": {"type": "Point", "coordinates": [-157.9420746, 21.385165]}}, {"type": "Feature", "properties": {"id": 14027795647, "name": "Resveral Life", "category": "cosmetics", "tags": ["cosmetics"], "sources": ["osm"], "address": "98-1005 Moanalua Road", "hours": "11:00-15:00", "stations": [{"stopCode": 8, "lines": "1", "name": "Kalauao Station", "walkingMeters": 802, "walkingSeconds": 580, "band": 10}]}, "geometry": {"type": "Point", "coordinates": [-157.9420196, 21.3851968]}}, {"type": "Feature", "properties": {"id": 14027795648, "name": "Seed City", "category": "gift", "tags": ["gift"], "sources": ["osm"], "address": "98-1005 Moanalua Road", "stations": [{"stopCode": 8, "lines": "1", "name": "Kalauao Station", "walkingMeters": 774, "walkingSeconds": 560, "band": 10}]}, "geometry": {"type": "Point", "coordinates": [-157.9421963, 21.3851646]}}, {"type": "Feature", "properties": {"id": 14027795652, "name": "Hollister", "category": "clothes", "tags": ["clothes"], "sources": ["osm"], "address": "98-1005 Moanalua Road", "hours": "Mo-Th 10:00-19:00; Fr-Sa 10:00-20:00; Su 10:00-18:00", "stations": [{"stopCode": 8, "lines": "1", "name": "Kalauao Station", "walkingMeters": 788, "walkingSeconds": 570, "band": 10}]}, "geometry": {"type": "Point", "coordinates": [-157.941676, 21.3854676]}}, {"type": "Feature", "properties": {"id": 14027795654, "name": "JHL Jewelry", "category": "jewelry", "tags": ["jewelry"], "sources": ["osm"], "address": "98-1005 Moanalua Road", "hours": "Mo-Sa 10:00-20:00; Su 10:00-18:00", "stations": [{"stopCode": 8, "lines": "1", "name": "Kalauao Station", "walkingMeters": 743, "walkingSeconds": 538, "band": 10}]}, "geometry": {"type": "Point", "coordinates": [-157.9421866, 21.3850987]}}, {"type": "Feature", "properties": {"id": 14027795657, "name": "Zales", "category": "jewelry", "tags": ["jewelry"], "sources": ["osm"], "address": "98-1005 Moanalua Road", "stations": [{"stopCode": 8, "lines": "1", "name": "Kalauao Station", "walkingMeters": 904, "walkingSeconds": 654, "band": 10}]}, "geometry": {"type": "Point", "coordinates": [-157.9418589, 21.3854247]}}, {"type": "Feature", "properties": {"id": 14027795677, "name": "Kay Jewelers", "category": "jewelry", "tags": ["jewelry"], "sources": ["osm"], "address": "98-1005 Moanalua Road", "stations": [{"stopCode": 8, "lines": "1", "name": "Kalauao Station", "walkingMeters": 883, "walkingSeconds": 639, "band": 10}]}, "geometry": {"type": "Point", "coordinates": [-157.9417474, 21.3852953]}}, {"type": "Feature", "properties": {"id": 14027795683, "name": "Torrid", "category": "clothes", "tags": ["clothes"], "sources": ["osm"], "address": "98-1005 Moanalua Road", "stations": [{"stopCode": 8, "lines": "1", "name": "Kalauao Station", "walkingMeters": 728, "walkingSeconds": 527, "band": 10}]}, "geometry": {"type": "Point", "coordinates": [-157.9420248, 21.3853264]}}, {"type": "Feature", "properties": {"id": 14027795689, "name": "Memory Block Hawaii", "category": "gift", "tags": ["gift"], "sources": ["osm"], "address": "98-1005 Moanalua Road", "hours": "Mo-Sa 10:00-20:00; Su 10:00-18:00", "stations": [{"stopCode": 8, "lines": "1", "name": "Kalauao Station", "walkingMeters": 774, "walkingSeconds": 560, "band": 10}]}, "geometry": {"type": "Point", "coordinates": [-157.9416943, 21.3852853]}}, {"type": "Feature", "properties": {"id": 14027795690, "name": "Windsor", "category": "clothes", "tags": ["clothes"], "sources": ["osm"], "address": "98-1005 Moanalua Road", "stations": [{"stopCode": 8, "lines": "1", "name": "Kalauao Station", "walkingMeters": 740, "walkingSeconds": 536, "band": 10}]}, "geometry": {"type": "Point", "coordinates": [-157.9419261, 21.3853885]}}, {"type": "Feature", "properties": {"id": 14027795695, "name": "Manaola", "category": "clothes", "tags": ["clothes"], "sources": ["osm"], "address": "98-1005 Moanalua Road", "hours": "Mo-Sa 10:00-20:00; Su 10:00-18:00", "stations": [{"stopCode": 8, "lines": "1", "name": "Kalauao Station", "walkingMeters": 792, "walkingSeconds": 573, "band": 10}]}, "geometry": {"type": "Point", "coordinates": [-157.9417417, 21.3854637]}}, {"type": "Feature", "properties": {"id": 14027795699, "name": "Hae Hawaii", "category": "clothes", "tags": ["clothes"], "sources": ["osm"], "address": "98-1005 Moanalua Road", "stations": [{"stopCode": 8, "lines": "1", "name": "Kalauao Station", "walkingMeters": 788, "walkingSeconds": 570, "band": 10}]}, "geometry": {"type": "Point", "coordinates": [-157.9418666, 21.385276]}}, {"type": "Feature", "properties": {"id": 14027834301, "name": "Island Girl Jewelry", "category": "jewelry", "tags": ["jewelry"], "sources": ["osm"], "address": "98-1005 Moanalua Road", "stations": [{"stopCode": 8, "lines": "1", "name": "Kalauao Station", "walkingMeters": 808, "walkingSeconds": 584, "band": 10}]}, "geometry": {"type": "Point", "coordinates": [-157.9418773, 21.3853581]}}, {"type": "Feature", "properties": {"id": 14027865088, "name": "Courage & Cotton", "category": "gift", "tags": ["gift"], "sources": ["osm"], "address": "98-1005 Moanalua Road", "hours": "Mo-Sa 10:00-20:00; Su 10:00-18:00", "stations": [{"stopCode": 8, "lines": "1", "name": "Kalauao Station", "walkingMeters": 888, "walkingSeconds": 642, "band": 10}]}, "geometry": {"type": "Point", "coordinates": [-157.9414391, 21.3853457]}}, {"type": "Feature", "properties": {"id": 14027865096, "name": "Hawaiian Island Creations", "category": "clothes", "tags": ["clothes"], "sources": ["osm"], "address": "98-1005 Moanalua Road", "hours": "Mo-Sa 10:00-20:00; Su 10:00-18:00", "stations": [{"stopCode": 8, "lines": "1", "name": "Kalauao Station", "walkingMeters": 891, "walkingSeconds": 644, "band": 10}]}, "geometry": {"type": "Point", "coordinates": [-157.9414444, 21.3853963]}}, {"type": "Feature", "properties": {"id": 14027886601, "name": "Royal Hawaiian Heritage Jewelry", "category": "jewelry", "tags": ["jewelry"], "sources": ["osm"], "address": "98-1005 Moanalua Road", "hours": "Mo-Sa 10:00-20:00; Su 10:00-18:00", "stations": [{"stopCode": 8, "lines": "1", "name": "Kalauao Station", "walkingMeters": 861, "walkingSeconds": 622, "band": 10}]}, "geometry": {"type": "Point", "coordinates": [-157.941182, 21.3852733]}}, {"type": "Feature", "properties": {"id": 14027886603, "name": "Sugar Sugar Hawaii", "category": "clothes", "tags": ["clothes"], "sources": ["osm"], "address": "98-1005 Moanalua Road", "hours": "Mo-Sa 10:00-20:00; Su 10:00-18:00", "stations": [{"stopCode": 8, "lines": "1", "name": "Kalauao Station", "walkingMeters": 901, "walkingSeconds": 652, "band": 10}]}, "geometry": {"type": "Point", "coordinates": [-157.9414736, 21.3853177]}}, {"type": "Feature", "properties": {"id": 14027886605, "name": "Tanoa Hawaii", "category": "clothes", "tags": ["clothes"], "sources": ["osm"], "address": "98-1005 Moanalua Road", "hours": "Mo-Sa 10:00-20:00; Su 10:00-18:00", "stations": [{"stopCode": 8, "lines": "1", "name": "Kalauao Station", "walkingMeters": 882, "walkingSeconds": 638, "band": 10}]}, "geometry": {"type": "Point", "coordinates": [-157.9413974, 21.3852962]}}, {"type": "Feature", "properties": {"id": 14027886611, "name": "Razor Concepts", "category": "gift", "tags": ["gift"], "sources": ["osm"], "address": "98-1005 Moanalua Road", "hours": "Mo-Sa 10:00-20:00; Su 10:00-18:00", "stations": [{"stopCode": 8, "lines": "1", "name": "Kalauao Station", "walkingMeters": 887, "walkingSeconds": 641, "band": 10}]}, "geometry": {"type": "Point", "coordinates": [-157.9414034, 21.3853857]}}, {"type": "Feature", "properties": {"id": 14027886617, "name": "Dis-And-Bark", "category": "pet", "tags": ["pet"], "sources": ["osm"], "address": "98-1005 Moanalua Road", "hours": "Mo-Sa 10:00-20:00; Su 10:00-18:00", "stations": [{"stopCode": 8, "lines": "1", "name": "Kalauao Station", "walkingMeters": 866, "walkingSeconds": 626, "band": 10}]}, "geometry": {"type": "Point", "coordinates": [-157.9412212, 21.3853163]}}, {"type": "Feature", "properties": {"id": 14027886621, "name": "Sweet Okole Jewelry", "category": "jewelry", "tags": ["jewelry"], "sources": ["osm"], "website": "https://sweetokolejewelry.com/", "address": "98-1005 Moanalua Road", "hours": "Mo-Th 10:00-19:00; Fr-Sa 10:00-20:00; Su 10:00-18:00", "stations": [{"stopCode": 8, "lines": "1", "name": "Kalauao Station", "walkingMeters": 905, "walkingSeconds": 654, "band": 10}]}, "geometry": {"type": "Point", "coordinates": [-157.9415079, 21.3853276]}}, {"type": "Feature", "properties": {"id": 462878044, "name": "Best Buy", "category": "electronics", "tags": ["electronics"], "sources": ["osm"], "website": "https://bestbuy.com", "phone": "+1 808-485-6940", "address": "98-051 Kamehameha Highway", "hours": "Mo-Sa 10:00-21:00; Su 10:00-20:00", "stations": [{"stopCode": 8, "lines": "1", "name": "Kalauao Station", "walkingMeters": 422, "walkingSeconds": 304, "band": 5}]}, "geometry": {"type": "Point", "coordinates": [-157.9498519, 21.3845819]}}, {"type": "Feature", "properties": {"id": 9670953788, "name": "Longs Drugs", "category": "pharmacy", "tags": ["pharmacy"], "sources": ["osm"], "website": "https://www.cvs.com/store-locator/aiea-hi-pharmacies/98-1005-moanalua-rd-400-aiea-hi-96701/storeid=9813", "phone": "+1 808-488-0958", "address": "98-1005 Moanalua Road", "hours": "Mo-Su 07:00-23:00", "stations": [{"stopCode": 8, "lines": "1", "name": "Kalauao Station", "walkingMeters": 1058, "walkingSeconds": 766, "band": 15}]}, "geometry": {"type": "Point", "coordinates": [-157.9403391, 21.383017]}}, {"type": "Feature", "properties": {"id": 13702885276, "name": "Hawaii Cancer Care", "category": "clinic", "tags": ["clinic"], "sources": ["osm"], "website": "https://hawaiicancercare.com/", "phone": "+1 808-539-2273", "address": "98-150 Kaonohi Street", "hours": "Mo-Fr 08:30-17:00", "stations": [{"stopCode": 8, "lines": "1", "name": "Kalauao Station", "walkingMeters": 404, "walkingSeconds": 292, "band": 5}]}, "geometry": {"type": "Point", "coordinates": [-157.9450623, 21.3848654]}}, {"type": "Feature", "properties": {"id": 11520648585, "name": "Hawaii Federal Credit Union", "category": "bank", "tags": ["bank"], "sources": ["osm"], "website": "https://www.hawaiistatefcu.com/", "phone": "+1 808-792-7430", "address": "98-150 Kaonohi Street", "hours": "Mo-Th 09:00-17:00; Fr 09:00-18:00; Sa 09:00-13:00", "stations": [{"stopCode": 8, "lines": "1", "name": "Kalauao Station", "walkingMeters": 265, "walkingSeconds": 191, "band": 5}]}, "geometry": {"type": "Point", "coordinates": [-157.9460889, 21.3843986]}}, {"type": "Feature", "properties": {"id": 1241764312, "name": "American Savings Bank", "category": "bank", "tags": ["bank"], "sources": ["osm"], "website": "https://www.asbhawaii.com/locations/oahu/pearlridge", "phone": "+1 808-627-6900", "address": "98-200 Kamehameha Highway", "hours": "Mo-Th 09:00-17:00; Fr 09:00-18:00; Sa 09:00-13:00", "stations": [{"stopCode": 8, "lines": "1", "name": "Kalauao Station", "walkingMeters": 808, "walkingSeconds": 582, "band": 10}]}, "geometry": {"type": "Point", "coordinates": [-157.9408128, 21.3813823]}}, {"type": "Feature", "properties": {"id": 13702885273, "name": "Central Pacific Bank", "category": "bank", "tags": ["bank"], "sources": ["osm"], "website": "https://www.cpb.bank/locations/pearlridge-branch/", "phone": "+1 808-544-0500", "address": "98-150 Kaonohi Street", "hours": "Mo-Th 08:30-16:30; Fr 08:30-17:00", "stations": [{"stopCode": 8, "lines": "1", "name": "Kalauao Station", "walkingMeters": 294, "walkingSeconds": 212, "band": 5}]}, "geometry": {"type": "Point", "coordinates": [-157.9455759, 21.3843896]}}, {"type": "Feature", "properties": {"id": 13702885274, "name": "CBB Bank", "category": "bank", "tags": ["bank"], "sources": ["osm"], "website": "https://www.cbb-bank.com/en/home", "phone": "+1 808-457-1190", "address": "98-150 Kaonohi Street", "hours": "Mo-Fr 09:00-17:00; Sa 09:00-13:00", "stations": [{"stopCode": 8, "lines": "1", "name": "Kalauao Station", "walkingMeters": 292, "walkingSeconds": 210, "band": 5}]}, "geometry": {"type": "Point", "coordinates": [-157.9453466, 21.3845157]}}, {"type": "Feature", "properties": {"id": 1240045083, "name": "Territorial Savings", "category": "bank", "tags": ["bank"], "sources": ["osm"], "website": "https://www.tsbhawaii.bank/", "phone": "+1 808-487-1581", "address": "98-084 Kamehameha Highway", "hours": "Mo-Th 08:30-16:30; Fr 08:30-18:00", "stations": [{"stopCode": 8, "lines": "1", "name": "Kalauao Station", "walkingMeters": 251, "walkingSeconds": 181, "band": 5}]}, "geometry": {"type": "Point", "coordinates": [-157.9464729, 21.3839664]}}, {"type": "Feature", "properties": {"id": 14027886606, "name": "Pups of War 808", "category": "sports_centre", "tags": ["sports-centre", "shooting"], "sources": ["osm"], "address": "98-1005 Moanalua Road", "stations": [{"stopCode": 8, "lines": "1", "name": "Kalauao Station", "walkingMeters": 897, "walkingSeconds": 649, "band": 10}]}, "geometry": {"type": "Point", "coordinates": [-157.9415009, 21.385413]}}, {"type": "Feature", "properties": {"id": 1091505038, "name": "Powerhouse Gym", "category": "fitness_centre", "tags": ["fitness-centre"], "sources": ["osm"], "website": "https://powerhousegym.com/locations/aiea-honolulu/", "phone": "+1-808-484-8000", "address": "98-199 Kamehameha Highway", "hours": "Mo-Fr 04:00-22:00; Sa-Su 07:00-22:00", "stations": [{"stopCode": 8, "lines": "1", "name": "Kalauao Station", "walkingMeters": 652, "walkingSeconds": 470, "band": 10}]}, "geometry": {"type": "Point", "coordinates": [-157.9437398, 21.3804231]}}]}