{"type": "FeatureCollection", "features": [{"type": "Feature", "properties": {"id": 256684706, "name": "Burger King", "category": "fast_food", "tags": ["fast-food", "burger", "takeaway"], "sources": ["osm"]}, "geometry": {"type": "Point", "coordinates": [-157.8775119, 21.3248709]}}, {"type": "Feature", "properties": {"id": 4491316705, "name": "Sugoi", "category": "restaurant", "tags": ["restaurant", "asian", "takeaway", "delivery"], "sources": ["osm"], "website": "https://sugoihawaii.com/", "phone": "+1 808 841 7984", "address": "1286 Kalani Street", "hours": "Mo-Su 08:00-15:00"}, "geometry": {"type": "Point", "coordinates": [-157.8760045, 21.3217554]}}, {"type": "Feature", "properties": {"id": 7536592820, "name": "Pancakes & Waffles", "category": "restaurant", "tags": ["restaurant", "takeaway", "delivery"], "sources": ["osm"], "website": "https://pancakesandwaffleshawaii.com/", "phone": "+1 808 847 7770", "address": "1284 Kalani Street", "hours": "Mo-Su 06:30-14:00"}, "geometry": {"type": "Point", "coordinates": [-157.8757399, 21.3215352]}}, {"type": "Feature", "properties": {"id": 256684703, "name": "Taco Bell", "category": "fast_food", "tags": ["fast-food", "tex-mex", "takeaway", "drive-through"], "sources": ["osm"], "website": "https://locations.tacobell.com/hi/honolulu/615-waiakamilo-ave.html", "hours": "07:00-20:00"}, "geometry": {"type": "Point", "coordinates": [-157.8752967, 21.3241391]}}, {"type": "Feature", "properties": {"id": 7530633537, "name": "Thang\u2019s French Coffee & Boba Tea", "category": "cafe", "tags": ["cafe", "bubble-tea", "juice", "takeaway"], "sources": ["osm"], "website": "https://www.facebook.com/thangsbubbletea", "phone": "+1 808 845 2164", "address": "1286 Kalani Street"}, "geometry": {"type": "Point", "coordinates": [-157.8758251, 21.3217956]}}, {"type": "Feature", "properties": {"id": 7530633538, "name": "Chef\u2019s Ramen", "category": "restaurant", "tags": ["restaurant", "ramen", "takeaway"], "sources": ["osm"], "website": "https://www.facebook.com/Chefs-Ramen-348534615583133/", "phone": "+1 808 842 6660", "hours": "Mo-Su 10:30-21:00"}, "geometry": {"type": "Point", "coordinates": [-157.8759219, 21.321774]}}, {"type": "Feature", "properties": {"id": 7530633539, "name": "Thai Village", "category": "restaurant", "tags": ["restaurant", "thai", "takeaway", "delivery"], "sources": ["osm"], "hours": "Mo-Sa 10:30-21:00; Tu 10:30-15:00; Su 10:30-20:00"}, "geometry": {"type": "Point", "coordinates": [-157.8760896, 21.3217306]}}, {"type": "Feature", "properties": {"id": 7536115938, "name": "Utage Restaurant & Lounge", "category": "restaurant", "tags": ["restaurant", "okinawan", "takeaway"], "sources": ["osm"], "website": "https://utagehawaii.com/", "phone": "+1 808 843 8109", "address": "1286 Kalani Street", "hours": "Mo-Su 10:00-20:45"}, "geometry": {"type": "Point", "coordinates": [-157.8761855, 21.3217096]}}, {"type": "Feature", "properties": {"id": 7603992327, "name": "Chuck E. Cheese", "category": "restaurant", "tags": ["restaurant", "pizza"], "sources": ["osm"], "website": "https://locations.chuckecheese.com/us/hi/honolulu/1199-dillingham-blvd"}, "geometry": {"type": "Point", "coordinates": [-157.875498, 21.3221362]}}, {"type": "Feature", "properties": {"id": 256684704, "name": "McDonald's", "category": "fast_food", "tags": ["fast-food", "burger", "takeaway"], "sources": ["osm"], "website": "https://www.mcdonalds.com/us/en-us/location/hi/honolulu/1414-dillingham-blvd/1402.html"}, "geometry": {"type": "Point", "coordinates": [-157.8759659, 21.3243085]}}, {"type": "Feature", "properties": {"id": 506580617, "name": "Bob's Bar-b-que", "category": "fast_food", "tags": ["fast-food", "regional", "outdoor-seating", "takeaway"], "sources": ["osm"], "website": "www.Bobsbarbque.com", "phone": "+1-808-842-3663", "address": "1366 Dillingham Boulevard", "hours": "Mo-Su 06:00-23:00"}, "geometry": {"type": "Point", "coordinates": [-157.8755229, 21.3237953]}}, {"type": "Feature", "properties": {"id": 2478492007, "name": "The Wholesale Mattress Co.", "category": "furniture", "tags": ["furniture"], "sources": ["osm"]}, "geometry": {"type": "Point", "coordinates": [-157.8762077, 21.3232725]}}, {"type": "Feature", "properties": {"id": 817687589, "name": "Foodland", "category": "supermarket", "tags": ["supermarket"], "sources": ["osm"]}, "geometry": {"type": "Point", "coordinates": [-157.878065, 21.3238237]}}, {"type": "Feature", "properties": {"id": 467909239, "name": "nomnom", "category": "convenience", "tags": ["convenience"], "sources": ["osm"]}, "geometry": {"type": "Point", "coordinates": [-157.8782694, 21.3251291]}}, {"type": "Feature", "properties": {"id": 497792194, "name": "Central Pacific Bank", "category": "bank", "tags": ["bank"], "sources": ["osm"]}, "geometry": {"type": "Point", "coordinates": [-157.8784601, 21.3254965]}}, {"type": "Feature", "properties": {"id": 5910524290, "name": "Teah Hawaii Weightlifting", "category": "sports_centre", "tags": ["sports-centre", "weightlifting", "crossfit"], "sources": ["osm"]}, "geometry": {"type": "Point", "coordinates": [-157.8776213, 21.3216349]}}]}