{"type": "FeatureCollection", "features": [{"type": "Feature", "properties": {"id": 3740809015, "name": "Pizza Hut", "category": "restaurant", "tags": ["restaurant", "pizza"], "sources": ["osm"], "website": "https://locations.pizzahut.com/hi/pearl-city/850-kamehameha-hwy", "phone": "+1 808-643-1111", "address": "850 Kamehameha Highway", "hours": "Mo-Su 09:30-23:15"}, "geometry": {"type": "Point", "coordinates": [-157.968123, 21.3949991]}}, {"type": "Feature", "properties": {"id": 9976042747, "name": "McDonald's", "category": "fast_food", "tags": ["fast-food", "burger", "takeaway", "drive-through"], "sources": ["osm"], "website": "https://www.mcdonalds.com/us/en-us/location/hi/pearl-city/1065-waimano-home-rd/1485.html", "phone": "+1 808-453-4730", "address": "1056 Waimano Home Road", "hours": "Mo-Su 05:00-24:00"}, "geometry": {"type": "Point", "coordinates": [-157.9696551, 21.3945418]}}, {"type": "Feature", "properties": {"id": 10299343688, "name": "The Coffee Bean & Tea Leaf", "category": "cafe", "tags": ["cafe", "coffee-shop", "outdoor-seating", "takeaway", "air-conditioned", "wifi"], "sources": ["osm"], "website": "https://coffeebeanhawaii.com", "phone": "+1 808-455-6100", "address": "1099 Waimano Home Road", "hours": "Mo-Su 05:00-21:00"}, "geometry": {"type": "Point", "coordinates": [-157.969099, 21.395698]}}, {"type": "Feature", "properties": {"id": 12697958635, "name": "Dave's Hawaiian Ice Cream", "category": "ice_cream", "tags": ["ice-cream"], "sources": ["osm"], "website": "https://www.daveshawaiianicecream.com/", "phone": "+1 808-456-8888", "address": "850 Kamehameha Highway"}, "geometry": {"type": "Point", "coordinates": [-157.9686211, 21.3941491]}}, {"type": "Feature", "properties": {"id": 12697958668, "name": "Sadie's BBQ Inn", "category": "restaurant", "tags": ["restaurant", "korean", "takeaway"], "sources": ["osm"], "website": "http://sadiesbbqinn.com/", "address": "850 Kamehameha Highway"}, "geometry": {"type": "Point", "coordinates": [-157.9682664, 21.3949739]}}, {"type": "Feature", "properties": {"id": 825606979, "name": "Zippy's", "category": "restaurant", "tags": ["restaurant", "hawaiian", "japanese", "chinese", "american"], "sources": ["osm"], "website": "https://www.zippys.com/locations/pearl-city/", "phone": "+1 808-453-3715", "address": "806 Kamehameha Highway", "hours": "Mo-Su 06:00-24:00"}, "geometry": {"type": "Point", "coordinates": [-157.9673748, 21.3933125]}}, {"type": "Feature", "properties": {"id": 4190822889, "name": "Don Quijote", "category": "department_store", "tags": ["department-store"], "sources": ["osm"], "website": "https://www.donquijotehawaii.com/", "phone": "+1 808-453-5500", "address": "850 Kamehameha Highway", "hours": "Mo-Su 06:00-24:00"}, "geometry": {"type": "Point", "coordinates": [-157.9684881, 21.3946943]}}, {"type": "Feature", "properties": {"id": 9970855498, "name": "H Mart", "category": "supermarket", "tags": ["supermarket", "asian"], "sources": ["osm"], "website": "https://www.hmart.com/", "phone": "+1 808-800-3420", "address": "850 Kamehameha Highway", "hours": "Mo-Su 08:00-22:00"}, "geometry": {"type": "Point", "coordinates": [-157.9687392, 21.3952304]}}, {"type": "Feature", "properties": {"id": 9976042746, "name": "Daiso Japan", "category": "variety_store", "tags": ["variety-store"], "sources": ["osm"], "address": "850 Kamehameha Highway"}, "geometry": {"type": "Point", "coordinates": [-157.9688131, 21.3942323]}}, {"type": "Feature", "properties": {"id": 462874655, "name": "7-Eleven", "category": "convenience", "tags": ["convenience"], "sources": ["osm"], "website": "https://7elevenhawaii.com/location/the-pearl-city-store/", "phone": "+1-808-455-8484", "address": "897 Kamehameha Highway", "hours": "24/7"}, "geometry": {"type": "Point", "coordinates": [-157.9699758, 21.3933162]}}, {"type": "Feature", "properties": {"id": 12697958667, "name": "Bank of Hawaii", "category": "bank", "tags": ["bank"], "sources": ["osm"], "website": "https://www.boh.com/", "phone": "+1 808-453-2540", "address": "850 Kamehameha Highway", "hours": "Mo-Fr 08:00-16:00; Sa 09:00-13:00"}, "geometry": {"type": "Point", "coordinates": [-157.9693943, 21.3944007]}}, {"type": "Feature", "properties": {"id": 443497207, "name": "Pearl City Public Library", "category": "library", "tags": ["library"], "sources": ["osm"], "website": "https://www.librarieshawaii.org/branch/pearl-city-public-library/", "address": "1138 Waimano Home Road"}, "geometry": {"type": "Point", "coordinates": [-157.9693264, 21.3969781]}}, {"type": "Feature", "properties": {"id": 815092473, "name": "First Hawaiian Bank", "category": "bank", "tags": ["bank"], "sources": ["osm"], "website": "https://locations.fhb.com/hi-island-first-hawaiian-bank-pearl-city-branch-83", "phone": "+1-808-488-2142", "address": "890 Kamehameha Highway", "hours": "Mo-Fr 08:30-16:00"}, "geometry": {"type": "Point", "coordinates": [-157.9698778, 21.3941331]}}]}