{"type": "FeatureCollection", "features": [{"type": "Feature", "properties": {"id": 468578911, "name": "Manana Community Park", "category": "park", "tags": ["park"], "sources": ["osm"], "address": "1310 Waimano Home Road", "hours": "Mo-Su 10:00-17:00"}, "geometry": {"type": "Point", "coordinates": [-157.9684125, 21.4011605]}}, {"type": "Feature", "properties": {"id": 539765409, "name": "Pearl City District Park", "category": "park", "tags": ["park", "multi"], "sources": ["osm"], "address": "785 Hoomaemae Street", "hours": "Mo-Su 05:00-22:00"}, "geometry": {"type": "Point", "coordinates": [-157.9635647, 21.4023965]}}, {"type": "Feature", "properties": {"id": 595894320, "name": "Manana pool", "category": "swimming_pool", "tags": ["swimming-pool"], "sources": ["osm"]}, "geometry": {"type": "Point", "coordinates": [-157.9699218, 21.4079134]}}]}