{"type": "FeatureCollection", "features": [{"type": "Feature", "properties": {"id": 1307188273, "name": "Burger King", "category": "fast_food", "tags": ["fast-food", "burger", "takeaway"], "sources": ["osm"]}, "geometry": {"type": "Point", "coordinates": [-157.9491582, 21.3424079]}}, {"type": "Feature", "properties": {"id": 311684189, "name": "McDonald's", "category": "fast_food", "tags": ["fast-food", "burger", "indoor-seating", "takeaway", "drive-through", "wifi"], "sources": ["osm"], "website": "https://www.mcdonalds.com/us/en-us/location/hi/honolulu/881-fredrick-st-joint-base/7831.html", "phone": "+1 808-422-2795", "address": "881 Fredrick Street", "hours": "Mo-Su 05:00-23:00", "stations": [{"stopCode": 10, "lines": "1", "name": "Makalapa Station", "walkingMeters": 1372, "walkingSeconds": 992, "band": 15}]}, "geometry": {"type": "Point", "coordinates": [-157.9450797, 21.3496948]}}, {"type": "Feature", "properties": {"id": 544388147, "name": "Wela Loop Park", "category": "park", "tags": ["park"], "sources": ["osm"]}, "geometry": {"type": "Point", "coordinates": [-157.9422827, 21.3413102]}}]}