{"type": "FeatureCollection", "features": [{"type": "Feature", "properties": {"id": 2906611001, "name": "Starbucks", "category": "cafe", "tags": ["cafe", "coffee-shop", "takeaway", "wheelchair-accessible", "wifi"], "sources": ["osm"], "website": "https://www.starbucks.com/store-locator/store/14766/hnl-terminal-1-gate-a-18-300-rogers-blvd-honolulu-hi-968191890-us", "address": "300 Rodgers Boulevard", "stations": [{"stopCode": 11, "lines": "1", "name": "Lelepaua Station", "walkingMeters": 1290, "walkingSeconds": 931, "band": 10}]}, "geometry": {"type": "Point", "coordinates": [-157.9240182, 21.3335537]}}, {"type": "Feature", "properties": {"id": 2906614701, "name": "Starbucks", "category": "cafe", "tags": ["cafe", "coffee-shop", "takeaway", "wheelchair-accessible", "wifi"], "sources": ["osm"], "website": "https://www.starbucks.com/store-locator/store/10129/hnl-terminal-1-gate-a-14-300-rogers-boulevard-honolulu-hi-968191890-us", "address": "300 Rodgers Boulevard", "stations": [{"stopCode": 11, "lines": "1", "name": "Lelepaua Station", "walkingMeters": 1283, "walkingSeconds": 925, "band": 15}]}, "geometry": {"type": "Point", "coordinates": [-157.923772, 21.3348796]}}, {"type": "Feature", "properties": {"id": 5820925353, "name": "Starbucks", "category": "cafe", "tags": ["cafe", "coffee-shop", "takeaway", "wheelchair-accessible", "wifi"], "sources": ["osm"], "website": "https://www.starbucks.com/store-locator/store/6707/hnl-terminal-2-gate-c-2-300-rogers-boulevard-honolulu-hi-968191890-us", "address": "300 Rodgers Boulevard", "stations": [{"stopCode": 11, "lines": "1", "name": "Lelepaua Station", "walkingMeters": 238, "walkingSeconds": 171, "band": 10}]}, "geometry": {"type": "Point", "coordinates": [-157.9232137, 21.3306017]}}, {"type": "Feature", "properties": {"id": 9386955014, "name": "Starbucks", "category": "cafe", "tags": ["cafe", "coffee-shop", "takeaway", "wheelchair-accessible", "wifi"], "sources": ["osm"], "website": "https://www.starbucks.com/store-locator/store/11420/hnl-terminal-2-gate-d-1-300-rogers-blvd-honolulu-hi-968191890-us", "address": "300 Rodgers Boulevard", "stations": [{"stopCode": 11, "lines": "1", "name": "Lelepaua Station", "walkingMeters": 933, "walkingSeconds": 671, "band": 5}]}, "geometry": {"type": "Point", "coordinates": [-157.9205034, 21.3315701]}}, {"type": "Feature", "properties": {"id": 2906611002, "name": "Burger King", "category": "fast_food", "tags": ["fast-food", "burger", "takeaway", "wheelchair-accessible", "wifi"], "sources": ["osm"], "address": "300 Rodgers Boulevard", "stations": [{"stopCode": 11, "lines": "1", "name": "Lelepaua Station", "walkingMeters": 1290, "walkingSeconds": 931, "band": 15}]}, "geometry": {"type": "Point", "coordinates": [-157.9239344, 21.3340385]}}, {"type": "Feature", "properties": {"id": 2906611201, "name": "Stinger Ray's", "category": "bar", "tags": ["bar", "wheelchair-accessible", "wifi"], "sources": ["osm"], "address": "300 Rodgers Boulevard", "stations": [{"stopCode": 11, "lines": "1", "name": "Lelepaua Station", "walkingMeters": 1290, "walkingSeconds": 931, "band": 10}]}, "geometry": {"type": "Point", "coordinates": [-157.9239536, 21.3339209]}}, {"type": "Feature", "properties": {"id": 2906611301, "name": "Lahaina Chicken", "category": "fast_food", "tags": ["fast-food", "chicken", "wheelchair-accessible", "wifi"], "sources": ["osm"], "address": "300 Rodgers Boulevard", "hours": "off", "stations": [{"stopCode": 11, "lines": "1", "name": "Lelepaua Station", "walkingMeters": 1290, "walkingSeconds": 931, "band": 15}]}, "geometry": {"type": "Point", "coordinates": [-157.9239447, 21.3339777]}}, {"type": "Feature", "properties": {"id": 2906611401, "name": "Panda Express", "category": "fast_food", "tags": ["fast-food", "chinese", "takeaway", "wheelchair-accessible", "wifi"], "sources": ["osm"], "website": "https://www.pandaexpress.com/locations/hi/honolulu/3853", "address": "300 Rodgers Boulevard", "hours": "09:00-19:00", "stations": [{"stopCode": 11, "lines": "1", "name": "Lelepaua Station", "walkingMeters": 1290, "walkingSeconds": 931, "band": 15}]}, "geometry": {"type": "Point", "coordinates": [-157.9239235, 21.334097]}}, {"type": "Feature", "properties": {"id": 2906611501, "name": "Little Fish Poke", "category": "fast_food", "tags": ["fast-food", "poke", "takeaway", "wheelchair-accessible"], "sources": ["osm"], "address": "300 Rodgers Boulevard", "stations": [{"stopCode": 11, "lines": "1", "name": "Lelepaua Station", "walkingMeters": 1290, "walkingSeconds": 931, "band": 15}]}, "geometry": {"type": "Point", "coordinates": [-157.9239163, 21.3341567]}}, {"type": "Feature", "properties": {"id": 2906611603, "name": "Kona Brewing Company", "category": "bar", "tags": ["bar", "wheelchair-accessible", "wifi"], "sources": ["osm"], "address": "300 Rodgers Boulevard", "stations": [{"stopCode": 11, "lines": "1", "name": "Lelepaua Station", "walkingMeters": 1290, "walkingSeconds": 931, "band": 10}]}, "geometry": {"type": "Point", "coordinates": [-157.9242928, 21.3324081]}}, {"type": "Feature", "properties": {"id": 14136391441, "name": "Kona Brewing Company", "category": "pub", "tags": ["pub", "microbrew"], "sources": ["osm"], "stations": [{"stopCode": 11, "lines": "1", "name": "Lelepaua Station", "walkingMeters": 1158, "walkingSeconds": 835, "band": 15}]}, "geometry": {"type": "Point", "coordinates": [-157.9237901, 21.3362539]}}, {"type": "Feature", "properties": {"id": 7495503382, "name": "Pinkberry", "category": "ice_cream", "tags": ["ice-cream", "frozen-yogurt", "takeaway", "wheelchair-accessible", "wifi"], "sources": ["osm"], "address": "300 Rodgers Boulevard", "stations": [{"stopCode": 11, "lines": "1", "name": "Lelepaua Station", "walkingMeters": 933, "walkingSeconds": 671, "band": 10}]}, "geometry": {"type": "Point", "coordinates": [-157.920102, 21.3313177]}}, {"type": "Feature", "properties": {"id": 14016447537, "name": "Makai Plantation", "category": "restaurant", "tags": ["restaurant", "american", "takeaway", "vegetarian", "vegan", "has-bar"], "sources": ["osm"], "address": "300 Rodgers Boulevard", "stations": [{"stopCode": 11, "lines": "1", "name": "Lelepaua Station", "walkingMeters": 1165, "walkingSeconds": 840, "band": 15}]}, "geometry": {"type": "Point", "coordinates": [-157.9244814, 21.3362894]}}, {"type": "Feature", "properties": {"id": 9862908789, "name": "Dunkin'", "category": "fast_food", "tags": ["fast-food", "donut", "coffee-shop", "takeaway", "wheelchair-accessible", "wifi"], "sources": ["osm"], "address": "300 Rodgers Boulevard", "stations": [{"stopCode": 11, "lines": "1", "name": "Lelepaua Station", "walkingMeters": 1198, "walkingSeconds": 864, "band": 15}]}, "geometry": {"type": "Point", "coordinates": [-157.9237105, 21.3358775]}}, {"type": "Feature", "properties": {"id": 9386968319, "name": "Samurai Sushi & Bento", "category": "restaurant", "tags": ["restaurant", "sushi", "wheelchair-accessible", "wifi"], "sources": ["osm"], "address": "300 Rodgers Boulevard", "stations": [{"stopCode": 11, "lines": "1", "name": "Lelepaua Station", "walkingMeters": 929, "walkingSeconds": 668, "band": 5}]}, "geometry": {"type": "Point", "coordinates": [-157.9210634, 21.3320027]}}, {"type": "Feature", "properties": {"id": 9611938328, "name": "PGA Tour Grill", "category": "restaurant", "tags": ["restaurant"], "sources": ["osm"], "stations": [{"stopCode": 11, "lines": "1", "name": "Lelepaua Station", "walkingMeters": 933, "walkingSeconds": 671, "band": 10}]}, "geometry": {"type": "Point", "coordinates": [-157.9200558, 21.3306065]}}, {"type": "Feature", "properties": {"id": 10088169835, "name": "Island Brews", "category": "bar", "tags": ["bar", "wifi"], "sources": ["osm"], "address": "300 Rodgers Boulevard", "stations": [{"stopCode": 11, "lines": "1", "name": "Lelepaua Station", "walkingMeters": 1290, "walkingSeconds": 931, "band": 15}]}, "geometry": {"type": "Point", "coordinates": [-157.9239854, 21.3342316]}}, {"type": "Feature", "properties": {"id": 10088169837, "name": "Torn Basil Pizza", "category": "fast_food", "tags": ["fast-food", "pizza", "wifi"], "sources": ["osm"], "address": "300 Rodgers Boulevard", "stations": [{"stopCode": 11, "lines": "1", "name": "Lelepaua Station", "walkingMeters": 1290, "walkingSeconds": 931, "band": 15}]}, "geometry": {"type": "Point", "coordinates": [-157.9239818, 21.334248]}}, {"type": "Feature", "properties": {"id": 14136369371, "name": "Waialua Bar & Cafe", "category": "bar", "tags": ["bar"], "sources": ["osm"]}, "geometry": {"type": "Point", "coordinates": [-157.9246779, 21.3363044]}}, {"type": "Feature", "properties": {"id": 1434786806, "name": "C. B. Lansing Garden", "category": "garden", "tags": ["garden"], "sources": ["osm"], "website": "https://airports.hawaii.gov/hnl/shop-dine/cultural-gardens", "stations": [{"stopCode": 11, "lines": "1", "name": "Lelepaua Station", "walkingMeters": 238, "walkingSeconds": 171, "band": 10}]}, "geometry": {"type": "Point", "coordinates": [-157.923929, 21.3326646]}}, {"type": "Feature", "properties": {"id": 7824840115, "name": "Lei Stands", "category": "florist", "tags": ["florist"], "sources": ["osm"], "address": "300 Rodgers Boulevard", "stations": [{"stopCode": 11, "lines": "1", "name": "Lelepaua Station", "walkingMeters": 112, "walkingSeconds": 80, "band": 5}]}, "geometry": {"type": "Point", "coordinates": [-157.9218264, 21.33421]}}, {"type": "Feature", "properties": {"id": 9284235945, "name": "Pages and Pages", "category": "convenience", "tags": ["convenience"], "sources": ["osm"], "address": "300 Rodgers Boulevard", "stations": [{"stopCode": 11, "lines": "1", "name": "Lelepaua Station", "walkingMeters": 1290, "walkingSeconds": 931, "band": 10}]}, "geometry": {"type": "Point", "coordinates": [-157.9240589, 21.3331417]}}, {"type": "Feature", "properties": {"id": 1013400622, "name": "Pages and Pages", "category": "convenience", "tags": ["convenience"], "sources": ["osm"], "address": "300 Rodgers Boulevard", "stations": [{"stopCode": 11, "lines": "1", "name": "Lelepaua Station", "walkingMeters": 1166, "walkingSeconds": 841, "band": 15}]}, "geometry": {"type": "Point", "coordinates": [-157.9243381, 21.3362657]}}, {"type": "Feature", "properties": {"id": 9386955016, "name": "University of Hawaii", "category": "clothes", "tags": ["clothes", "wheelchair-accessible", "wifi"], "sources": ["osm"], "address": "300 Rodgers Boulevard", "stations": [{"stopCode": 11, "lines": "1", "name": "Lelepaua Station", "walkingMeters": 56, "walkingSeconds": 40, "band": 5}]}, "geometry": {"type": "Point", "coordinates": [-157.9218882, 21.3320662]}}, {"type": "Feature", "properties": {"id": 9386968317, "name": "From Hawaii With Love", "category": "gift", "tags": ["gift", "wheelchair-accessible", "wifi"], "sources": ["osm"], "address": "300 Rodgers Boulevard", "stations": [{"stopCode": 11, "lines": "1", "name": "Lelepaua Station", "walkingMeters": 932, "walkingSeconds": 670, "band": 5}]}, "geometry": {"type": "Point", "coordinates": [-157.9208332, 21.3317]}}, {"type": "Feature", "properties": {"id": 9386968321, "name": "Blueberry", "category": "clothes", "tags": ["clothes", "wheelchair-accessible", "wifi"], "sources": ["osm"], "address": "300 Rodgers Boulevard", "stations": [{"stopCode": 11, "lines": "1", "name": "Lelepaua Station", "walkingMeters": 933, "walkingSeconds": 671, "band": 5}]}, "geometry": {"type": "Point", "coordinates": [-157.9203177, 21.3315443]}}, {"type": "Feature", "properties": {"id": 9544045386, "name": "Prada", "category": "clothes", "tags": ["clothes", "wheelchair-accessible", "wifi"], "sources": ["osm"], "address": "300 Rodgers Boulevard", "stations": [{"stopCode": 11, "lines": "1", "name": "Lelepaua Station", "walkingMeters": 932, "walkingSeconds": 670, "band": 5}]}, "geometry": {"type": "Point", "coordinates": [-157.9203422, 21.3321719]}}, {"type": "Feature", "properties": {"id": 9544045388, "name": "DFS Beauty", "category": "gift", "tags": ["gift", "wheelchair-accessible", "wifi"], "sources": ["osm"], "address": "300 Rodgers Boulevard", "stations": [{"stopCode": 11, "lines": "1", "name": "Lelepaua Station", "walkingMeters": 932, "walkingSeconds": 670, "band": 5}]}, "geometry": {"type": "Point", "coordinates": [-157.9201416, 21.3321456]}}, {"type": "Feature", "properties": {"id": 9544045392, "name": "DFS", "category": "gift", "tags": ["gift", "wheelchair-accessible", "wifi"], "sources": ["osm"], "address": "300 Rodgers Boulevard", "stations": [{"stopCode": 11, "lines": "1", "name": "Lelepaua Station", "walkingMeters": 49, "walkingSeconds": 35, "band": 5}]}, "geometry": {"type": "Point", "coordinates": [-157.9210442, 21.3323278]}}, {"type": "Feature", "properties": {"id": 9544045408, "name": "DFS Watches", "category": "gift", "tags": ["gift", "wheelchair-accessible", "wifi"], "sources": ["osm"], "address": "300 Rodgers Boulevard", "stations": [{"stopCode": 11, "lines": "1", "name": "Lelepaua Station", "walkingMeters": 63, "walkingSeconds": 45, "band": 5}]}, "geometry": {"type": "Point", "coordinates": [-157.9208942, 21.3323073]}}, {"type": "Feature", "properties": {"id": 9544045410, "name": "Salvatore Fernagado", "category": "clothes", "tags": ["clothes", "wheelchair-accessible"], "sources": ["osm"], "address": "300 Rodgers Boulevard", "stations": [{"stopCode": 11, "lines": "1", "name": "Lelepaua Station", "walkingMeters": 932, "walkingSeconds": 670, "band": 5}]}, "geometry": {"type": "Point", "coordinates": [-157.9205016, 21.3321963]}}, {"type": "Feature", "properties": {"id": 13513246596, "name": "iStore", "category": "electronics", "tags": ["electronics"], "sources": ["osm"], "hours": "24/7", "stations": [{"stopCode": 11, "lines": "1", "name": "Lelepaua Station", "walkingMeters": 933, "walkingSeconds": 671, "band": 10}]}, "geometry": {"type": "Point", "coordinates": [-157.9202791, 21.3305189]}}, {"type": "Feature", "properties": {"id": 14016447530, "name": "Mauka Plantation", "category": "convenience", "tags": ["convenience"], "sources": ["osm"], "address": "300 Rodgers Boulevard", "stations": [{"stopCode": 11, "lines": "1", "name": "Lelepaua Station", "walkingMeters": 1172, "walkingSeconds": 845, "band": 15}]}, "geometry": {"type": "Point", "coordinates": [-157.9244633, 21.3362359]}}, {"type": "Feature", "properties": {"id": 4148070219, "name": "United States Post Office", "category": "post_office", "tags": ["post-office"], "sources": ["osm"], "website": "https://tools.usps.com/find-location.htm?location=1439665", "address": "3600 Aolele Street", "hours": "Mo-Fr 09:00-20:00; Sa 09:00-16:00", "stations": [{"stopCode": 11, "lines": "1", "name": "Lelepaua Station", "walkingMeters": 1377, "walkingSeconds": 993, "band": 15}]}, "geometry": {"type": "Point", "coordinates": [-157.921603, 21.3355627]}}, {"type": "Feature", "properties": {"id": 4854450221, "name": "Hawaiian Airlines Federal Credit Union", "category": "bank", "tags": ["bank"], "sources": ["osm"]}, "geometry": {"type": "Point", "coordinates": [-157.9283047, 21.3331936]}}]}