{"type": "FeatureCollection", "features": [{"type": "Feature", "properties": {"id": 10825125605, "name": "La Mariana", "category": "bar", "tags": ["bar", "sandwich", "seafood"], "sources": ["osm"], "website": "https://la-mariana-sailing.club/", "hours": "Tu-Sa 11:00-20:00"}, "geometry": {"type": "Point", "coordinates": [-157.8931598, 21.3218804]}}, {"type": "Feature", "properties": {"id": 13012012733, "name": "L&L Hawaiian Barbecue", "category": "fast_food", "tags": ["fast-food", "hawaiian", "takeaway"], "sources": ["osm"], "website": "https://www.hawaiianbarbecue.com/", "address": "111 Sand Island Access Road", "hours": "Mo-Fr 10:00-13:00; Sa,Su closed"}, "geometry": {"type": "Point", "coordinates": [-157.8905584, 21.3236756]}}, {"type": "Feature", "properties": {"id": 13012012724, "name": "Best Korean Bbq", "category": "fast_food", "tags": ["fast-food", "korean", "wheelchair-accessible"], "sources": ["osm"], "address": "111 Sand Island Access Road", "hours": "Mo-Sa 05:00-16:00"}, "geometry": {"type": "Point", "coordinates": [-157.8910217, 21.3231048]}}, {"type": "Feature", "properties": {"id": 13012012731, "name": "Lunch Box", "category": "fast_food", "tags": ["fast-food", "hawaiian", "takeaway"], "sources": ["osm"], "address": "111 Sand Island Access Road", "hours": "Mo-Sa 05:00-13:00; Su closed"}, "geometry": {"type": "Point", "coordinates": [-157.8906285, 21.323584]}}, {"type": "Feature", "properties": {"id": 13012012732, "name": "da Fresh French Coffee & Island Style Smoothie", "category": "cafe", "tags": ["cafe", "coffee-shop", "smoothie"], "sources": ["osm"], "address": "111 Sand Island Access Road", "hours": "Mo-Fr 09:00-16:30, Sa 10:00-13:00, Su Closed"}, "geometry": {"type": "Point", "coordinates": [-157.8905903, 21.3236268]}}, {"type": "Feature", "properties": {"id": 13012012734, "name": "Streats of Aloha", "category": "fast_food", "tags": ["fast-food", "hawaiian"], "sources": ["osm"], "address": "111 Sand Island Access Road", "hours": "Mo-Fr 06:00-13:00"}, "geometry": {"type": "Point", "coordinates": [-157.8904162, 21.3238451]}}, {"type": "Feature", "properties": {"id": 5616138026, "name": "Pacific Source", "category": "hardware", "tags": ["hardware"], "sources": ["osm"], "address": "180 Sand Island Access Road"}, "geometry": {"type": "Point", "coordinates": [-157.8904926, 21.3249943]}}, {"type": "Feature", "properties": {"id": 13012012726, "name": "Tony's Liqour and Deli", "category": "alcohol", "tags": ["alcohol", "wheelchair-accessible"], "sources": ["osm"], "address": "111 Sand Island Access Road"}, "geometry": {"type": "Point", "coordinates": [-157.8909161, 21.3232361]}}]}