{"type": "FeatureCollection", "features": [{"type": "Feature", "properties": {"id": 5678215558, "name": "Starbucks", "category": "cafe", "tags": ["cafe", "coffee-shop", "takeaway"], "sources": ["osm"], "website": "https://www.starbucks.com/", "phone": "+1 808-484-1488", "address": "99-115 Aiea Heights Drive", "hours": "Mo-Fr 04:00-20:00; Sa,Su 05:00-20:00", "stations": [{"stopCode": 9, "lines": "1", "name": "H\u0101lawa Station", "walkingMeters": 1025, "walkingSeconds": 745, "band": 15}]}, "geometry": {"type": "Point", "coordinates": [-157.930261, 21.3783221]}}, {"type": "Feature", "properties": {"id": 769520934, "name": "Wendy's", "category": "fast_food", "tags": ["fast-food", "burger", "takeaway", "drive-through"], "sources": ["osm"], "website": "https://locations.wendys.com/united-states/hi/aiea/99-245-moanalua-road", "phone": "+1 808-374-9277", "address": "99-245 Moanalua Road", "hours": "Mo-Su 06:30-01:00", "stations": [{"stopCode": 9, "lines": "1", "name": "H\u0101lawa Station", "walkingMeters": 881, "walkingSeconds": 640, "band": 15}]}, "geometry": {"type": "Point", "coordinates": [-157.9312392, 21.3776117]}}, {"type": "Feature", "properties": {"id": 9610108480, "name": "Tea Cafe", "category": "cafe", "tags": ["cafe", "bubble-tea", "takeaway", "delivery"], "sources": ["osm"], "phone": "+1 808 488 8233", "address": "99-082 Kauhale Street", "hours": "Su-Th 10:00-21:00; Fr-Sa 10:00-22:00", "stations": [{"stopCode": 9, "lines": "1", "name": "H\u0101lawa Station", "walkingMeters": 1101, "walkingSeconds": 801, "band": 15}]}, "geometry": {"type": "Point", "coordinates": [-157.9315536, 21.3794583]}}, {"type": "Feature", "properties": {"id": 830259442, "name": "McDonald's", "category": "fast_food", "tags": ["fast-food", "burger", "takeaway", "drive-through", "wifi"], "sources": ["osm"], "website": "https://www.mcdonalds.com/us/en-us/location/hi/aiea/99115-aiea-hts-drive/7519.html", "phone": "+1 808-483-4759", "address": "99-115 Aiea Heights Drive", "hours": "Mo-Su 06:00-23:00", "stations": [{"stopCode": 9, "lines": "1", "name": "H\u0101lawa Station", "walkingMeters": 1046, "walkingSeconds": 760, "band": 15}]}, "geometry": {"type": "Point", "coordinates": [-157.9302182, 21.3789475]}}, {"type": "Feature", "properties": {"id": 11162673306, "name": "L&L Hawaiian Barbecue", "category": "fast_food", "tags": ["fast-food", "hawaiian", "takeaway"], "sources": ["osm"], "website": "https://www.hawaiianbarbecue.com/locations/aiea", "phone": "+1 808-486-0577", "address": "99-115 Aiea Heights Drive", "hours": "Mo-Su 10:00-21:00; Fr,Sa 09:30-21:30", "stations": [{"stopCode": 9, "lines": "1", "name": "H\u0101lawa Station", "walkingMeters": 1051, "walkingSeconds": 764, "band": 15}]}, "geometry": {"type": "Point", "coordinates": [-157.9301864, 21.3782036]}}, {"type": "Feature", "properties": {"id": 11579937818, "name": "Golden Wheel", "category": "restaurant", "tags": ["restaurant", "chinese", "takeaway"], "sources": ["osm"], "address": "99-082 Kauhale Street", "stations": [{"stopCode": 9, "lines": "1", "name": "H\u0101lawa Station", "walkingMeters": 1091, "walkingSeconds": 794, "band": 15}]}, "geometry": {"type": "Point", "coordinates": [-157.9314886, 21.3793907]}}, {"type": "Feature", "properties": {"id": 14054821824, "name": "Whiskey Dix Saloon", "category": "bar", "tags": ["bar"], "sources": ["osm"], "website": "https://whiskeydixhi.com/", "address": "99-016 Kamehameha Highway", "hours": "Mo-We 19:00-24:00; Th-Sa 19:00-02:00", "stations": [{"stopCode": 9, "lines": "1", "name": "H\u0101lawa Station", "walkingMeters": 969, "walkingSeconds": 702, "band": 15}]}, "geometry": {"type": "Point", "coordinates": [-157.9352427, 21.3782342]}}, {"type": "Feature", "properties": {"id": 14054821826, "name": "Dixie Grill", "category": "restaurant", "tags": ["restaurant", "southern"], "sources": ["osm"], "website": "https://dixiegrill.com/", "phone": "+1 808-485-2722", "address": "99-016 Kamehameha Highway", "hours": "Mo-Su 11:00-21:00; Fr,Sa 11:00-22:00", "stations": [{"stopCode": 9, "lines": "1", "name": "H\u0101lawa Station", "walkingMeters": 969, "walkingSeconds": 702, "band": 15}]}, "geometry": {"type": "Point", "coordinates": [-157.9352548, 21.3782093]}}, {"type": "Feature", "properties": {"id": 14054821829, "name": "Da Seafood Cartel", "category": "restaurant", "tags": ["restaurant", "seafood", "mexican", "outdoor-seating"], "sources": ["osm"], "website": "https://daseafoodcartel.com/", "phone": "+1-808-481-4843", "address": "98-380 Kamehameha Highway", "hours": "Mo-Su 11:00-19:00", "stations": [{"stopCode": 9, "lines": "1", "name": "H\u0101lawa Station", "walkingMeters": 1036, "walkingSeconds": 750, "band": 15}]}, "geometry": {"type": "Point", "coordinates": [-157.9359609, 21.3787684]}}, {"type": "Feature", "properties": {"id": 14057905376, "name": "El Mariachi 2", "category": "restaurant", "tags": ["restaurant", "mexican"], "sources": ["osm"], "website": "https://www.elmariachi808.com/", "phone": "+1 808-487-8226", "address": "99-205 Moanalua Road", "hours": "Tu-Th 11:00-19:30; Fr-Su 11:00-20:00", "stations": [{"stopCode": 9, "lines": "1", "name": "H\u0101lawa Station", "walkingMeters": 1061, "walkingSeconds": 770, "band": 15}]}, "geometry": {"type": "Point", "coordinates": [-157.9314964, 21.3784266]}}, {"type": "Feature", "properties": {"id": 14057932533, "name": "Yum Yum Pho", "category": "restaurant", "tags": ["restaurant", "vietnamese"], "sources": ["osm"], "website": "https://www.yumyumphoaiea.com/", "phone": "+1 808-486-7688", "address": "99-163 Moanalua Road", "stations": [{"stopCode": 9, "lines": "1", "name": "H\u0101lawa Station", "walkingMeters": 1085, "walkingSeconds": 790, "band": 15}]}, "geometry": {"type": "Point", "coordinates": [-157.9310115, 21.3796588]}}, {"type": "Feature", "properties": {"id": 14057932539, "name": "Shaka Ramen", "category": "restaurant", "tags": ["restaurant", "ramen"], "sources": ["osm"], "website": "https://shakaramenshop.com/", "phone": "+1 808-486-7432", "address": "99-084 Kauhale Street", "stations": [{"stopCode": 9, "lines": "1", "name": "H\u0101lawa Station", "walkingMeters": 1085, "walkingSeconds": 790, "band": 15}]}, "geometry": {"type": "Point", "coordinates": [-157.9312667, 21.3794075]}}, {"type": "Feature", "properties": {"id": 14057932541, "name": "Pho Time", "category": "restaurant", "tags": ["restaurant", "vietnamese"], "sources": ["osm"], "website": "https://www.photimehawaii.com/", "phone": "+1 808-762-8989", "address": "99-080 Kauhale Street", "hours": "Mo-Sa 10:00-20:30; Su 10:00-20:00", "stations": [{"stopCode": 9, "lines": "1", "name": "H\u0101lawa Station", "walkingMeters": 1137, "walkingSeconds": 825, "band": 15}]}, "geometry": {"type": "Point", "coordinates": [-157.9319007, 21.3795511]}}, {"type": "Feature", "properties": {"id": 14057932545, "name": "Lil T Cup Cafe", "category": "cafe", "tags": ["cafe"], "sources": ["osm"], "website": "https://www.liltcupcafe.com/", "address": "99-080 Kauhale Street", "hours": "Tu-Fr 07:00-15:00", "stations": [{"stopCode": 9, "lines": "1", "name": "H\u0101lawa Station", "walkingMeters": 1123, "walkingSeconds": 815, "band": 15}]}, "geometry": {"type": "Point", "coordinates": [-157.9318732, 21.3794306]}}, {"type": "Feature", "properties": {"id": 1242138030, "name": "Forty Niner", "category": "restaurant", "tags": ["restaurant", "takeaway"], "sources": ["osm"], "website": "https://www.fortyniner808.com/", "phone": "+1 808-484-1940", "address": "98-110 Honomanu Street", "hours": "Mo-Sa 07:00-18:00; Su 07:00-14:00", "stations": [{"stopCode": 9, "lines": "1", "name": "H\u0101lawa Station", "walkingMeters": 1205, "walkingSeconds": 872, "band": 15}, {"stopCode": 8, "lines": "1", "name": "Kalauao Station", "walkingMeters": 1227, "walkingSeconds": 884, "band": 15}]}, "geometry": {"type": "Point", "coordinates": [-157.937077, 21.3797046]}}, {"type": "Feature", "properties": {"id": 1263194020, "name": "Restaurant 604", "category": "restaurant", "tags": ["restaurant"], "sources": ["osm"], "stations": [{"stopCode": 9, "lines": "1", "name": "H\u0101lawa Station", "walkingMeters": 526, "walkingSeconds": 380, "band": 10}]}, "geometry": {"type": "Point", "coordinates": [-157.9366539, 21.370302]}}, {"type": "Feature", "properties": {"id": 468565917, "name": "Aiea Bay State Recreation Park", "category": "park", "tags": ["park"], "sources": ["osm"], "stations": [{"stopCode": 9, "lines": "1", "name": "H\u0101lawa Station", "walkingMeters": 963, "walkingSeconds": 697, "band": 15}]}, "geometry": {"type": "Point", "coordinates": [-157.9360653, 21.3774484]}}, {"type": "Feature", "properties": {"id": 1545846005, "name": "'Ie'Ie Mini Park", "category": "park", "tags": ["park"], "sources": ["osm"], "stations": [{"stopCode": 9, "lines": "1", "name": "H\u0101lawa Station", "walkingMeters": 1095, "walkingSeconds": 793, "band": 15}]}, "geometry": {"type": "Point", "coordinates": [-157.9329925, 21.3776863]}}, {"type": "Feature", "properties": {"id": 826910773, "name": "7-Eleven", "category": "convenience", "tags": ["convenience"], "sources": ["osm"], "website": "https://7elevenhawaii.com/location/the-aiea-ii-store/", "address": "98-316 Kamehameha Highway", "hours": "24/7", "stations": [{"stopCode": 8, "lines": "1", "name": "Kalauao Station", "walkingMeters": 1142, "walkingSeconds": 823, "band": 15}, {"stopCode": 9, "lines": "1", "name": "H\u0101lawa Station", "walkingMeters": 1239, "walkingSeconds": 897, "band": 15}]}, "geometry": {"type": "Point", "coordinates": [-157.9376874, 21.3798392]}}, {"type": "Feature", "properties": {"id": 14057905375, "name": "Flowers By Carole", "category": "florist", "tags": ["florist"], "sources": ["osm"], "website": "https://www.flowersbycarole.com/", "phone": "+1 808-487-1007", "address": "99-185 Moanalua Road", "hours": "Mo-Fr 08:00-18:00; Sa 08:00-17:00; Su 08:30-14:00", "stations": [{"stopCode": 9, "lines": "1", "name": "H\u0101lawa Station", "walkingMeters": 1034, "walkingSeconds": 750, "band": 15}]}, "geometry": {"type": "Point", "coordinates": [-157.931212, 21.3789261]}}, {"type": "Feature", "properties": {"id": 14057905379, "name": "Aloha Charms", "category": "toys", "tags": ["toys"], "sources": ["osm"], "website": "https://www.alohacharms808.com/", "address": "99-185 Moanalua Road", "stations": [{"stopCode": 9, "lines": "1", "name": "H\u0101lawa Station", "walkingMeters": 1012, "walkingSeconds": 734, "band": 15}]}, "geometry": {"type": "Point", "coordinates": [-157.9310954, 21.3789598]}}, {"type": "Feature", "properties": {"id": 14075390733, "name": "76", "category": "convenience", "tags": ["convenience"], "sources": ["osm"], "stations": [{"stopCode": 9, "lines": "1", "name": "H\u0101lawa Station", "walkingMeters": 889, "walkingSeconds": 646, "band": 15}]}, "geometry": {"type": "Point", "coordinates": [-157.9305237, 21.3776944]}}, {"type": "Feature", "properties": {"id": 1242138034, "name": "Noa Botanicals", "category": "cannabis", "tags": ["cannabis"], "sources": ["osm"], "website": "https://www.noacares.com/", "phone": "+1 808-900-3320", "address": "98-302 Kamehameha Highway", "hours": "Mo-Sa 10:00-19:00; Su 11:00-18:00", "stations": [{"stopCode": 8, "lines": "1", "name": "Kalauao Station", "walkingMeters": 1110, "walkingSeconds": 800, "band": 15}]}, "geometry": {"type": "Point", "coordinates": [-157.9379639, 21.3799838]}}, {"type": "Feature", "properties": {"id": 14057932543, "name": "Aiea Pediatrics", "category": "clinic", "tags": ["clinic"], "sources": ["osm"], "website": "https://aieapediatrics.com/", "phone": "+1 808-487-1600", "address": "99-080 Kauhale Street", "hours": "Mo-Fr 08:00-12:00,13:00-17:00; We,Sa 08:00-12:00", "stations": [{"stopCode": 9, "lines": "1", "name": "H\u0101lawa Station", "walkingMeters": 1108, "walkingSeconds": 804, "band": 15}]}, "geometry": {"type": "Point", "coordinates": [-157.9318558, 21.3792964]}}, {"type": "Feature", "properties": {"id": 14057932544, "name": "Imua Health Group", "category": "clinic", "tags": ["clinic"], "sources": ["osm"], "website": "https://imuahealthgroup.com/", "phone": "+1 808-953-4682", "address": "99-080 Kauhale Street", "stations": [{"stopCode": 9, "lines": "1", "name": "H\u0101lawa Station", "walkingMeters": 1104, "walkingSeconds": 801, "band": 15}]}, "geometry": {"type": "Point", "coordinates": [-157.9318477, 21.379257]}}, {"type": "Feature", "properties": {"id": 1195526733, "name": "Aiea Medical Building", "category": "clinic", "tags": ["clinic"], "sources": ["osm"], "address": "99-128 Aiea Heights Drive", "stations": [{"stopCode": 9, "lines": "1", "name": "H\u0101lawa Station", "walkingMeters": 1122, "walkingSeconds": 814, "band": 15}]}, "geometry": {"type": "Point", "coordinates": [-157.9304091, 21.379636]}}, {"type": "Feature", "properties": {"id": 14077947280, "name": "HawaiiUSA Federal Credit Union", "category": "bank", "tags": ["bank"], "sources": ["osm"], "website": "https://locations.hawaiiusafcu.com/hawaiiusa-federal-credit-union-7489d41be8cb", "phone": "+1 808-483-1500", "address": "99-115 Aiea Heights Drive", "hours": "Mo-Fr 09:00-17:00; Sa 09:00-13:00", "stations": [{"stopCode": 9, "lines": "1", "name": "H\u0101lawa Station", "walkingMeters": 1054, "walkingSeconds": 766, "band": 15}]}, "geometry": {"type": "Point", "coordinates": [-157.9300352, 21.3784815]}}, {"type": "Feature", "properties": {"id": 14054821827, "name": "CJJF Central", "category": "sports_centre", "tags": ["sports-centre", "martial-arts"], "sources": ["osm"], "website": "https://cjjfcentral.com/", "phone": "+1 808-650-5285", "address": "98-390 Kamehameha Highway", "stations": [{"stopCode": 9, "lines": "1", "name": "H\u0101lawa Station", "walkingMeters": 1016, "walkingSeconds": 736, "band": 15}]}, "geometry": {"type": "Point", "coordinates": [-157.9358228, 21.3786064]}}, {"type": "Feature", "properties": {"id": 14057932534, "name": "Body & Brain Aiea", "category": "fitness_centre", "tags": ["fitness-centre", "tai-chi", "yoga"], "sources": ["osm"], "website": "https://www.bodynbrain.com/locations/hawaii/aiea", "phone": "+1 808-486-9642", "address": "99-080 Kauhale Street", "hours": "Mo-Th 07:30-20:00; Fr 07:30-17:00; Sa 07:30-14:00", "stations": [{"stopCode": 9, "lines": "1", "name": "H\u0101lawa Station", "walkingMeters": 1113, "walkingSeconds": 808, "band": 15}]}, "geometry": {"type": "Point", "coordinates": [-157.9318652, 21.3793382]}}, {"type": "Feature", "properties": {"id": 14057932538, "name": "Anytime Fitness", "category": "fitness_centre", "tags": ["fitness-centre"], "sources": ["osm"], "website": "https://www.anytimefitness.com/locations/aiea-hawaii-4664", "phone": "+1 808-200-1400", "address": "99-084 Kauhale Street", "hours": "24/7", "stations": [{"stopCode": 9, "lines": "1", "name": "H\u0101lawa Station", "walkingMeters": 1103, "walkingSeconds": 803, "band": 15}]}, "geometry": {"type": "Point", "coordinates": [-157.9310773, 21.3794059]}}]}