{"type": "FeatureCollection", "features": [{"type": "Feature", "properties": {"id": 7827875635, "name": "Makai Plantation", "category": "restaurant", "tags": ["restaurant", "takeaway", "reservations", "wheelchair-accessible", "has-bar", "air-conditioned", "wifi"], "sources": ["osm"], "website": "https://airports.hawaii.gov/hnl/shop-dine/shops-restaurants/", "address": "300 Rodgers Boulevard", "stations": [{"stopCode": 11, "lines": "1", "name": "Lelepaua Station", "walkingMeters": 2242, "walkingSeconds": 1618, "band": 15}]}, "geometry": {"type": "Point", "coordinates": [-157.9236505, 21.3293986]}}, {"type": "Feature", "properties": {"id": 9264556333, "name": "Sammy's Bar and Grill", "category": "restaurant", "tags": ["restaurant", "american"], "sources": ["osm"], "address": "300 Rodgers Boulevard", "stations": [{"stopCode": 11, "lines": "1", "name": "Lelepaua Station", "walkingMeters": 2242, "walkingSeconds": 1618, "band": 15}]}, "geometry": {"type": "Point", "coordinates": [-157.9233941, 21.3298925]}}, {"type": "Feature", "properties": {"id": 9611938334, "name": "Kona Brewery", "category": "bar", "tags": ["bar", "wifi"], "sources": ["osm"], "address": "300 Rodgers Boulevard", "stations": [{"stopCode": 11, "lines": "1", "name": "Lelepaua Station", "walkingMeters": 930, "walkingSeconds": 668, "band": 10}]}, "geometry": {"type": "Point", "coordinates": [-157.9201874, 21.3297668]}}, {"type": "Feature", "properties": {"id": 9544045385, "name": "Take Home the Aloha!", "category": "gift", "tags": ["gift", "wifi"], "sources": ["osm"], "address": "300 Rodgers Boulevard", "stations": [{"stopCode": 11, "lines": "1", "name": "Lelepaua Station", "walkingMeters": 930, "walkingSeconds": 668, "band": 10}]}, "geometry": {"type": "Point", "coordinates": [-157.9200018, 21.3298912]}}, {"type": "Feature", "properties": {"id": 9544045387, "name": "Hawaiian Isle Memories", "category": "gift", "tags": ["gift", "wheelchair-accessible", "wifi"], "sources": ["osm"], "address": "300 Rodgers Boulevard", "stations": [{"stopCode": 11, "lines": "1", "name": "Lelepaua Station", "walkingMeters": 930, "walkingSeconds": 668, "band": 10}]}, "geometry": {"type": "Point", "coordinates": [-157.9203177, 21.3298798]}}]}