{"type": "FeatureCollection", "features": [{"type": "Feature", "properties": {"id": 12740349154, "name": "Pizza Hut", "category": "restaurant", "tags": ["restaurant", "pizza"], "sources": ["osm"]}, "geometry": {"type": "Point", "coordinates": [-157.9140766, 21.3440904]}}, {"type": "Feature", "properties": {"id": 4307001444, "name": "Soon's Kal Bi Drive In", "category": "fast_food", "tags": ["fast-food", "korean", "takeaway"], "sources": ["osm"], "phone": "+1-808-836-7665", "address": "898 Ala Lilikoi Street", "hours": "10:00-21:00"}, "geometry": {"type": "Point", "coordinates": [-157.9141827, 21.3441074]}}, {"type": "Feature", "properties": {"id": 4307001462, "name": "Pad Thai", "category": "restaurant", "tags": ["restaurant", "thai", "takeaway"], "sources": ["osm"], "phone": "+1-808-836-9828", "address": "848 Ala Lilikoi Street"}, "geometry": {"type": "Point", "coordinates": [-157.9137509, 21.3453044]}}, {"type": "Feature", "properties": {"id": 12740349148, "name": "Subway", "category": "fast_food", "tags": ["fast-food", "sandwich", "takeaway"], "sources": ["osm"]}, "geometry": {"type": "Point", "coordinates": [-157.9138542, 21.3448684]}}, {"type": "Feature", "properties": {"id": 826317740, "name": "McDonald's", "category": "fast_food", "tags": ["fast-food", "burger", "takeaway", "drive-through"], "sources": ["osm"], "address": "848 Ala Lilikoi Street"}, "geometry": {"type": "Point", "coordinates": [-157.9134366, 21.3458388]}}, {"type": "Feature", "properties": {"id": 12740349143, "name": "Salt Lake Chinese Restaurant", "category": "restaurant", "tags": ["restaurant", "chinese"], "sources": ["osm"]}, "geometry": {"type": "Point", "coordinates": [-157.9138233, 21.345166]}}, {"type": "Feature", "properties": {"id": 12740349145, "name": "Sun Sun Ramen & Curry", "category": "restaurant", "tags": ["restaurant"], "sources": ["osm"]}, "geometry": {"type": "Point", "coordinates": [-157.9138312, 21.3450639]}}, {"type": "Feature", "properties": {"id": 12740349151, "name": "Islander Drive Inn", "category": "restaurant", "tags": ["restaurant"], "sources": ["osm"]}, "geometry": {"type": "Point", "coordinates": [-157.9138682, 21.3447752]}}, {"type": "Feature", "properties": {"id": 431490655, "name": "Hoa Aloha Neighborhood Park", "category": "park", "tags": ["park"], "sources": ["osm"]}, "geometry": {"type": "Point", "coordinates": [-157.9114746, 21.34609]}}, {"type": "Feature", "properties": {"id": 1427600742, "name": "Safeway", "category": "supermarket", "tags": ["supermarket"], "sources": ["osm"], "website": "https://local.safeway.com/safeway/hi/honolulu/848-ala-lilikoi-st.html", "phone": "+1 808-831-6100", "address": "848 Ala Lilikoi Street", "hours": "Mo-Su 05:00-02:00"}, "geometry": {"type": "Point", "coordinates": [-157.9139354, 21.3443472]}}, {"type": "Feature", "properties": {"id": 12740349141, "name": "T-Mobile", "category": "mobile_phone", "tags": ["mobile-phone"], "sources": ["osm"], "website": "https://www.t-mobile.com/stores/bd/t-mobile-honolulu-hi-96818-534f"}, "geometry": {"type": "Point", "coordinates": [-157.9137969, 21.345265]}}, {"type": "Feature", "properties": {"id": 12740349147, "name": "Salt Lake Wines & Spirits", "category": "alcohol", "tags": ["alcohol"], "sources": ["osm"]}, "geometry": {"type": "Point", "coordinates": [-157.9138471, 21.344907]}}, {"type": "Feature", "properties": {"id": 4870833708, "name": "Territorial Savings Bank", "category": "bank", "tags": ["bank"], "sources": ["osm"], "hours": "Mo-Th 09:00-17:00; Fr 09:00-18:00"}, "geometry": {"type": "Point", "coordinates": [-157.9138415, 21.344989]}}, {"type": "Feature", "properties": {"id": 12740349153, "name": "American Savings Bank", "category": "bank", "tags": ["bank"], "sources": ["osm"]}, "geometry": {"type": "Point", "coordinates": [-157.9138724, 21.3440656]}}, {"type": "Feature", "properties": {"id": 12740349140, "name": "Hawaii State Federal Credit Union", "category": "bank", "tags": ["bank"], "sources": ["osm"]}, "geometry": {"type": "Point", "coordinates": [-157.9137025, 21.3453708]}}, {"type": "Feature", "properties": {"id": 431490657, "name": "Salt Lake-Moanalua Public Library", "category": "library", "tags": ["library", "wifi"], "sources": ["osm"], "website": "https://www.librarieshawaii.org/branch/salt-lake-moanalua-public-library/", "phone": "+1-808-831-6831", "address": "3225 Salt Lake Boulevard"}, "geometry": {"type": "Point", "coordinates": [-157.9126397, 21.3432752]}}]}