{"type": "FeatureCollection", "features": [{"type": "Feature", "properties": {"id": 146840623, "name": "Ke\u02bbehi Lagoon Beach Park", "category": "park", "tags": ["park"], "sources": ["osm"], "stations": [{"stopCode": 12, "lines": "1", "name": "\u0100hua Station", "walkingMeters": 1788, "walkingSeconds": 1289, "band": 10}]}, "geometry": {"type": "Point", "coordinates": [-157.8982476, 21.3310181]}}, {"type": "Feature", "properties": {"id": 1111861340, "name": "Ke'ehi Lagoon Memorial", "category": "park", "tags": ["park"], "sources": ["osm"], "website": "https://klmemorial.org/", "stations": [{"stopCode": 12, "lines": "1", "name": "\u0100hua Station", "walkingMeters": 1223, "walkingSeconds": 882, "band": 15}, {"stopCode": 13, "lines": "1", "name": "Kahauiki Station", "walkingMeters": 1258, "walkingSeconds": 906, "band": 15}]}, "geometry": {"type": "Point", "coordinates": [-157.8943736, 21.3321215]}}]}