{"type": "FeatureCollection", "features": [{"type": "Feature", "properties": {"id": 5038194124, "name": "Ethel's Grill", "category": "restaurant", "tags": ["restaurant"], "sources": ["osm"]}, "geometry": {"type": "Point", "coordinates": [-157.8840209, 21.3224214]}}, {"type": "Feature", "properties": {"id": 645960525, "name": "McDonald's", "category": "fast_food", "tags": ["fast-food", "burger", "takeaway"], "sources": ["osm"], "website": "https://www.mcdonalds.com/us/en-us/location/hi/honolulu/2121-n-nimitz-hwy/11076.html", "stations": [{"stopCode": 13, "lines": "1", "name": "Kahauiki Station", "walkingMeters": 1225, "walkingSeconds": 893, "band": 15}]}, "geometry": {"type": "Point", "coordinates": [-157.8859929, 21.3271092]}}, {"type": "Feature", "properties": {"id": 13897927401, "name": "Carls Jr", "category": "fast_food", "tags": ["fast-food"], "sources": ["osm"], "address": "2140 Nimitz Highway", "stations": [{"stopCode": 13, "lines": "1", "name": "Kahauiki Station", "walkingMeters": 1177, "walkingSeconds": 854, "band": 15}]}, "geometry": {"type": "Point", "coordinates": [-157.8858826, 21.3282607]}}, {"type": "Feature", "properties": {"id": 4729947000, "name": "Jams world outlet", "category": "clothes", "tags": ["clothes"], "sources": ["osm"], "stations": [{"stopCode": 13, "lines": "1", "name": "Kahauiki Station", "walkingMeters": 874, "walkingSeconds": 636, "band": 15}]}, "geometry": {"type": "Point", "coordinates": [-157.8839367, 21.3285033]}}, {"type": "Feature", "properties": {"id": 5205029721, "name": "Alicia's Market", "category": "convenience", "tags": ["convenience", "hawaiian", "wheelchair-accessible"], "sources": ["osm"], "address": "267 Mokauea Street", "stations": [{"stopCode": 13, "lines": "1", "name": "Kahauiki Station", "walkingMeters": 1082, "walkingSeconds": 786, "band": 15}]}, "geometry": {"type": "Point", "coordinates": [-157.8819052, 21.3273332]}}, {"type": "Feature", "properties": {"id": 8329510437, "name": "Graybar Honolulu", "category": "electronics", "tags": ["electronics"], "sources": ["osm"], "phone": "+1 808-846-4300", "address": "2270 Hoonee Place", "hours": "Mo-Fr 06:00-16:00"}, "geometry": {"type": "Point", "coordinates": [-157.8898596, 21.327924]}}, {"type": "Feature", "properties": {"id": 8952844811, "name": "Hele", "category": "convenience", "tags": ["convenience"], "sources": ["osm"]}, "geometry": {"type": "Point", "coordinates": [-157.8896683, 21.3245151]}}, {"type": "Feature", "properties": {"id": 828962738, "name": "Watanabe Floral", "category": "florist", "tags": ["florist"], "sources": ["osm"]}, "geometry": {"type": "Point", "coordinates": [-157.8811465, 21.3239042]}}, {"type": "Feature", "properties": {"id": 1466568171, "name": "Circle K", "category": "convenience", "tags": ["convenience"], "sources": ["osm"], "address": "2140 Nimitz Highway", "stations": [{"stopCode": 13, "lines": "1", "name": "Kahauiki Station", "walkingMeters": 1177, "walkingSeconds": 854, "band": 15}]}, "geometry": {"type": "Point", "coordinates": [-157.8858838, 21.3282567]}}, {"type": "Feature", "properties": {"id": 5910442396, "name": "Iron Hawaiian Fitness", "category": "fitness_centre", "tags": ["fitness-centre", "weightlifting"], "sources": ["osm"], "address": "1727 Republican Street"}, "geometry": {"type": "Point", "coordinates": [-157.8831629, 21.3243934]}}]}