{"type": "FeatureCollection", "features": [{"type": "Feature", "properties": {"id": 14133968084, "name": "Sliders Grill", "category": "fast_food", "tags": ["fast-food", "burger"], "sources": ["osm"]}, "geometry": {"type": "Point", "coordinates": [-157.9530472, 21.3628559]}}, {"type": "Feature", "properties": {"id": 14134145259, "name": "Pearl Canteen", "category": "fast_food", "tags": ["fast-food"], "sources": ["osm"]}, "geometry": {"type": "Point", "coordinates": [-157.9532044, 21.3627025]}}, {"type": "Feature", "properties": {"id": 14133970626, "name": "Fleet Admiral Chester William Nimitz, USN", "category": "artwork", "tags": ["artwork"], "sources": ["osm"]}, "geometry": {"type": "Point", "coordinates": [-157.9538738, 21.3626175]}}, {"type": "Feature", "properties": {"id": 165627403, "name": "USS Arizona", "category": "attraction", "tags": ["attraction"], "sources": ["osm"]}, "geometry": {"type": "Point", "coordinates": [-157.9501457, 21.3648618]}}, {"type": "Feature", "properties": {"id": 165627410, "name": "USS Missouri", "category": "museum", "tags": ["museum"], "sources": ["osm"], "website": "https://ussmissouri.org/", "phone": "+1 808-455-1600", "address": "63 Cowpens Street", "hours": "08:00-16:00; Jan 01,Dec 25 off"}, "geometry": {"type": "Point", "coordinates": [-157.9533816, 21.3621208]}}, {"type": "Feature", "properties": {"id": 165627415, "name": "F-5", "category": "attraction", "tags": ["attraction"], "sources": ["osm"]}, "geometry": {"type": "Point", "coordinates": [-157.9534605, 21.3624464]}}, {"type": "Feature", "properties": {"id": 440906189, "name": "Navy Lodge", "category": "motel", "tags": ["motel", "wifi"], "sources": ["osm"], "website": "https://www.navy-lodge.com/hawaii", "address": "1275 Saratoga Boulevard", "hours": "24/7"}, "geometry": {"type": "Point", "coordinates": [-157.957068, 21.3685456]}}, {"type": "Feature", "properties": {"id": 14133971207, "name": "Mighty Mo's Battleshop", "category": "gift", "tags": ["gift"], "sources": ["osm"], "website": "https://ussmissouri.myshopify.com/", "phone": "+1 808-455-1600"}, "geometry": {"type": "Point", "coordinates": [-157.9534636, 21.3625029]}}, {"type": "Feature", "properties": {"id": 1257082110, "name": "S195", "category": "swimming_pool", "tags": ["swimming-pool"], "sources": ["osm"]}, "geometry": {"type": "Point", "coordinates": [-157.9524919, 21.3661836]}}]}