{"type": "FeatureCollection", "features": [{"type": "Feature", "properties": {"id": 4868689308, "name": "Starbucks", "category": "cafe", "tags": ["cafe", "coffee-shop", "takeaway"], "sources": ["osm"], "website": "https://www.starbucks.com/store-locator/store/13722/paiea-koapaka-550-paiea-street-honolulu-hi-968191856-us", "address": "550 Paiea Street"}, "geometry": {"type": "Point", "coordinates": [-157.9157388, 21.3358582]}}, {"type": "Feature", "properties": {"id": 7826536966, "name": "Starbucks", "category": "cafe", "tags": ["cafe", "coffee-shop", "takeaway", "wheelchair-accessible", "wifi"], "sources": ["osm"], "website": "https://www.starbucks.com/store-locator/store/13888/hnl-terminal-2-gate-e-4-300-rogers-blvd-honolulu-hi-968191890-us", "address": "300 Rodgers Boulevard", "stations": [{"stopCode": 11, "lines": "1", "name": "Lelepaua Station", "walkingMeters": 930, "walkingSeconds": 668, "band": 10}]}, "geometry": {"type": "Point", "coordinates": [-157.9199824, 21.3300362]}}, {"type": "Feature", "properties": {"id": 9544045391, "name": "Starbucks", "category": "cafe", "tags": ["cafe", "coffee-shop", "takeaway", "wifi"], "sources": ["osm"], "website": "https://www.starbucks.com/store-locator/store/17466/hnl-pre-security-terminal-2-lo-300-rogers-boulevard-honolulu-hi-968191890-us", "address": "300 Rodgers Boulevard", "stations": [{"stopCode": 11, "lines": "1", "name": "Lelepaua Station", "walkingMeters": 933, "walkingSeconds": 671, "band": 5}]}, "geometry": {"type": "Point", "coordinates": [-157.9196216, 21.3323642]}}, {"type": "Feature", "properties": {"id": 7495503384, "name": "Burger King", "category": "fast_food", "tags": ["fast-food", "burger", "takeaway", "wheelchair-accessible", "wifi"], "sources": ["osm"], "address": "300 Rodgers Boulevard", "stations": [{"stopCode": 11, "lines": "1", "name": "Lelepaua Station", "walkingMeters": 933, "walkingSeconds": 671, "band": 10}]}, "geometry": {"type": "Point", "coordinates": [-157.9197739, 21.3313636]}}, {"type": "Feature", "properties": {"id": 11463899069, "name": "Burger King", "category": "fast_food", "tags": ["fast-food", "burger", "takeaway"], "sources": ["osm"], "stations": [{"stopCode": 11, "lines": "1", "name": "Lelepaua Station", "walkingMeters": 740, "walkingSeconds": 532, "band": 10}]}, "geometry": {"type": "Point", "coordinates": [-157.9174109, 21.3312061]}}, {"type": "Feature", "properties": {"id": 3926255675, "name": "The Local @ HNL", "category": "restaurant", "tags": ["restaurant", "american", "wheelchair-accessible", "has-bar", "wifi"], "sources": ["osm"], "address": "300 Rodgers Boulevard", "stations": [{"stopCode": 11, "lines": "1", "name": "Lelepaua Station", "walkingMeters": 930, "walkingSeconds": 668, "band": 10}]}, "geometry": {"type": "Point", "coordinates": [-157.9192863, 21.3314011]}}, {"type": "Feature", "properties": {"id": 4376751625, "name": "Big Kahuna's Pizza 'n Stuffs", "category": "restaurant", "tags": ["restaurant", "pizza", "takeaway", "vegetarian", "vegan"], "sources": ["osm"], "address": "550 Paiea Street", "hours": "Mo-Fr 10:00-21:00; Sa-Su 11:00-21:00"}, "geometry": {"type": "Point", "coordinates": [-157.9158537, 21.3352342]}}, {"type": "Feature", "properties": {"id": 7495503383, "name": "California Pizza Kitchen", "category": "restaurant", "tags": ["restaurant", "pizza", "wheelchair-accessible", "wifi"], "sources": ["osm"], "address": "300 Rodgers Boulevard", "stations": [{"stopCode": 11, "lines": "1", "name": "Lelepaua Station", "walkingMeters": 933, "walkingSeconds": 671, "band": 10}]}, "geometry": {"type": "Point", "coordinates": [-157.91979, 21.3312894]}}, {"type": "Feature", "properties": {"id": 4868689307, "name": "Ninja Sushi", "category": "restaurant", "tags": ["restaurant", "sushi", "takeaway", "delivery"], "sources": ["osm"], "phone": "+1 808 839 9797", "address": "550 Paiea Street", "hours": "Mo-Fr 09:00-20:00; Sa,Su 10:00-20:00"}, "geometry": {"type": "Point", "coordinates": [-157.915763, 21.3357183]}}, {"type": "Feature", "properties": {"id": 4868689309, "name": "Jamba", "category": "fast_food", "tags": ["fast-food", "juice", "takeaway"], "sources": ["osm"], "address": "550 Paiea Street"}, "geometry": {"type": "Point", "coordinates": [-157.9157501, 21.3357902]}}, {"type": "Feature", "properties": {"id": 5799388854, "name": "Royal Kona Coffee", "category": "cafe", "tags": ["cafe"], "sources": ["osm"], "stations": [{"stopCode": 11, "lines": "1", "name": "Lelepaua Station", "walkingMeters": 740, "walkingSeconds": 532, "band": 10}]}, "geometry": {"type": "Point", "coordinates": [-157.9179136, 21.3320135]}}, {"type": "Feature", "properties": {"id": 5813467654, "name": "IHOP", "category": "restaurant", "tags": ["restaurant", "breakfast", "pancake", "wifi"], "sources": ["osm"], "website": "https://restaurants.ihop.com/hi/honolulu/3608/", "phone": "+1 808 492 1321", "address": "3269 Koapaka Street", "hours": "24/7"}, "geometry": {"type": "Point", "coordinates": [-157.9145501, 21.3352716]}}, {"type": "Feature", "properties": {"id": 7495503381, "name": "Chao Mein Express", "category": "restaurant", "tags": ["restaurant", "chinese", "wheelchair-accessible", "wifi"], "sources": ["osm"], "address": "300 Rodgers Boulevard", "stations": [{"stopCode": 11, "lines": "1", "name": "Lelepaua Station", "walkingMeters": 933, "walkingSeconds": 671, "band": 10}]}, "geometry": {"type": "Point", "coordinates": [-157.919804, 21.3312209]}}, {"type": "Feature", "properties": {"id": 389456387, "name": "Dunkin'", "category": "fast_food", "tags": ["fast-food", "donut", "coffee-shop", "takeaway", "drive-through", "wifi"], "sources": ["osm"], "website": "https://locations.dunkindonuts.com/en/hi/honolulu/3270-ualena-st/356067", "phone": "+1 808 839 7505", "address": "3270 Ualena Street", "hours": "Mo-Fr 05:00-20:00; Sa,Su 06:00-20:00"}, "geometry": {"type": "Point", "coordinates": [-157.9146687, 21.3347645]}}, {"type": "Feature", "properties": {"id": 8952546653, "name": "Aloha K Subs", "category": "fast_food", "tags": ["fast-food", "sandwich", "takeaway"], "sources": ["osm"], "address": "550 Paiea Street"}, "geometry": {"type": "Point", "coordinates": [-157.9158801, 21.3351183]}}, {"type": "Feature", "properties": {"id": 8952546656, "name": "Family BBQ", "category": "restaurant", "tags": ["restaurant", "barbecue"], "sources": ["osm"], "address": "550 Paiea Street"}, "geometry": {"type": "Point", "coordinates": [-157.9158958, 21.3350196]}}, {"type": "Feature", "properties": {"id": 9544045401, "name": "Lahaina Chicken Company", "category": "fast_food", "tags": ["fast-food", "chicken", "wheelchair-accessible", "wifi"], "sources": ["osm"], "address": "300 Rodgers Boulevard", "stations": [{"stopCode": 11, "lines": "1", "name": "Lelepaua Station", "walkingMeters": 930, "walkingSeconds": 668, "band": 10}]}, "geometry": {"type": "Point", "coordinates": [-157.9199538, 21.3302337]}}, {"type": "Feature", "properties": {"id": 9544045402, "name": "Cold Stone Creamery", "category": "ice_cream", "tags": ["ice-cream", "wheelchair-accessible", "wifi"], "sources": ["osm"], "address": "300 Rodgers Boulevard", "stations": [{"stopCode": 11, "lines": "1", "name": "Lelepaua Station", "walkingMeters": 930, "walkingSeconds": 668, "band": 10}]}, "geometry": {"type": "Point", "coordinates": [-157.9199712, 21.330125]}}, {"type": "Feature", "properties": {"id": 9968848233, "name": "Aerium Bar", "category": "bar", "tags": ["bar", "wifi"], "sources": ["osm"], "address": "300 Rodgers Boulevard", "stations": [{"stopCode": 11, "lines": "1", "name": "Lelepaua Station", "walkingMeters": 932, "walkingSeconds": 670, "band": 5}]}, "geometry": {"type": "Point", "coordinates": [-157.9199473, 21.3324128]}}, {"type": "Feature", "properties": {"id": 907224291, "name": "McDonald's", "category": "fast_food", "tags": ["fast-food", "burger", "takeaway"], "sources": ["osm"], "website": "https://www.mcdonalds.com/us/en-us/location/hi/honolulu/3299-n-nimitz-hwy/34229.html"}, "geometry": {"type": "Point", "coordinates": [-157.9140942, 21.3362726]}}, {"type": "Feature", "properties": {"id": 4376756058, "name": "Best Western the Plaza Hotel Honolulu Airport", "category": "hotel", "tags": ["hotel", "wifi"], "sources": ["osm"], "website": "https://www.bestwestern.com/en_US/book/hotels-in-honolulu/best-western-the-plaza-hotel/propertyCode.12008.html", "phone": "+1 808-836-3636", "address": "3253 Nimitz Highway"}, "geometry": {"type": "Point", "coordinates": [-157.9131782, 21.3362154]}}, {"type": "Feature", "properties": {"id": 11570561583, "name": "Airport Honolulu Hotel", "category": "hotel", "tags": ["hotel", "air-conditioned", "wifi"], "sources": ["osm"], "website": "https://www.theairporthonoluluhotel.com/", "phone": "+1-808-836-0661", "address": "3401 Nimitz Highway", "hours": "24/7"}, "geometry": {"type": "Point", "coordinates": [-157.917398, 21.3366732]}}, {"type": "Feature", "properties": {"id": 7613304689, "name": "Aloha Island Mart", "category": "convenience", "tags": ["convenience", "wheelchair-accessible"], "sources": ["osm"], "website": "https://alohagas.com/", "phone": "+1 808 839 7616", "address": "550 Paiea Street", "hours": "Mo-Su 04:00-24:00"}, "geometry": {"type": "Point", "coordinates": [-157.9144993, 21.3355258]}}, {"type": "Feature", "properties": {"id": 9386968324, "name": "Flower Shop", "category": "florist", "tags": ["florist", "wifi"], "sources": ["osm"], "address": "300 Rodgers Boulevard", "stations": [{"stopCode": 11, "lines": "1", "name": "Lelepaua Station", "walkingMeters": 740, "walkingSeconds": 532, "band": 10}]}, "geometry": {"type": "Point", "coordinates": [-157.9179451, 21.3314848]}}, {"type": "Feature", "properties": {"id": 9386968326, "name": "Pages & Pages", "category": "convenience", "tags": ["convenience", "wifi"], "sources": ["osm"], "address": "300 Rodgers Boulevard", "stations": [{"stopCode": 11, "lines": "1", "name": "Lelepaua Station", "walkingMeters": 740, "walkingSeconds": 532, "band": 10}]}, "geometry": {"type": "Point", "coordinates": [-157.9177118, 21.3314942]}}, {"type": "Feature", "properties": {"id": 9544045406, "name": "Duty Free", "category": "gift", "tags": ["gift"], "sources": ["osm"], "stations": [{"stopCode": 11, "lines": "1", "name": "Lelepaua Station", "walkingMeters": 930, "walkingSeconds": 668, "band": 10}]}, "geometry": {"type": "Point", "coordinates": [-157.9194496, 21.3314268]}}]}