{"type": "FeatureCollection", "features": [{"type": "Feature", "properties": {"id": 6901144318, "name": "Starbucks", "category": "cafe", "tags": ["cafe", "coffee-shop", "takeaway", "wheelchair-accessible", "wifi"], "sources": ["osm"], "address": "300 Rodgers Boulevard", "stations": [{"stopCode": 11, "lines": "1", "name": "Lelepaua Station", "walkingMeters": 1170, "walkingSeconds": 845, "band": 15}]}, "geometry": {"type": "Point", "coordinates": [-157.915197, 21.3292212]}}, {"type": "Feature", "properties": {"id": 13151377678, "name": "Starbucks", "category": "cafe", "tags": ["cafe", "coffee-shop", "takeaway"], "sources": ["osm"], "stations": [{"stopCode": 11, "lines": "1", "name": "Lelepaua Station", "walkingMeters": 1267, "walkingSeconds": 915, "band": 10}]}, "geometry": {"type": "Point", "coordinates": [-157.9170173, 21.3299482]}}, {"type": "Feature", "properties": {"id": 6901118330, "name": "Kona Brewing Company", "category": "bar", "tags": ["bar", "wheelchair-accessible", "brewery", "wifi"], "sources": ["osm"], "address": "300 Rodgers Boulevard", "stations": [{"stopCode": 11, "lines": "1", "name": "Lelepaua Station", "walkingMeters": 1170, "walkingSeconds": 845, "band": 15}]}, "geometry": {"type": "Point", "coordinates": [-157.9151985, 21.3291644]}}, {"type": "Feature", "properties": {"id": 9386968318, "name": "Quiznos", "category": "fast_food", "tags": ["fast-food", "sandwich", "takeaway", "air-conditioned"], "sources": ["osm"], "hours": "08:00-15:00", "stations": [{"stopCode": 11, "lines": "1", "name": "Lelepaua Station", "walkingMeters": 1267, "walkingSeconds": 915, "band": 15}]}, "geometry": {"type": "Point", "coordinates": [-157.9162265, 21.3291329]}}, {"type": "Feature", "properties": {"id": 9760551618, "name": "United Club Airport Lounge", "category": "restaurant", "tags": ["restaurant"], "sources": ["osm"], "hours": "Mo-Su 06:00-22:45", "stations": [{"stopCode": 11, "lines": "1", "name": "Lelepaua Station", "walkingMeters": 1267, "walkingSeconds": 915, "band": 15}]}, "geometry": {"type": "Point", "coordinates": [-157.9169376, 21.3296419]}}, {"type": "Feature", "properties": {"id": 13151377666, "name": "island brews", "category": "bar", "tags": ["bar"], "sources": ["osm"], "stations": [{"stopCode": 11, "lines": "1", "name": "Lelepaua Station", "walkingMeters": 1267, "walkingSeconds": 915, "band": 15}]}, "geometry": {"type": "Point", "coordinates": [-157.9160937, 21.3291305]}}, {"type": "Feature", "properties": {"id": 13151377667, "name": "Le'ahi Market", "category": "restaurant", "tags": ["restaurant", "has-bar"], "sources": ["osm"], "stations": [{"stopCode": 11, "lines": "1", "name": "Lelepaua Station", "walkingMeters": 1267, "walkingSeconds": 915, "band": 15}]}, "geometry": {"type": "Point", "coordinates": [-157.9170292, 21.329882]}}, {"type": "Feature", "properties": {"id": 9386968325, "name": "Rip Curl", "category": "clothes", "tags": ["clothes"], "sources": ["osm"], "stations": [{"stopCode": 11, "lines": "1", "name": "Lelepaua Station", "walkingMeters": 1267, "walkingSeconds": 915, "band": 15}]}, "geometry": {"type": "Point", "coordinates": [-157.9159423, 21.3292543]}}, {"type": "Feature", "properties": {"id": 13151377669, "name": "Pages & Pages", "category": "convenience", "tags": ["convenience"], "sources": ["osm"], "stations": [{"stopCode": 11, "lines": "1", "name": "Lelepaua Station", "walkingMeters": 1267, "walkingSeconds": 915, "band": 15}]}, "geometry": {"type": "Point", "coordinates": [-157.9168143, 21.3295106]}}, {"type": "Feature", "properties": {"id": 9544045407, "name": "Hawaii Market", "category": "gift", "tags": ["gift"], "sources": ["osm"], "stations": [{"stopCode": 11, "lines": "1", "name": "Lelepaua Station", "walkingMeters": 930, "walkingSeconds": 668, "band": 10}]}, "geometry": {"type": "Point", "coordinates": [-157.9199896, 21.3299629]}}]}