{"type": "FeatureCollection", "features": [{"type": "Feature", "properties": {"id": 4561055089, "name": "Subway", "category": "fast_food", "tags": ["fast-food", "sandwich", "takeaway"], "sources": ["osm"], "website": "https://restaurants.subway.com/united-states/hi/honolulu/3131-n-nimitz-hwy", "hours": "Mo-Th,Sa 09:00-21:00; Fr 09:00-22:00; Su 09:00-20:00", "stations": [{"stopCode": 12, "lines": "1", "name": "\u0100hua Station", "walkingMeters": 1217, "walkingSeconds": 876, "band": 15}]}, "geometry": {"type": "Point", "coordinates": [-157.909594, 21.3357828]}}, {"type": "Feature", "properties": {"id": 256686995, "name": "Wendy's", "category": "fast_food", "tags": ["fast-food", "burger", "takeaway", "drive-through"], "sources": ["osm"], "stations": [{"stopCode": 12, "lines": "1", "name": "\u0100hua Station", "walkingMeters": 557, "walkingSeconds": 406, "band": 5}]}, "geometry": {"type": "Point", "coordinates": [-157.9017005, 21.3364495]}}, {"type": "Feature", "properties": {"id": 12973078220, "name": "Lagoon Chinese Restaurant", "category": "restaurant", "tags": ["restaurant", "chinese"], "sources": ["osm"], "hours": "Tu-Su 09:30-19:30; Mo off", "stations": [{"stopCode": 12, "lines": "1", "name": "\u0100hua Station", "walkingMeters": 222, "walkingSeconds": 160, "band": 5}]}, "geometry": {"type": "Point", "coordinates": [-157.9005857, 21.3325524]}}, {"type": "Feature", "properties": {"id": 12973078221, "name": "Canoe Hut", "category": "bar", "tags": ["bar"], "sources": ["osm"], "phone": "+1 808 836 1131", "hours": "Mo-Su 17:00-23:00", "stations": [{"stopCode": 12, "lines": "1", "name": "\u0100hua Station", "walkingMeters": 239, "walkingSeconds": 172, "band": 5}]}, "geometry": {"type": "Point", "coordinates": [-157.9004248, 21.3325262]}}, {"type": "Feature", "properties": {"id": 8952740203, "name": "Pacific Marina Inn", "category": "motel", "tags": ["motel"], "sources": ["osm"], "stations": [{"stopCode": 12, "lines": "1", "name": "\u0100hua Station", "walkingMeters": 250, "walkingSeconds": 180, "band": 5}]}, "geometry": {"type": "Point", "coordinates": [-157.9006611, 21.3322205]}}]}