{"type": "FeatureCollection", "features": [{"type": "Feature", "properties": {"id": 1533821864, "name": "Domino's Pizza", "category": "fast_food", "tags": ["fast-food", "pizza"], "sources": ["osm"]}, "geometry": {"type": "Point", "coordinates": [-157.9169928, 21.360623]}}, {"type": "Feature", "properties": {"id": 1533821862, "name": "Island Glazed Donuts", "category": "restaurant", "tags": ["restaurant", "donut"], "sources": ["osm"]}, "geometry": {"type": "Point", "coordinates": [-157.9171357, 21.3610033]}}, {"type": "Feature", "properties": {"id": 583587046, "name": "East Foster Village Community Park", "category": "park", "tags": ["park"], "sources": ["osm"], "address": "4341 Hakupapa Street"}, "geometry": {"type": "Point", "coordinates": [-157.9183313, 21.3662682]}}, {"type": "Feature", "properties": {"id": 1533821867, "name": "AAFES Aliamanu Express", "category": "convenience", "tags": ["convenience"], "sources": ["osm"]}, "geometry": {"type": "Point", "coordinates": [-157.9171252, 21.3612643]}}]}