{"type": "FeatureCollection", "features": [{"type": "Feature", "properties": {"id": 4633867074, "name": "Starbucks", "category": "cafe", "tags": ["cafe", "coffee-shop", "takeaway"], "sources": ["osm"], "website": "https://www.starbucks.com/", "phone": "+1 808-484-5802", "address": "98-1277 Kaahumanu Street", "hours": "Mo-Fr 03:30-20:00; Sa,Su 04:00-20:00", "stations": [{"stopCode": 8, "lines": "1", "name": "Kalauao Station", "walkingMeters": 1230, "walkingSeconds": 887, "band": 15}]}, "geometry": {"type": "Point", "coordinates": [-157.9526848, 21.3890472]}}, {"type": "Feature", "properties": {"id": 806234477, "name": "Burger King", "category": "fast_food", "tags": ["fast-food", "burger", "takeaway", "drive-through"], "sources": ["osm"], "website": "https://www.bk.com/store-locator/store/restaurant_1563", "phone": "+1 808-487-5050", "address": "98-1214 Kaahumanu Street", "hours": "Mo-Su 06:00-22:00", "stations": [{"stopCode": 8, "lines": "1", "name": "Kalauao Station", "walkingMeters": 1012, "walkingSeconds": 729, "band": 15}]}, "geometry": {"type": "Point", "coordinates": [-157.9544575, 21.3875777]}}, {"type": "Feature", "properties": {"id": 829463509, "name": "Jack in the Box", "category": "fast_food", "tags": ["fast-food", "burger", "takeaway", "drive-through"], "sources": ["osm"], "website": "https://locations.jackinthebox.com/us/hi/pearl-city/384-kamehameha-hwy", "phone": "+1 808-487-8404", "address": "384 Kamehameha Highway", "hours": "Mo-Su 06:00-22:00", "stations": [{"stopCode": 8, "lines": "1", "name": "Kalauao Station", "walkingMeters": 1199, "walkingSeconds": 863, "band": 15}]}, "geometry": {"type": "Point", "coordinates": [-157.9562043, 21.3883299]}}, {"type": "Feature", "properties": {"id": 5030867288, "name": "Subway", "category": "fast_food", "tags": ["fast-food", "sandwich", "takeaway"], "sources": ["osm"], "website": "https://restaurants.subway.com/united-states/hi/aiea/98-1277-kaahumanu-st", "phone": "+1-808-487-6467", "address": "98-1277 Kaahumanu Street", "hours": "Mo-Su 08:00-21:00", "stations": [{"stopCode": 8, "lines": "1", "name": "Kalauao Station", "walkingMeters": 1259, "walkingSeconds": 907, "band": 15}]}, "geometry": {"type": "Point", "coordinates": [-157.9526661, 21.3892986]}}, {"type": "Feature", "properties": {"id": 9980864949, "name": "Jamba", "category": "fast_food", "tags": ["fast-food", "juice", "takeaway"], "sources": ["osm"], "website": "https://locations.jamba.com/hi/aiea-(oahu)/98-1277-kaahumanu-st", "phone": "+1 808-488-6246", "address": "98-1277 Kaahumanu Street", "hours": "Mo-Fr 06:00-20:00; Sa,Su 07:00-20:00", "stations": [{"stopCode": 8, "lines": "1", "name": "Kalauao Station", "walkingMeters": 1240, "walkingSeconds": 894, "band": 15}]}, "geometry": {"type": "Point", "coordinates": [-157.9525317, 21.3890415]}}, {"type": "Feature", "properties": {"id": 5030867275, "name": "Pancakes & Waffles", "category": "restaurant", "tags": ["restaurant", "breakfast", "takeaway", "delivery"], "sources": ["osm"], "website": "https://pancakesandwaffleshawaii.com/", "phone": "+1 808-200-7556", "address": "98-1277 Kaahumanu Street", "hours": "Mo,Tu 06:30-14:00; We-Su 06:30-20:30", "stations": [{"stopCode": 8, "lines": "1", "name": "Kalauao Station", "walkingMeters": 1258, "walkingSeconds": 907, "band": 15}]}, "geometry": {"type": "Point", "coordinates": [-157.952466, 21.3890384]}}, {"type": "Feature", "properties": {"id": 1232097695, "name": "Taco Bell", "category": "fast_food", "tags": ["fast-food", "tex-mex", "takeaway", "drive-through", "wheelchair-accessible"], "sources": ["osm"], "website": "https://locations.tacobell.com/hi/pearl-city/376-kamehameha-hwy.html", "phone": "+1 808-486-9697", "address": "376 Kamehameha Highway", "hours": "We-Mo 07:00-01:00; Tu 07:00-22:00", "stations": [{"stopCode": 8, "lines": "1", "name": "Kalauao Station", "walkingMeters": 1173, "walkingSeconds": 844, "band": 15}]}, "geometry": {"type": "Point", "coordinates": [-157.9559248, 21.3882669]}}, {"type": "Feature", "properties": {"id": 8950131960, "name": "Ululani's Hawaiian Shave Ice", "category": "ice_cream", "tags": ["ice-cream"], "sources": ["osm"], "stations": [{"stopCode": 8, "lines": "1", "name": "Kalauao Station", "walkingMeters": 1214, "walkingSeconds": 874, "band": 15}]}, "geometry": {"type": "Point", "coordinates": [-157.9543058, 21.3892787]}}, {"type": "Feature", "properties": {"id": 8950131963, "name": "HoYa Grill & Ramen", "category": "restaurant", "tags": ["restaurant", "asian"], "sources": ["osm"], "website": "https://www.hoyagrillramen.com/", "phone": "+1 808-488-4200", "address": "98-1258 Kaahumanu Street", "hours": "Mo-Su 10:30-21:00", "stations": [{"stopCode": 8, "lines": "1", "name": "Kalauao Station", "walkingMeters": 1223, "walkingSeconds": 882, "band": 15}]}, "geometry": {"type": "Point", "coordinates": [-157.9542875, 21.3893654]}}, {"type": "Feature", "properties": {"id": 8950239692, "name": "Papa John's", "category": "fast_food", "tags": ["fast-food", "pizza", "takeaway"], "sources": ["osm"], "website": "https://locations.papajohns.com/united-states/hi/96782/pearl-city/98-1254-kaahumanu-st", "phone": "+1 808-483-7272", "address": "98-1254 Kaahumanu Street", "hours": "Su-Th 09:30-23:00; Fr,Sa 09:30-24:00", "stations": [{"stopCode": 8, "lines": "1", "name": "Kalauao Station", "walkingMeters": 1246, "walkingSeconds": 898, "band": 15}]}, "geometry": {"type": "Point", "coordinates": [-157.9542425, 21.3895633]}}, {"type": "Feature", "properties": {"id": 8958605521, "name": "Sharetea", "category": "cafe", "tags": ["cafe", "bubble-tea", "takeaway"], "sources": ["osm"], "website": "https://www.1992sharetea.com/local-store?storeName=Waimalu%20Shopping%20Plaza", "phone": "+1 808-488-4888", "address": "98-1277 Kaahumanu Street"}, "geometry": {"type": "Point", "coordinates": [-157.9522731, 21.3890301]}}, {"type": "Feature", "properties": {"id": 8958605524, "name": "Pho 97 One", "category": "restaurant", "tags": ["restaurant", "vietnamese", "noodles"], "sources": ["osm"]}, "geometry": {"type": "Point", "coordinates": [-157.9519964, 21.3892035]}}, {"type": "Feature", "properties": {"id": 11428211593, "name": "Tea Time Taiwan", "category": "cafe", "tags": ["cafe", "bubble-tea", "air-conditioned"], "sources": ["osm"], "hours": "Mo 12:30-21:00,Tu-Su 11:00-21:00", "stations": [{"stopCode": 8, "lines": "1", "name": "Kalauao Station", "walkingMeters": 1079, "walkingSeconds": 778, "band": 15}]}, "geometry": {"type": "Point", "coordinates": [-157.9539277, 21.3883937]}}, {"type": "Feature", "properties": {"id": 1232097693, "name": "Popeyes", "category": "fast_food", "tags": ["fast-food", "chicken", "takeaway", "drive-through"], "sources": ["osm"], "website": "https://www.popeyes.com/store-locator/store/restaurant_85324", "phone": "+1 808-200-0893", "address": "370 Kamehameha Highway", "hours": "Mo-Su 10:00-22:00", "stations": [{"stopCode": 8, "lines": "1", "name": "Kalauao Station", "walkingMeters": 1135, "walkingSeconds": 817, "band": 15}]}, "geometry": {"type": "Point", "coordinates": [-157.955552, 21.3880536]}}, {"type": "Feature", "properties": {"id": 13670786420, "name": "The Milktea Way", "category": "cafe", "tags": ["cafe"], "sources": ["osm"], "phone": "+1 808-888-0010", "address": "98-020 Kamehameha Highway", "hours": "Mo-Su 10:30-21:00", "stations": [{"stopCode": 8, "lines": "1", "name": "Kalauao Station", "walkingMeters": 489, "walkingSeconds": 352, "band": 10}]}, "geometry": {"type": "Point", "coordinates": [-157.9500308, 21.385766]}}, {"type": "Feature", "properties": {"id": 13670786423, "name": "Cajun King", "category": "restaurant", "tags": ["restaurant", "cajun"], "sources": ["osm"], "website": "https://www.cajunking808.com/", "phone": "+1 808-484-2221", "address": "98-020 Kamehameha Highway", "hours": "Mo-Su 11:00-21:00", "stations": [{"stopCode": 8, "lines": "1", "name": "Kalauao Station", "walkingMeters": 500, "walkingSeconds": 360, "band": 10}]}, "geometry": {"type": "Point", "coordinates": [-157.9501245, 21.3858094]}}, {"type": "Feature", "properties": {"id": 13670786425, "name": "Catania Ristorante Italiano", "category": "restaurant", "tags": ["restaurant", "italian"], "sources": ["osm"], "website": "https://www.cataniainchi.com/", "phone": "+1 808-528-4588", "address": "98-020 Kamehameha Highway", "hours": "Mo 16:30-20:00; We,Th 10:30-14:30,16:30-20:00; Fr 10:30-14:30,16:30-20:30; Sa 11:00-14:30,16:30-20:30; Su 11:00-14:30,16:30-20:00", "stations": [{"stopCode": 8, "lines": "1", "name": "Kalauao Station", "walkingMeters": 561, "walkingSeconds": 404, "band": 10}]}, "geometry": {"type": "Point", "coordinates": [-157.9506581, 21.3860445]}}, {"type": "Feature", "properties": {"id": 13670786431, "name": "Vons Chicken", "category": "restaurant", "tags": ["restaurant", "chicken"], "sources": ["osm"], "website": "https://vonshawaii.com/", "phone": "+1 808-367-1384", "address": "98-020 Kamehameha Highway", "hours": "Mo-Sa 10:00-19:45", "stations": [{"stopCode": 8, "lines": "1", "name": "Kalauao Station", "walkingMeters": 505, "walkingSeconds": 364, "band": 10}]}, "geometry": {"type": "Point", "coordinates": [-157.9501729, 21.3858335]}}, {"type": "Feature", "properties": {"id": 13670786432, "name": "Ezogiku", "category": "restaurant", "tags": ["restaurant", "japanese"], "sources": ["osm"], "address": "98-020 Kamehameha Highway", "stations": [{"stopCode": 8, "lines": "1", "name": "Kalauao Station", "walkingMeters": 522, "walkingSeconds": 376, "band": 10}]}, "geometry": {"type": "Point", "coordinates": [-157.9503156, 21.3858965]}}, {"type": "Feature", "properties": {"id": 13670786433, "name": "Kapiolani Coffee Shop", "category": "restaurant", "tags": ["restaurant", "hawaiian"], "sources": ["osm"], "website": "https://kapiolanicoffeeshop.com/", "phone": "+1 808-488-7708", "address": "98-020 Kamehameha Highway", "hours": "Mo-Fr 07:00-21:00; Sa,Su 06:30-21:00", "stations": [{"stopCode": 8, "lines": "1", "name": "Kalauao Station", "walkingMeters": 541, "walkingSeconds": 389, "band": 10}]}, "geometry": {"type": "Point", "coordinates": [-157.9504824, 21.3859727]}}, {"type": "Feature", "properties": {"id": 13685832774, "name": "Guieb Cafe", "category": "restaurant", "tags": ["restaurant", "hawaiian"], "sources": ["osm"], "website": "https://www.guiebcafe.com/", "phone": "+1 808-888-2121", "address": "98-025 Hekaha Street", "hours": "Mo-Su 07:00-15:00", "stations": [{"stopCode": 8, "lines": "1", "name": "Kalauao Station", "walkingMeters": 685, "walkingSeconds": 493, "band": 10}]}, "geometry": {"type": "Point", "coordinates": [-157.9512904, 21.3842379]}}, {"type": "Feature", "properties": {"id": 468938479, "name": "Black Angus", "category": "restaurant", "tags": ["restaurant", "steak-house"], "sources": ["osm"], "website": "https://www.blackangus.com/", "phone": "+1 808-487-0054", "address": "98-1262 Kaahumanu Street", "hours": "Mo-Sa 11:00-22:00; Su 11:00-21:00", "stations": [{"stopCode": 8, "lines": "1", "name": "Kalauao Station", "walkingMeters": 1159, "walkingSeconds": 835, "band": 15}]}, "geometry": {"type": "Point", "coordinates": [-157.953761, 21.3890837]}}, {"type": "Feature", "properties": {"id": 468938481, "name": "Gyotaku", "category": "restaurant", "tags": ["restaurant", "japanese"], "sources": ["osm"], "website": "https://www.gyotakuhawaii.com/", "phone": "+1 808-487-0091", "address": "98-1226 Kaahumanu Street", "hours": "Mo-Su 11:00-20:00", "stations": [{"stopCode": 8, "lines": "1", "name": "Kalauao Station", "walkingMeters": 1068, "walkingSeconds": 769, "band": 15}]}, "geometry": {"type": "Point", "coordinates": [-157.9542358, 21.3880674]}}, {"type": "Feature", "properties": {"id": 468938502, "name": "Paesano", "category": "restaurant", "tags": ["restaurant", "italian"], "sources": ["osm"], "website": "https://www.paesano808.com/", "phone": "+1-808-485-8883", "address": "98-1277 Kaahumanu Street", "hours": "Tu-Su 11:00-14:00,17:00-20:30", "stations": [{"stopCode": 8, "lines": "1", "name": "Kalauao Station", "walkingMeters": 1383, "walkingSeconds": 997, "band": 15}]}, "geometry": {"type": "Point", "coordinates": [-157.9513014, 21.3894687]}}, {"type": "Feature", "properties": {"id": 829463521, "name": "Zippy's", "category": "restaurant", "tags": ["restaurant", "hawaiian", "japanese", "chinese", "american"], "sources": ["osm"], "website": "https://www.zippys.com/locations/waiau", "phone": "+1 808-483-3775", "address": "450 Kamehameha Highway", "hours": "Mo-Su 06:00-24:00"}, "geometry": {"type": "Point", "coordinates": [-157.9578718, 21.3893464]}}, {"type": "Feature", "properties": {"id": 147227275, "name": "Neal S. Blaisdell Park", "category": "park", "tags": ["park"], "sources": ["osm"], "address": "98-319 Kamehameha Highway", "hours": "Mo-Su 05:00-22:00", "stations": [{"stopCode": 8, "lines": "1", "name": "Kalauao Station", "walkingMeters": 1077, "walkingSeconds": 775, "band": 15}]}, "geometry": {"type": "Point", "coordinates": [-157.9548904, 21.3853508]}}, {"type": "Feature", "properties": {"id": 4196250391, "name": "Palama Supermarket", "category": "supermarket", "tags": ["supermarket"], "sources": ["osm"], "website": "http://palamamarket.com/", "phone": "+1 808-488-5055", "address": "98-020 Kamehameha Highway", "hours": "Mo-Sa 08:30-20:00; Su 09:00-19:30", "stations": [{"stopCode": 8, "lines": "1", "name": "Kalauao Station", "walkingMeters": 511, "walkingSeconds": 368, "band": 10}]}, "geometry": {"type": "Point", "coordinates": [-157.9502233, 21.3858554]}}, {"type": "Feature", "properties": {"id": 4423366491, "name": "Times Supermarkets", "category": "supermarket", "tags": ["supermarket"], "sources": ["osm"], "website": "https://www.timessupermarkets.com/", "phone": "+1 808-483-3666", "address": "98-1264 Kaahumanu Street", "hours": "05:00-23:00"}, "geometry": {"type": "Point", "coordinates": [-157.9542985, 21.3899487]}}, {"type": "Feature", "properties": {"id": 5030867284, "name": "City Mill", "category": "hardware", "tags": ["hardware"], "sources": ["osm"], "website": "https://www.citymill.com/", "phone": "+1-808-487-3636", "address": "98-1277 Kaahumanu Street", "hours": "Mo-Sa 07:00-19:00; Su 07:00-18:00"}, "geometry": {"type": "Point", "coordinates": [-157.9528419, 21.3896273]}}, {"type": "Feature", "properties": {"id": 5241632055, "name": "The Bike Shop", "category": "bicycle", "tags": ["bicycle"], "sources": ["osm"], "website": "https://www.bikeshophawaii.com/", "phone": "+1 808-487-3615", "address": "98-019 Kamehameha Highway", "hours": "Mo-Fr 10:00-18:00; Sa,Su 10:00-17:00", "stations": [{"stopCode": 8, "lines": "1", "name": "Kalauao Station", "walkingMeters": 609, "walkingSeconds": 438, "band": 10}]}, "geometry": {"type": "Point", "coordinates": [-157.9509017, 21.3851208]}}, {"type": "Feature", "properties": {"id": 9980864948, "name": "The Face Shop", "category": "cosmetics", "tags": ["cosmetics"], "sources": ["osm"]}, "geometry": {"type": "Point", "coordinates": [-157.9525858, 21.3898783]}}, {"type": "Feature", "properties": {"id": 13685832761, "name": "Paw Hana Supply Co", "category": "pet", "tags": ["pet"], "sources": ["osm"], "website": "https://pawhanasupplyco.com/", "phone": "+1 808-485-9663", "address": "98-027 Hekaha Street", "hours": "Mo-Fr 10:00-18:00; We off; Sa,Su 10:00-16:00", "stations": [{"stopCode": 8, "lines": "1", "name": "Kalauao Station", "walkingMeters": 791, "walkingSeconds": 570, "band": 10}]}, "geometry": {"type": "Point", "coordinates": [-157.9506963, 21.3834655]}}, {"type": "Feature", "properties": {"id": 13685832793, "name": "Pacific Ceiling Fans", "category": "furniture", "tags": ["furniture"], "sources": ["osm"], "website": "https://www.pacificceilingfans.com/", "phone": "+1 808-487-2322", "address": "98-023 Hekaha Street", "hours": "Mo-Sa 09:00-17:00", "stations": [{"stopCode": 8, "lines": "1", "name": "Kalauao Station", "walkingMeters": 677, "walkingSeconds": 487, "band": 10}]}, "geometry": {"type": "Point", "coordinates": [-157.9518087, 21.3843028]}}, {"type": "Feature", "properties": {"id": 13685832795, "name": "Koalition Grillz", "category": "jewelry", "tags": ["jewelry"], "sources": ["osm"], "address": "98-021 Kamehameha Highway", "stations": [{"stopCode": 8, "lines": "1", "name": "Kalauao Station", "walkingMeters": 895, "walkingSeconds": 645, "band": 10}]}, "geometry": {"type": "Point", "coordinates": [-157.9522788, 21.3837789]}}, {"type": "Feature", "properties": {"id": 192342905, "name": "Mary Savio Medical Plaza", "category": "clinic", "tags": ["clinic"], "sources": ["osm"], "website": "https://msmp.biz/", "address": "98-1247 Kaahumanu Street", "stations": [{"stopCode": 8, "lines": "1", "name": "Kalauao Station", "walkingMeters": 1128, "walkingSeconds": 813, "band": 15}]}, "geometry": {"type": "Point", "coordinates": [-157.9532302, 21.3884704]}}, {"type": "Feature", "properties": {"id": 8950131964, "name": "HomeStreet Bank", "category": "bank", "tags": ["bank"], "sources": ["osm"], "website": "https://www.homestreet.com/locations/pearl-city", "phone": "+1 808-484-4750", "address": "92.1258 Kaahumanu Street", "hours": "Mo-Th 08:30-16:30; Fr 08:30-18:00", "stations": [{"stopCode": 8, "lines": "1", "name": "Kalauao Station", "walkingMeters": 1238, "walkingSeconds": 892, "band": 15}]}, "geometry": {"type": "Point", "coordinates": [-157.954258, 21.3894991]}}, {"type": "Feature", "properties": {"id": 11428211594, "name": "Hawaii National Bank", "category": "bank", "tags": ["bank"], "sources": ["osm"], "website": "https://hawaiinational.bank/", "phone": "+1-808-483-5999", "address": "98-1268 Kaahumanu Street", "hours": "Tu-Th 09:00-17:00; Fr 09:00-18:00", "stations": [{"stopCode": 8, "lines": "1", "name": "Kalauao Station", "walkingMeters": 1201, "walkingSeconds": 866, "band": 15}]}, "geometry": {"type": "Point", "coordinates": [-157.9535897, 21.3894248]}}, {"type": "Feature", "properties": {"id": 13685832775, "name": "BOXFIT808 Boxing Gym", "category": "fitness_centre", "tags": ["fitness-centre", "boxing"], "sources": ["osm"], "website": "http://www.boxfit808.com/", "address": "98-025 Hekaha Street", "stations": [{"stopCode": 8, "lines": "1", "name": "Kalauao Station", "walkingMeters": 727, "walkingSeconds": 523, "band": 10}]}, "geometry": {"type": "Point", "coordinates": [-157.9506949, 21.3843365]}}, {"type": "Feature", "properties": {"id": 13685832792, "name": "Rainbow Gymnastics", "category": "fitness_centre", "tags": ["fitness-centre", "gymnastics"], "sources": ["osm"], "website": "https://www.rainbowgym.com/", "phone": "+1 808-488-7030", "address": "98-023 Hekaha Street", "hours": "Mo-Fr 15:00-20:00; Sa,Su 09:00-16:00", "stations": [{"stopCode": 8, "lines": "1", "name": "Kalauao Station", "walkingMeters": 693, "walkingSeconds": 499, "band": 10}]}, "geometry": {"type": "Point", "coordinates": [-157.9517625, 21.3841423]}}]}