{"type": "FeatureCollection", "features": [{"type": "Feature", "properties": {"id": 1494502840, "name": "Pacific Fleet Guest House", "category": "guest_house", "tags": ["guest-house"], "sources": ["osm"], "stations": [{"stopCode": 10, "lines": "1", "name": "Makalapa Station", "walkingMeters": 442, "walkingSeconds": 319, "band": 10}]}, "geometry": {"type": "Point", "coordinates": [-157.9353588, 21.3559961]}}, {"type": "Feature", "properties": {"id": 1494509774, "name": "Towers Pool", "category": "sports_centre", "tags": ["sports-centre", "swimming"], "sources": ["osm"], "stations": [{"stopCode": 10, "lines": "1", "name": "Makalapa Station", "walkingMeters": 638, "walkingSeconds": 462, "band": 10}]}, "geometry": {"type": "Point", "coordinates": [-157.936061, 21.3576706]}}]}