{"type": "FeatureCollection", "features": [{"type": "Feature", "properties": {"id": 504747962, "name": "Waiau Gardens Mini Park", "category": "park", "tags": ["park"], "sources": ["osm"]}, "geometry": {"type": "Point", "coordinates": [-157.9562636, 21.3962925]}}, {"type": "Feature", "properties": {"id": 553002560, "name": "Waiau Neighborhood Park", "category": "park", "tags": ["park"], "sources": ["osm"], "address": "98-500 Hookanike Street"}, "geometry": {"type": "Point", "coordinates": [-157.9545595, 21.3994997]}}, {"type": "Feature", "properties": {"id": 5303551866, "name": "Safeway", "category": "supermarket", "tags": ["supermarket"], "sources": ["osm"], "website": "https://local.safeway.com/safeway/hi/aiea/98-1277-kaahumanu-st.html", "phone": "+1-808-483-5900", "address": "98-1277 Kaahumanu Street", "hours": "Mo-Su 05:00-02:00"}, "geometry": {"type": "Point", "coordinates": [-157.951636, 21.3902717]}}, {"type": "Feature", "properties": {"id": 8958576011, "name": "Pink Box", "category": "toys", "tags": ["toys"], "sources": ["osm"]}, "geometry": {"type": "Point", "coordinates": [-157.9525801, 21.3900011]}}, {"type": "Feature", "properties": {"id": 13108181572, "name": "Hapa Board Shop", "category": "sports", "tags": ["sports", "surfing"], "sources": ["osm"], "website": "https://hapaboardshop.com/", "phone": "+1 808-460-4272", "address": "98-718 Moanalua Road", "hours": "Mo-Sa 10:00-18:00; Su 10:00-17:00"}, "geometry": {"type": "Point", "coordinates": [-157.9553432, 21.3917197]}}, {"type": "Feature", "properties": {"id": 515057021, "name": "7-Eleven", "category": "convenience", "tags": ["convenience"], "sources": ["osm"], "website": "https://7elevenhawaii.com/the-waimalu-store/", "phone": "+1-808-488-7450", "address": "98-1277 Kaahumanu Street", "hours": "24/7"}, "geometry": {"type": "Point", "coordinates": [-157.9528701, 21.3903076]}}, {"type": "Feature", "properties": {"id": 13108181573, "name": "The Mango Tree Fitness and Muay Thai", "category": "sports_centre", "tags": ["sports-centre", "martial-arts"], "sources": ["osm"], "website": "https://www.themangotreehawaii.com/", "address": "98-718 Moanalua Road", "hours": "Mo,Fr 09:00-10:00,16:00-20:00; Tu,Th 16:00-20:00; We 09:00-10:00,17:00-20:00; Sa 14:00-15:00,17:00-18:00"}, "geometry": {"type": "Point", "coordinates": [-157.9553368, 21.3918028]}}]}