{"type": "FeatureCollection", "features": [{"type": "Feature", "properties": {"id": 10277237560, "name": "Wright Brothers Cafe and Grill", "category": "cafe", "tags": ["cafe"], "sources": ["osm"]}, "geometry": {"type": "Point", "coordinates": [-157.9682429, 21.3333049]}}, {"type": "Feature", "properties": {"id": 1300420041, "name": "Hickam Field of Dreams Playground", "category": "park", "tags": ["park"], "sources": ["osm"]}, "geometry": {"type": "Point", "coordinates": [-157.9632527, 21.3332942]}}]}