{"type": "FeatureCollection", "features": [{"type": "Feature", "properties": {"id": 6618208586, "name": "Ray's Cafe", "category": "restaurant", "tags": ["restaurant"], "sources": ["osm"], "hours": "Mo-Sa 06:00-19:00; Su 06:00-14:30", "stations": [{"stopCode": 13, "lines": "1", "name": "Kahauiki Station", "walkingMeters": 1242, "walkingSeconds": 898, "band": 15}]}, "geometry": {"type": "Point", "coordinates": [-157.8789417, 21.3328938]}}, {"type": "Feature", "properties": {"id": 13373244001, "name": "Island Soul Shave Ice", "category": "ice_cream", "tags": ["ice-cream", "indoor-seating"], "sources": ["osm"], "phone": "+1 808-777-9995", "address": "1810 North King Street", "hours": "Mo-Sa 11:00-19:00; Su 00:00-18:00"}, "geometry": {"type": "Point", "coordinates": [-157.8762223, 21.3316238]}}, {"type": "Feature", "properties": {"id": 903656909, "name": "KFC", "category": "fast_food", "tags": ["fast-food", "chicken", "takeaway"], "sources": ["osm"], "website": "https://locations.kfc.com/hi/honolulu/1704-n-king-street"}, "geometry": {"type": "Point", "coordinates": [-157.8753955, 21.331314]}}, {"type": "Feature", "properties": {"id": 1072922765, "name": "Milkyway", "category": "cafe", "tags": ["cafe", "bubble-tea"], "sources": ["osm"], "hours": "Mo-Sa 11:00-18:00; Su closed", "stations": [{"stopCode": 13, "lines": "1", "name": "Kahauiki Station", "walkingMeters": 1386, "walkingSeconds": 1004, "band": 15}]}, "geometry": {"type": "Point", "coordinates": [-157.8791356, 21.3342005]}}, {"type": "Feature", "properties": {"id": 14075890864, "name": "Mokauea Street Mini Park", "category": "park", "tags": ["park"], "sources": ["osm"], "address": "834 Mokauea Street", "stations": [{"stopCode": 13, "lines": "1", "name": "Kahauiki Station", "walkingMeters": 1200, "walkingSeconds": 870, "band": 15}]}, "geometry": {"type": "Point", "coordinates": [-157.8786363, 21.3313535]}}, {"type": "Feature", "properties": {"id": 468299644, "name": "Mokauea Mini-Park", "category": "park", "tags": ["park"], "sources": ["osm"], "stations": [{"stopCode": 13, "lines": "1", "name": "Kahauiki Station", "walkingMeters": 1198, "walkingSeconds": 868, "band": 15}]}, "geometry": {"type": "Point", "coordinates": [-157.8786399, 21.3312658]}}, {"type": "Feature", "properties": {"id": 9843261447, "name": "Kalihi Super Meat", "category": "convenience", "tags": ["convenience", "delivery"], "sources": ["osm"]}, "geometry": {"type": "Point", "coordinates": [-157.8790239, 21.3342835]}}, {"type": "Feature", "properties": {"id": 11230313942, "name": "H Mart", "category": "supermarket", "tags": ["supermarket", "asian"], "sources": ["osm"]}, "geometry": {"type": "Point", "coordinates": [-157.8773767, 21.3321038]}}, {"type": "Feature", "properties": {"id": 11230313943, "name": "One Tech Wireless", "category": "mobile_phone", "tags": ["mobile-phone"], "sources": ["osm"]}, "geometry": {"type": "Point", "coordinates": [-157.8775031, 21.3320031]}}]}