{"type": "FeatureCollection", "features": [{"type": "Feature", "properties": {"id": 165627414, "name": "USS Utah", "category": "attraction", "tags": ["attraction"], "sources": ["osm"]}, "geometry": {"type": "Point", "coordinates": [-157.9626784, 21.3689349]}}, {"type": "Feature", "properties": {"id": 357210512, "name": "Ford Island Control Tower", "category": "attraction", "tags": ["attraction"], "sources": ["osm"], "website": "https://www.pearlharboraviationmuseum.org/attractions/the-control-tower/"}, "geometry": {"type": "Point", "coordinates": [-157.9614788, 21.3605916]}}, {"type": "Feature", "properties": {"id": 1263215147, "name": "S291", "category": "attraction", "tags": ["attraction"], "sources": ["osm"]}, "geometry": {"type": "Point", "coordinates": [-157.9669162, 21.3646699]}}, {"type": "Feature", "properties": {"id": 887550393, "name": "Bio Filtration Landscape", "category": "garden", "tags": ["garden"], "sources": ["osm"]}, "geometry": {"type": "Point", "coordinates": [-157.9628113, 21.3667924]}}]}