{"type": "FeatureCollection", "features": [{"type": "Feature", "properties": {"id": 5303551869, "name": "Pizza Hut", "category": "restaurant", "tags": ["restaurant", "pizza"], "sources": ["osm"], "website": "https://locations.pizzahut.com/hi/aiea/98-820-moanalua-road", "phone": "+1 808-643-1111", "address": "98-820 Moanalua Road", "hours": "Mo-Su 09:30-23:00", "stations": [{"stopCode": 8, "lines": "1", "name": "Kalauao Station", "walkingMeters": 1286, "walkingSeconds": 928, "band": 15}]}, "geometry": {"type": "Point", "coordinates": [-157.9493619, 21.3910506]}}, {"type": "Feature", "properties": {"id": 5303551867, "name": "Dave's Ice Cream", "category": "ice_cream", "tags": ["ice-cream"], "sources": ["osm"], "website": "https://www.daveshawaiianicecream.com", "address": "98-820 Moanalua Road", "stations": [{"stopCode": 8, "lines": "1", "name": "Kalauao Station", "walkingMeters": 1154, "walkingSeconds": 833, "band": 15}]}, "geometry": {"type": "Point", "coordinates": [-157.9489007, 21.3909903]}}, {"type": "Feature", "properties": {"id": 13132427953, "name": "Marujyu Market", "category": "restaurant", "tags": ["restaurant", "hawaiian"], "sources": ["osm"], "address": "98-820 Moanalua Road", "hours": "Mo-Sa 09:00-18:30; Su 09:00-17:00", "stations": [{"stopCode": 8, "lines": "1", "name": "Kalauao Station", "walkingMeters": 1282, "walkingSeconds": 924, "band": 15}]}, "geometry": {"type": "Point", "coordinates": [-157.9494026, 21.3910612]}}, {"type": "Feature", "properties": {"id": 923201731, "name": "Newtown Neighborhood Park", "category": "park", "tags": ["park"], "sources": ["osm"], "address": "98-434 Kaahele Street"}, "geometry": {"type": "Point", "coordinates": [-157.947016, 21.3969995]}}, {"type": "Feature", "properties": {"id": 13132427952, "name": "Elite Discount Furniture", "category": "furniture", "tags": ["furniture"], "sources": ["osm"], "website": "https://www.elitediscountfurniture.com/en/", "phone": "+1 808-744-8089", "address": "98-820 Moanalua Road", "hours": "Mo-Sa 10:00-18:30; Su 10:00-17:00"}, "geometry": {"type": "Point", "coordinates": [-157.9497179, 21.3911715]}}, {"type": "Feature", "properties": {"id": 13132427958, "name": "Coral Fish Hawaii", "category": "pet", "tags": ["pet"], "sources": ["osm"], "website": "https://coralfishhawaii.com/", "address": "98-810 Moanalua Road", "hours": "We-Fr 10:00-18:00; Sa,Su 10:00-16:00"}, "geometry": {"type": "Point", "coordinates": [-157.9499473, 21.3912708]}}, {"type": "Feature", "properties": {"id": 13132427957, "name": "Oahu Taekwondo Cente", "category": "sports_centre", "tags": ["sports-centre", "taekwondo"], "sources": ["osm"], "website": "https://oahutaekwondocenter.com/", "phone": "+1 808-486-2500", "address": "98-810 Moanalua Road", "hours": "Mo 15:45-20:00; Tu,Th 10:00-20:00; We 15:00-20:00; Fr 16:15-20:00; Sa 08:45-10:00"}, "geometry": {"type": "Point", "coordinates": [-157.9499251, 21.3913289]}}, {"type": "Feature", "properties": {"id": 1235998646, "name": "Newtown Estates Community Recreation Center", "category": "sports_centre", "tags": ["sports-centre"], "sources": ["osm"], "address": "98-456 Kaahele Street", "hours": "Mo-Sa 08:00-20:00; Su 10:00-16:00"}, "geometry": {"type": "Point", "coordinates": [-157.9470371, 21.398013]}}]}