{"type": "FeatureCollection", "features": [{"type": "Feature", "properties": {"id": 133755575, "name": "Aiea District Park", "category": "park", "tags": ["park"], "sources": ["osm"], "website": "https://www.honolulu.gov/dpr/", "address": "99-350 Aiea Heights Drive"}, "geometry": {"type": "Point", "coordinates": [-157.9289338, 21.3834927]}}, {"type": "Feature", "properties": {"id": 468564689, "name": "'Aiea Interim Park", "category": "park", "tags": ["park"], "sources": ["osm"]}, "geometry": {"type": "Point", "coordinates": [-157.926545, 21.380308]}}, {"type": "Feature", "properties": {"id": 726717696, "name": "Aiea Public Library", "category": "library", "tags": ["library", "air-conditioned", "wifi"], "sources": ["osm"], "website": "https://www.librarieshawaii.org/branch/aiea-public-library/", "phone": "+1 808 483 7333", "address": "99-374 Pohai Place", "hours": "Tu-Sa 09:00-16:00; Th 12:00-19:00; Fr 11:00-16:00"}, "geometry": {"type": "Point", "coordinates": [-157.9275201, 21.3809333]}}]}