{"type": "FeatureCollection", "features": [{"type": "Feature", "properties": {"id": 4858880515, "name": "Starbucks", "category": "cafe", "tags": ["cafe", "coffee-shop", "outdoor-seating", "takeaway"], "sources": ["osm"], "website": "https://www.starbucks.com/store-locator/store/6764/pearl-city-acacia-rd-kuala-st-1029-makolu-street-a-pearl-city-hi-967822890-us", "phone": "+1-808-455-1800", "address": "1029 Makolu Street", "hours": "Mo-Fr 04:00-19:30; Sa-Su 04:30-19:30", "stations": [{"stopCode": 7, "lines": "1", "name": "Waiawa Station", "walkingMeters": 1077, "walkingSeconds": 776, "band": 15}]}, "geometry": {"type": "Point", "coordinates": [-157.9740473, 21.3992229]}}, {"type": "Feature", "properties": {"id": 9971230133, "name": "Panda Express", "category": "fast_food", "tags": ["fast-food", "chinese", "takeaway"], "sources": ["osm"], "website": "https://www.pandaexpress.com/", "phone": "+1-808-454-0904", "address": "1029 Makolu Street", "hours": "Su-Th 10:00-21:00; Fr-Sa 10:00-21:30"}, "geometry": {"type": "Point", "coordinates": [-157.973647, 21.39965]}}, {"type": "Feature", "properties": {"id": 11428515226, "name": "Subway", "category": "fast_food", "tags": ["fast-food", "sandwich", "takeaway"], "sources": ["osm"], "website": "https://restaurants.subway.com/united-states/hi/pearl-city/1170-kuala-street", "phone": "+1-808-455-5295", "address": "1170 Kuala Street", "hours": "Mo-Fr 07:00-21:00; Sa 08:00-21:00; Su 09:00-20:00", "stations": [{"stopCode": 7, "lines": "1", "name": "Waiawa Station", "walkingMeters": 1007, "walkingSeconds": 725, "band": 15}]}, "geometry": {"type": "Point", "coordinates": [-157.9748409, 21.3994736]}}, {"type": "Feature", "properties": {"id": 494066926, "name": "Wendy's", "category": "fast_food", "tags": ["fast-food", "burger", "takeaway", "delivery", "drive-through"], "sources": ["osm"], "website": "https://locations.wendys.com/united-states/hi/pearl-city/1030-makolu-st", "phone": "+1-808-374-9303", "address": "1030 Makolu Street", "hours": "Mo-Su 06:30-22:00"}, "geometry": {"type": "Point", "coordinates": [-157.9732366, 21.3999546]}}, {"type": "Feature", "properties": {"id": 1355842844, "name": "Buffalo Wild Wings", "category": "restaurant", "tags": ["restaurant", "wings", "takeaway", "delivery"], "sources": ["osm"], "website": "https://www.buffalowildwings.com/en/food/", "phone": "+1 808 260 9464", "address": "1000 Kamehameha Highway", "hours": "Su-We 11:00-24:00; Th-Sa 11:00-02:00", "stations": [{"stopCode": 7, "lines": "1", "name": "Waiawa Station", "walkingMeters": 721, "walkingSeconds": 519, "band": 10}]}, "geometry": {"type": "Point", "coordinates": [-157.975998, 21.3961939]}}, {"type": "Feature", "properties": {"id": 5678180904, "name": "Domino's", "category": "fast_food", "tags": ["fast-food", "pizza", "takeaway"], "sources": ["osm"], "stations": [{"stopCode": 7, "lines": "1", "name": "Waiawa Station", "walkingMeters": 939, "walkingSeconds": 676, "band": 15}]}, "geometry": {"type": "Point", "coordinates": [-157.9752041, 21.3989575]}}, {"type": "Feature", "properties": {"id": 5678180906, "name": "Hana Tea", "category": "cafe", "tags": ["cafe", "bubble-tea", "wheelchair-accessible"], "sources": ["osm"], "address": "1160 Kuala Street", "hours": "Mo off; Tu-Th,Su 11:30-20:00; Fr-Sa 11:30-21:00", "stations": [{"stopCode": 7, "lines": "1", "name": "Waiawa Station", "walkingMeters": 930, "walkingSeconds": 670, "band": 15}]}, "geometry": {"type": "Point", "coordinates": [-157.9752575, 21.398901]}}, {"type": "Feature", "properties": {"id": 7727498009, "name": "Jersey Mike's Subs", "category": "fast_food", "tags": ["fast-food", "sandwich", "takeaway"], "sources": ["osm"], "website": "https://www.jerseymikes.com/44005/pearl-city-hi", "address": "1000 Kamehameha Highway", "hours": "Mo-Sa 10:00-21:00; Su 10:00-19:00", "stations": [{"stopCode": 7, "lines": "1", "name": "Waiawa Station", "walkingMeters": 603, "walkingSeconds": 434, "band": 10}]}, "geometry": {"type": "Point", "coordinates": [-157.977065, 21.3965281]}}, {"type": "Feature", "properties": {"id": 7727498010, "name": "Il Gelato", "category": "ice_cream", "tags": ["ice-cream", "takeaway", "wheelchair-accessible"], "sources": ["osm"], "address": "1000 Kamehameha Highway", "hours": "Mo-Sa 10:00-19:30; Su 10:00-19:00", "stations": [{"stopCode": 7, "lines": "1", "name": "Waiawa Station", "walkingMeters": 601, "walkingSeconds": 433, "band": 10}]}, "geometry": {"type": "Point", "coordinates": [-157.9770694, 21.3963893]}}, {"type": "Feature", "properties": {"id": 7727498011, "name": "L&G Local Food", "category": "fast_food", "tags": ["fast-food", "hawaiian", "takeaway"], "sources": ["osm"], "website": "https://pearlhighlandscenter.com/product/lg-local-foods/", "address": "1000 Kamehameha Highway", "hours": "Mo-Fr 09:00-20:00; Sa 09:00-19:00; Su 10:00-17:00", "stations": [{"stopCode": 7, "lines": "1", "name": "Waiawa Station", "walkingMeters": 619, "walkingSeconds": 446, "band": 10}]}, "geometry": {"type": "Point", "coordinates": [-157.9769959, 21.3964325]}}, {"type": "Feature", "properties": {"id": 7727498012, "name": "Maui Tacos", "category": "fast_food", "tags": ["fast-food", "tex-mex", "takeaway", "delivery"], "sources": ["osm"], "website": "https://www.mauitacosoahu.com/", "phone": "+1 808 261 4155", "address": "1000 Kamehameha Highway", "hours": "Mo-Sa 11:00-20:00; Su 11:00-19:00", "stations": [{"stopCode": 7, "lines": "1", "name": "Waiawa Station", "walkingMeters": 715, "walkingSeconds": 515, "band": 10}]}, "geometry": {"type": "Point", "coordinates": [-157.9771462, 21.3965556]}}, {"type": "Feature", "properties": {"id": 7727498013, "name": "Ming's Canton Food", "category": "restaurant", "tags": ["restaurant", "cantonese", "outdoor-seating", "takeaway"], "sources": ["osm"], "website": "https://pearlhighlandscenter.com/product/mings-canton-food-coming-soon/", "phone": "+1 808 455 8869", "address": "1000 Kamehameha Highway", "stations": [{"stopCode": 7, "lines": "1", "name": "Waiawa Station", "walkingMeters": 603, "walkingSeconds": 434, "band": 10}]}, "geometry": {"type": "Point", "coordinates": [-157.9770819, 21.3964387]}}, {"type": "Feature", "properties": {"id": 7728022326, "name": "Pampanga Kitchen", "category": "restaurant", "tags": ["restaurant", "filipino"], "sources": ["osm"], "website": "https://pearlhighlandscenter.com/product/pampanga-kitchen/", "phone": "+1 808 744 1010", "address": "1000 Kamehameha Highway", "stations": [{"stopCode": 7, "lines": "1", "name": "Waiawa Station", "walkingMeters": 603, "walkingSeconds": 434, "band": 10}]}, "geometry": {"type": "Point", "coordinates": [-157.9770738, 21.3964788]}}, {"type": "Feature", "properties": {"id": 7728022327, "name": "Sushiman", "category": "restaurant", "tags": ["restaurant", "sushi", "bubble-tea", "outdoor-seating", "takeaway"], "sources": ["osm"], "website": "https://pearlhighlandscenter.com/product/sushiman", "phone": "+1 808 454 4477", "address": "1000 Kamehameha Highway", "hours": "Mo-Th 10:30-21:00; Fr-Sa 10:30-22:00; Su 10:30-19:30", "stations": [{"stopCode": 7, "lines": "1", "name": "Waiawa Station", "walkingMeters": 709, "walkingSeconds": 510, "band": 10}]}, "geometry": {"type": "Point", "coordinates": [-157.9771982, 21.3965917]}}, {"type": "Feature", "properties": {"id": 7738194410, "name": "Teapresso Bar", "category": "cafe", "tags": ["cafe", "bubble-tea", "takeaway", "delivery", "wheelchair-accessible", "vegan", "air-conditioned", "wifi"], "sources": ["osm"], "website": "https://www.teapressobar.com/", "phone": "+1 808 517 4040", "address": "1000 Kamehameha Highway", "stations": [{"stopCode": 7, "lines": "1", "name": "Waiawa Station", "walkingMeters": 619, "walkingSeconds": 446, "band": 10}]}, "geometry": {"type": "Point", "coordinates": [-157.977029, 21.396378]}}, {"type": "Feature", "properties": {"id": 7738477773, "name": "Tin Hut BBQ", "category": "restaurant", "tags": ["restaurant", "barbecue"], "sources": ["osm"], "phone": "+1 808 492 6776", "address": "1000 Kamehameha Highway", "stations": [{"stopCode": 7, "lines": "1", "name": "Waiawa Station", "walkingMeters": 731, "walkingSeconds": 526, "band": 10}]}, "geometry": {"type": "Point", "coordinates": [-157.9770089, 21.3965199]}}, {"type": "Feature", "properties": {"id": 7738477775, "name": "The Elephant Shack", "category": "restaurant", "tags": ["restaurant", "thai", "takeaway", "delivery", "vegan"], "sources": ["osm"], "website": "https://www.808elephant.com/", "address": "1000 Kamehameha Highway", "stations": [{"stopCode": 7, "lines": "1", "name": "Waiawa Station", "walkingMeters": 603, "walkingSeconds": 434, "band": 10}]}, "geometry": {"type": "Point", "coordinates": [-157.9770154, 21.3964881]}}, {"type": "Feature", "properties": {"id": 7738477776, "name": "Uproll Cafe", "category": "cafe", "tags": ["cafe", "outdoor-seating", "vegetarian", "vegan"], "sources": ["osm"], "address": "1000 Kamehameha Highway", "stations": [{"stopCode": 7, "lines": "1", "name": "Waiawa Station", "walkingMeters": 591, "walkingSeconds": 426, "band": 10}]}, "geometry": {"type": "Point", "coordinates": [-157.9772218, 21.3964442]}}, {"type": "Feature", "properties": {"id": 8674811875, "name": "Poke On Da Run", "category": "restaurant", "tags": ["restaurant", "seafood", "poke"], "sources": ["osm"], "address": "909 Lehua Avenue"}, "geometry": {"type": "Point", "coordinates": [-157.9711189, 21.3913349]}}, {"type": "Feature", "properties": {"id": 9974077527, "name": "The Pizza Press", "category": "restaurant", "tags": ["restaurant", "pizza"], "sources": ["osm"], "website": "https://www.thepizzapress.com/location/pearl-city-hi/", "phone": "+1-808-744-7771", "address": "1000 Kamehameha Highway", "hours": "Su-We 11:00-20:00; Th 11:00-20:30; Fr-Sa 11:00-21:30", "stations": [{"stopCode": 7, "lines": "1", "name": "Waiawa Station", "walkingMeters": 878, "walkingSeconds": 632, "band": 15}]}, "geometry": {"type": "Point", "coordinates": [-157.9756952, 21.3967621]}}, {"type": "Feature", "properties": {"id": 9976174791, "name": "Teriyaki Madness", "category": "fast_food", "tags": ["fast-food", "japanese", "takeaway"], "sources": ["osm"], "website": "https://teriyakimadness.com/locations/hi-pearl-city/", "phone": "+1-808-744-4800", "address": "1000 Kamehameha Highway", "hours": "Mo-Su 11:00-21:00", "stations": [{"stopCode": 7, "lines": "1", "name": "Waiawa Station", "walkingMeters": 819, "walkingSeconds": 590, "band": 10}]}, "geometry": {"type": "Point", "coordinates": [-157.9761508, 21.3963734]}}, {"type": "Feature", "properties": {"id": 11428543192, "name": "L&L Hawaiian Barbecue", "category": "fast_food", "tags": ["fast-food", "hawaiian", "takeaway"], "sources": ["osm"], "website": "https://www.hawaiianbarbecue.com/locations/pearl-city/", "phone": "+1-808-456-0708", "address": "1029 Makolu Street", "hours": "Mo-Su 10:00-22:00"}, "geometry": {"type": "Point", "coordinates": [-157.9738136, 21.3994953]}}, {"type": "Feature", "properties": {"id": 11428515224, "name": "Ramen Ya", "category": "restaurant", "tags": ["restaurant", "ramen"], "sources": ["osm"], "website": "https://ramenyahawaii.com/", "phone": "+1-808-456-8868", "address": "1170 Kuala Street", "hours": "Mo-Su 10:30-21:00", "stations": [{"stopCode": 7, "lines": "1", "name": "Waiawa Station", "walkingMeters": 994, "walkingSeconds": 716, "band": 15}]}, "geometry": {"type": "Point", "coordinates": [-157.9749152, 21.3993892]}}, {"type": "Feature", "properties": {"id": 11428515239, "name": "Dunkin' Donuts", "category": "fast_food", "tags": ["fast-food", "donut", "coffee-shop", "takeaway", "drive-through"], "sources": ["osm"], "website": "https://locations.dunkindonuts.com/en/hi/pearl-city/1170-kuala-st/357407", "phone": "+1-808-456-7060", "address": "1170 Kuala Street", "hours": "Mo-Fr 05:00-20:00; Sa,Su 06:00-20:00", "stations": [{"stopCode": 7, "lines": "1", "name": "Waiawa Station", "walkingMeters": 1018, "walkingSeconds": 734, "band": 15}]}, "geometry": {"type": "Point", "coordinates": [-157.9747711, 21.3995555]}}, {"type": "Feature", "properties": {"id": 11428543193, "name": "Daiichi Ramen", "category": "restaurant", "tags": ["restaurant", "ramen", "takeaway"], "sources": ["osm"]}, "geometry": {"type": "Point", "coordinates": [-157.9738659, 21.399454]}}, {"type": "Feature", "properties": {"id": 11428543194, "name": "Paradise Poke Hawaii", "category": "restaurant", "tags": ["restaurant", "poke"], "sources": ["osm"], "stations": [{"stopCode": 7, "lines": "1", "name": "Waiawa Station", "walkingMeters": 1121, "walkingSeconds": 808, "band": 15}]}, "geometry": {"type": "Point", "coordinates": [-157.9739182, 21.3994103]}}, {"type": "Feature", "properties": {"id": 11428543195, "name": "\u5c0f\u50e7\u5bff\u3057", "category": "fast_food", "tags": ["fast-food", "sushi", "takeaway"], "sources": ["osm"], "website": "https://kozosushihawaii.com/", "phone": "+1-808-455-6805", "address": "1029 Makolu Street", "hours": "Mo-Su 10:00-22:00", "stations": [{"stopCode": 7, "lines": "1", "name": "Waiawa Station", "walkingMeters": 1077, "walkingSeconds": 776, "band": 15}]}, "geometry": {"type": "Point", "coordinates": [-157.9739825, 21.3993604]}}, {"type": "Feature", "properties": {"id": 11428543196, "name": "Matsuzaka-tei", "category": "restaurant", "tags": ["restaurant", "japanese", "takeaway"], "sources": ["osm"], "stations": [{"stopCode": 7, "lines": "1", "name": "Waiawa Station", "walkingMeters": 1077, "walkingSeconds": 776, "band": 15}]}, "geometry": {"type": "Point", "coordinates": [-157.9740375, 21.3993017]}}, {"type": "Feature", "properties": {"id": 829009009, "name": "Liliha Bakery", "category": "restaurant", "tags": ["restaurant", "regional"], "sources": ["osm"], "website": "https://www.lilihabakery.com/", "address": "1000 Kamehameha Highway", "hours": "Mo-Su 06:30-22:00", "stations": [{"stopCode": 7, "lines": "1", "name": "Waiawa Station", "walkingMeters": 677, "walkingSeconds": 488, "band": 10}]}, "geometry": {"type": "Point", "coordinates": [-157.9774936, 21.39667]}}, {"type": "Feature", "properties": {"id": 479829221, "name": "Pacheco Park", "category": "park", "tags": ["park"], "sources": ["osm"]}, "geometry": {"type": "Point", "coordinates": [-157.9706432, 21.3951087]}}, {"type": "Feature", "properties": {"id": 1088707001, "name": "Urban Garden Center", "category": "garden", "tags": ["garden"], "sources": ["osm"], "website": "https://cms.ctahr.hawaii.edu/ougc", "stations": [{"stopCode": 7, "lines": "1", "name": "Waiawa Station", "walkingMeters": 1208, "walkingSeconds": 872, "band": 15}]}, "geometry": {"type": "Point", "coordinates": [-157.9750514, 21.3936226]}}, {"type": "Feature", "properties": {"id": 5678180905, "name": "AT&T", "category": "mobile_phone", "tags": ["mobile-phone"], "sources": ["osm"], "stations": [{"stopCode": 7, "lines": "1", "name": "Waiawa Station", "walkingMeters": 899, "walkingSeconds": 648, "band": 15}]}, "geometry": {"type": "Point", "coordinates": [-157.9753174, 21.3988449]}}, {"type": "Feature", "properties": {"id": 9974044489, "name": "Ross", "category": "department_store", "tags": ["department-store"], "sources": ["osm"], "website": "https://www.rossstores.com/", "phone": "+1-808-456-1005", "address": "1000 Kamehameha Highway", "hours": "Mo-Su 08:00-23:00", "stations": [{"stopCode": 7, "lines": "1", "name": "Waiawa Station", "walkingMeters": 571, "walkingSeconds": 412, "band": 10}]}, "geometry": {"type": "Point", "coordinates": [-157.9783358, 21.397221]}}, {"type": "Feature", "properties": {"id": 9974077520, "name": "T-Mobile", "category": "mobile_phone", "tags": ["mobile-phone"], "sources": ["osm"], "website": "https://www.t-mobile.com/store-locator/hi/pearl-city/pearl-highlands-center", "phone": "+1-808-460-3795", "address": "1000 Kamehameha Highway", "hours": "Mo-Sa 10:00-20:00; Su 10:00-18:00", "stations": [{"stopCode": 7, "lines": "1", "name": "Waiawa Station", "walkingMeters": 630, "walkingSeconds": 454, "band": 10}]}, "geometry": {"type": "Point", "coordinates": [-157.9779093, 21.3968221]}}, {"type": "Feature", "properties": {"id": 392879832, "name": "Petco", "category": "pet", "tags": ["pet"], "sources": ["osm"]}, "geometry": {"type": "Point", "coordinates": [-157.9756418, 21.3999247]}}, {"type": "Feature", "properties": {"id": 392879836, "name": "TJ Maxx", "category": "department_store", "tags": ["department-store"], "sources": ["osm"], "website": "https://tjmaxx.tjx.com/store/stores/Pearl+City-HI-96782/1262/aboutstore", "phone": "+1-808-456-2870", "address": "1120 Kuala Street", "hours": "Mo-Sa 09:30-21:30; Su 10:00-20:00", "stations": [{"stopCode": 7, "lines": "1", "name": "Waiawa Station", "walkingMeters": 985, "walkingSeconds": 710, "band": 15}]}, "geometry": {"type": "Point", "coordinates": [-157.9764093, 21.3989792]}}, {"type": "Feature", "properties": {"id": 8674811887, "name": "Flo's Min Florists", "category": "florist", "tags": ["florist"], "sources": ["osm"], "address": "927 Lehua Avenue"}, "geometry": {"type": "Point", "coordinates": [-157.9709692, 21.3917765]}}, {"type": "Feature", "properties": {"id": 9974077517, "name": "Verizon", "category": "mobile_phone", "tags": ["mobile-phone"], "sources": ["osm"], "website": "https://www.verizon.com/stores/details/hawaii/pearl-city/pearl-highlands-center-203460/", "phone": "+1-800-880-1077", "address": "1000 Kamehameha Highway", "hours": "Mo-Sa 09:00-19:00; Su 10:00-17:00", "stations": [{"stopCode": 7, "lines": "1", "name": "Waiawa Station", "walkingMeters": 802, "walkingSeconds": 578, "band": 10}]}, "geometry": {"type": "Point", "coordinates": [-157.9762951, 21.396448]}}, {"type": "Feature", "properties": {"id": 9974077519, "name": "Jeans Warehouse", "category": "clothes", "tags": ["clothes"], "sources": ["osm"], "website": "https://www.jeanswarehousehawaii.com/", "phone": "+1-808-550-9619", "address": "1000 Kamehameha Highway", "hours": "Mo-Sa 10:00-21:00; Su 10:00-18:00", "stations": [{"stopCode": 7, "lines": "1", "name": "Waiawa Station", "walkingMeters": 611, "walkingSeconds": 440, "band": 10}]}, "geometry": {"type": "Point", "coordinates": [-157.9780954, 21.3968521]}}, {"type": "Feature", "properties": {"id": 9974077521, "name": "The Good Feet Store", "category": "shoes", "tags": ["shoes"], "sources": ["osm"], "website": "https://www.goodfeet.com/stores/usa/hi/pearl-city/1000-kamehameha-hwy", "phone": "+1-808-888-3377", "address": "1000 Kamehameha Highway", "hours": "Mo-Sa 10:00-18:00; Su 11:00-17:00", "stations": [{"stopCode": 7, "lines": "1", "name": "Waiawa Station", "walkingMeters": 640, "walkingSeconds": 462, "band": 10}]}, "geometry": {"type": "Point", "coordinates": [-157.9778143, 21.3968072]}}, {"type": "Feature", "properties": {"id": 12548016738, "name": "Ulta Beauty", "category": "cosmetics", "tags": ["cosmetics"], "sources": ["osm"], "website": "https://www.ulta.com/stores/pearl-city-hi-1454", "phone": "+1 808 638 4701", "address": "1000 Kamehameha Highway", "hours": "Mo-Sa 10:00-19:00; Su 11:00-19:00", "stations": [{"stopCode": 7, "lines": "1", "name": "Waiawa Station", "walkingMeters": 777, "walkingSeconds": 560, "band": 10}]}, "geometry": {"type": "Point", "coordinates": [-157.9765289, 21.3965091]}}, {"type": "Feature", "properties": {"id": 148279962, "name": "Walmart Supercenter", "category": "supermarket", "tags": ["supermarket"], "sources": ["osm"], "website": "https://www.walmart.com/store/5274-pearl-city-hi", "phone": "+1-808-454-8785", "address": "1131 Kuala Street", "hours": "24/7", "stations": [{"stopCode": 7, "lines": "1", "name": "Waiawa Station", "walkingMeters": 1031, "walkingSeconds": 742, "band": 15}]}, "geometry": {"type": "Point", "coordinates": [-157.9743522, 21.3971755]}}, {"type": "Feature", "properties": {"id": 1355883910, "name": "The Home Depot", "category": "doityourself", "tags": ["doityourself"], "sources": ["osm"], "website": "https://www.homedepot.com/l/Pearl-City/HI/Pearl-City/96782/1702", "phone": "+1-808-455-1200", "address": "1021 Kamehameha Highway", "stations": [{"stopCode": 7, "lines": "1", "name": "Waiawa Station", "walkingMeters": 976, "walkingSeconds": 703, "band": 10}]}, "geometry": {"type": "Point", "coordinates": [-157.975993, 21.3950004]}}, {"type": "Feature", "properties": {"id": 392879830, "name": "Longs Drugs", "category": "pharmacy", "tags": ["pharmacy"], "sources": ["osm"], "stations": [{"stopCode": 7, "lines": "1", "name": "Waiawa Station", "walkingMeters": 990, "walkingSeconds": 714, "band": 15}]}, "geometry": {"type": "Point", "coordinates": [-157.9759613, 21.3994925]}}, {"type": "Feature", "properties": {"id": 11428543191, "name": "Pacific Endoscopy Center", "category": "clinic", "tags": ["clinic"], "sources": ["osm"]}, "geometry": {"type": "Point", "coordinates": [-157.9737264, 21.3995739]}}, {"type": "Feature", "properties": {"id": 370374523, "name": "United States Post Office", "category": "post_office", "tags": ["post-office"], "sources": ["osm"], "stations": [{"stopCode": 7, "lines": "1", "name": "Waiawa Station", "walkingMeters": 826, "walkingSeconds": 595, "band": 15}]}, "geometry": {"type": "Point", "coordinates": [-157.9739136, 21.3958074]}}, {"type": "Feature", "properties": {"id": 9974077530, "name": "FedEx Office", "category": "post_office", "tags": ["post-office"], "sources": ["osm"], "website": "https://local.fedex.com/en-us/hi/pearl-city/office-2806", "phone": "+1-808-456-9771", "address": "1000 Kamehameha Highway", "hours": "Mo-Fr 08:00-19:00; Sa 09:00-18:00; Su 12:00-18:00", "stations": [{"stopCode": 7, "lines": "1", "name": "Waiawa Station", "walkingMeters": 871, "walkingSeconds": 628, "band": 15}]}, "geometry": {"type": "Point", "coordinates": [-157.9758572, 21.3969103]}}, {"type": "Feature", "properties": {"id": 5678181441, "name": "24 Hour Fitness", "category": "fitness_centre", "tags": ["fitness-centre", "fitness", "swimming", "basketball", "racquet", "wifi"], "sources": ["osm"], "website": "https://www.24hourfitness.com/gyms/pearl-city-hi/pearl-city-supersport", "phone": "+1 808 486 2424", "address": "1000 Kamehameha Highway", "hours": "24/7", "stations": [{"stopCode": 7, "lines": "1", "name": "Waiawa Station", "walkingMeters": 800, "walkingSeconds": 576, "band": 10}]}, "geometry": {"type": "Point", "coordinates": [-157.974954, 21.3959213]}}]}