{"type": "FeatureCollection", "features": [{"type": "Feature", "properties": {"id": 1241495555, "name": "California Pizza Kitchen", "category": "restaurant", "tags": ["restaurant", "pizza"], "sources": ["osm"], "website": "https://www.cpk.com/locations/california-pizza-kitchen-pearlridge", "phone": "+1 808-487-7741", "hours": "Mo-Su 10:30-22:00; Fr,Sa 10:30-23:00", "stations": [{"stopCode": 8, "lines": "1", "name": "Kalauao Station", "walkingMeters": 932, "walkingSeconds": 674, "band": 15}]}, "geometry": {"type": "Point", "coordinates": [-157.9399425, 21.3835998]}}, {"type": "Feature", "properties": {"id": 7681514695, "name": "Uncle\u2019s Fish Market & Grill", "category": "restaurant", "tags": ["restaurant"], "sources": ["osm"], "website": "https://unclesfishmarket.com/", "phone": "+1 808-275-0063", "address": "98-1005 Moanalua Road", "hours": "Mo-Su 11:00-20:00", "stations": [{"stopCode": 8, "lines": "1", "name": "Kalauao Station", "walkingMeters": 1039, "walkingSeconds": 753, "band": 15}]}, "geometry": {"type": "Point", "coordinates": [-157.9398729, 21.3829829]}}, {"type": "Feature", "properties": {"id": 13809861018, "name": "Gen Korean BBQ", "category": "restaurant", "tags": ["restaurant", "korean", "barbecue"], "sources": ["osm"], "website": "https://www.genkoreanbbq.com/", "phone": "+1 808-487-9135", "address": "98-1005 Moanalua Road", "hours": "Mo-Su 10:00-22:00; Fr,Sa 10:00-23:00", "stations": [{"stopCode": 8, "lines": "1", "name": "Kalauao Station", "walkingMeters": 1020, "walkingSeconds": 739, "band": 15}]}, "geometry": {"type": "Point", "coordinates": [-157.9395825, 21.3830946]}}, {"type": "Feature", "properties": {"id": 14057932531, "name": "M&M BBQ", "category": "restaurant", "tags": ["restaurant"], "sources": ["osm"], "website": "https://www.mmbbqhi.com/", "phone": "+1 808-488-6739", "address": "99-149 Moanalua Road", "hours": "Mo-Su 08:00-19:30; Tu off", "stations": [{"stopCode": 9, "lines": "1", "name": "H\u0101lawa Station", "walkingMeters": 1152, "walkingSeconds": 839, "band": 15}]}, "geometry": {"type": "Point", "coordinates": [-157.9311577, 21.3800719]}}, {"type": "Feature", "properties": {"id": 1090372588, "name": "Big City Diner", "category": "restaurant", "tags": ["restaurant", "american"], "sources": ["osm"], "website": "https://bigcitydinerhawaii.com/", "phone": "+1-808-487-8188", "address": "98-211 Pali Momi Street", "hours": "Mo-Th 10:00-20:00; Fr 10:00-21:00; Sa 08:00-21:00; Su 08:00-20:00", "stations": [{"stopCode": 8, "lines": "1", "name": "Kalauao Station", "walkingMeters": 1009, "walkingSeconds": 727, "band": 15}]}, "geometry": {"type": "Point", "coordinates": [-157.938917, 21.382504]}}, {"type": "Feature", "properties": {"id": 1197261256, "name": "Boston\u2019s", "category": "restaurant", "tags": ["restaurant", "pizza"], "sources": ["osm"], "website": "https://www.bostonsnorthendpizza.com/", "phone": "+1 808-487-4055", "address": "98-298 Kamehameha Highway", "hours": "Mo-Su 10:30-20:00", "stations": [{"stopCode": 8, "lines": "1", "name": "Kalauao Station", "walkingMeters": 1078, "walkingSeconds": 777, "band": 15}]}, "geometry": {"type": "Point", "coordinates": [-157.9382258, 21.3801258]}}, {"type": "Feature", "properties": {"id": 1246987461, "name": "Aiea District Park", "category": "park", "tags": ["park"], "sources": ["osm"], "website": "http://honolulu.gov/parks", "address": "98-1249 Ulune Street"}, "geometry": {"type": "Point", "coordinates": [-157.9309383, 21.3835006]}}, {"type": "Feature", "properties": {"id": 4184377890, "name": "Straub Benioff Medical Center", "category": "clinic", "tags": ["clinic"], "sources": ["osm"], "website": "https://www.hawaiipacifichealth.org/straub/", "phone": "+1 808-483-6400", "address": "98-151 Pali Momi Street", "hours": "Mo-Fr 07:00-17:00; Tu 07:00-18:30; Sa 07:00-12:00", "stations": [{"stopCode": 8, "lines": "1", "name": "Kalauao Station", "walkingMeters": 983, "walkingSeconds": 708, "band": 15}]}, "geometry": {"type": "Point", "coordinates": [-157.939813, 21.381963]}}, {"type": "Feature", "properties": {"id": 9752775980, "name": "Pali Momi Outpatient Center", "category": "clinic", "tags": ["clinic"], "sources": ["osm"], "address": "98-1005 Moanalua Road", "stations": [{"stopCode": 8, "lines": "1", "name": "Kalauao Station", "walkingMeters": 1000, "walkingSeconds": 722, "band": 15}]}, "geometry": {"type": "Point", "coordinates": [-157.9394089, 21.3849863]}}, {"type": "Feature", "properties": {"id": 841073501, "name": "Pali Momi Medical Center", "category": "hospital", "tags": ["hospital", "emergency"], "sources": ["osm"], "website": "https://www.hawaiipacifichealth.org/pali-momi/", "phone": "+1 808 486 6000", "address": "98-1079 Moanalua Road", "hours": "24/7", "stations": [{"stopCode": 8, "lines": "1", "name": "Kalauao Station", "walkingMeters": 1291, "walkingSeconds": 932, "band": 15}]}, "geometry": {"type": "Point", "coordinates": [-157.938558, 21.3835244]}}, {"type": "Feature", "properties": {"id": 1241459754, "name": "Bank of Hawaii", "category": "bank", "tags": ["bank", "drive-through"], "sources": ["osm"], "website": "https://www.boh.com/locations/pearlridge", "address": "98-1059 Moanalua Road", "hours": "Mo-Fr 08:00-16:00; Sa 09:00-13:00", "stations": [{"stopCode": 8, "lines": "1", "name": "Kalauao Station", "walkingMeters": 1140, "walkingSeconds": 823, "band": 15}]}, "geometry": {"type": "Point", "coordinates": [-157.9385038, 21.3845322]}}, {"type": "Feature", "properties": {"id": 841073502, "name": "First Hawaiian Bank", "category": "bank", "tags": ["bank"], "sources": ["osm"], "website": "https://locations.fhb.com/hi-island-first-hawaiian-bank-pearlridge-branch-81", "phone": "+1 808-487-0200", "address": "98-1071 Moanalua Road", "hours": "Mo-Fr 08:30-16:00; Sa 09:00-13:00", "stations": [{"stopCode": 8, "lines": "1", "name": "Kalauao Station", "walkingMeters": 1192, "walkingSeconds": 861, "band": 15}]}, "geometry": {"type": "Point", "coordinates": [-157.9381895, 21.3840932]}}]}