{"type": "FeatureCollection", "features": [{"type": "Feature", "properties": {"id": 9267751076, "name": "Laniakea Caf\u00e9", "category": "restaurant", "tags": ["restaurant"], "sources": ["osm"]}, "geometry": {"type": "Point", "coordinates": [-157.9616104, 21.3596031]}}, {"type": "Feature", "properties": {"id": 1288842267, "name": "Pearl Harbor Aviation Museum", "category": "museum", "tags": ["museum"], "sources": ["osm"], "website": "https://www.pearlharboraviationmuseum.org/"}, "geometry": {"type": "Point", "coordinates": [-157.9635421, 21.3589537]}}]}