{"type": "FeatureCollection", "features": [{"type": "Feature", "properties": {"id": 1005746708, "name": "Lehua Community Park", "category": "park", "tags": ["park"], "sources": ["osm"]}, "geometry": {"type": "Point", "coordinates": [-157.9711673, 21.3881978]}}, {"type": "Feature", "properties": {"id": 448978910, "name": "Pearl City Mini Mart", "category": "convenience", "tags": ["convenience", "wheelchair-accessible"], "sources": ["osm"], "address": "794 Lehua Avenue"}, "geometry": {"type": "Point", "coordinates": [-157.9730163, 21.3813791]}}]}