{"type": "FeatureCollection", "features": [{"type": "Feature", "properties": {"id": 5106735922, "name": "The Alley Restaurant", "category": "restaurant", "tags": ["restaurant"], "sources": ["osm"], "hours": "Mo-Su 10:00-21:00", "stations": [{"stopCode": 9, "lines": "1", "name": "H\u0101lawa Station", "walkingMeters": 1213, "walkingSeconds": 880, "band": 15}]}, "geometry": {"type": "Point", "coordinates": [-157.9295366, 21.3790891]}}, {"type": "Feature", "properties": {"id": 14077947281, "name": "Aiea Pancake House", "category": "restaurant", "tags": ["restaurant", "hawaiian", "pancake"], "sources": ["osm"], "stations": [{"stopCode": 9, "lines": "1", "name": "H\u0101lawa Station", "walkingMeters": 1063, "walkingSeconds": 772, "band": 15}]}, "geometry": {"type": "Point", "coordinates": [-157.9299742, 21.3786083]}}, {"type": "Feature", "properties": {"id": 10102333247, "name": "Times Supermarkets", "category": "supermarket", "tags": ["supermarket"], "sources": ["osm"], "website": "https://www.timessupermarkets.com/store/aiea-times", "phone": "+1-808-483-5088", "address": "95-115 Aiea Heights Drive", "hours": "Mo-Su 05:00-23:00", "stations": [{"stopCode": 9, "lines": "1", "name": "H\u0101lawa Station", "walkingMeters": 1137, "walkingSeconds": 825, "band": 15}]}, "geometry": {"type": "Point", "coordinates": [-157.9299814, 21.3788843]}}, {"type": "Feature", "properties": {"id": 1204387145, "name": "7-Eleven", "category": "convenience", "tags": ["convenience"], "sources": ["osm"], "website": "https://7elevenhawaii.com/location/the-aiea-store/", "phone": "+1 808-486-1711", "address": "99-187 Aiea Heights Drive", "hours": "24/7"}, "geometry": {"type": "Point", "coordinates": [-157.9284541, 21.3797437]}}]}