{"type": "FeatureCollection", "features": [{"type": "Feature", "properties": {"id": 12296160392, "name": "Patxi's Pizza", "category": "restaurant", "tags": ["restaurant", "pizza"], "sources": ["osm"], "website": "https://patxispizza.com/location/honolulu", "phone": "+1-808-888-0505", "address": "813 Willamette Street", "hours": "Mo-Fr 10:00-18:00; Sa off; Su off"}, "geometry": {"type": "Point", "coordinates": [-157.9463825, 21.3505198]}}, {"type": "Feature", "properties": {"id": 13266204501, "name": "Navy Exchange Fleet", "category": "convenience", "tags": ["convenience"], "sources": ["osm"], "website": "https://www.mynavyexchange.com/storelocator/storesearch.jsp?displayDetails=true&storeid=727", "address": "1786 Willamette Street", "hours": "Mo-Fr 07:00-20:00; Sa-Su 08:00-17:00"}, "geometry": {"type": "Point", "coordinates": [-157.9464002, 21.35036]}}, {"type": "Feature", "properties": {"id": 255019386, "name": "Pier Side Fitness Center", "category": "fitness_centre", "tags": ["fitness-centre"], "sources": ["osm"], "website": "https://www.greatlifehawaii.com/programs/76c207c7-384c-44fa-8dea-856d9975680d", "hours": "Mo-Fr 05:00-15:00", "stations": [{"stopCode": 10, "lines": "1", "name": "Makalapa Station", "walkingMeters": 755, "walkingSeconds": 550, "band": 15}]}, "geometry": {"type": "Point", "coordinates": [-157.9410352, 21.3578389]}}, {"type": "Feature", "properties": {"id": 255019388, "name": "Scott Pool", "category": "swimming_pool", "tags": ["swimming-pool"], "sources": ["osm"]}, "geometry": {"type": "Point", "coordinates": [-157.9477764, 21.3513479]}}, {"type": "Feature", "properties": {"id": 1266920106, "name": "S664", "category": "swimming_pool", "tags": ["swimming-pool"], "sources": ["osm"], "stations": [{"stopCode": 10, "lines": "1", "name": "Makalapa Station", "walkingMeters": 550, "walkingSeconds": 402, "band": 15}]}, "geometry": {"type": "Point", "coordinates": [-157.9418857, 21.3557962]}}]}