{"type": "FeatureCollection", "features": [{"type": "Feature", "properties": {"id": 12985324108, "name": "Starbucks", "category": "cafe", "tags": ["cafe", "coffee-shop", "takeaway"], "sources": ["osm"], "stations": [{"stopCode": 9, "lines": "1", "name": "H\u0101lawa Station", "walkingMeters": 903, "walkingSeconds": 652, "band": 10}]}, "geometry": {"type": "Point", "coordinates": [-157.9301346, 21.3663378]}}, {"type": "Feature", "properties": {"id": 4484987809, "name": "Pearl Harbor Visitor Center Snack Shop", "category": "fast_food", "tags": ["fast-food", "gift"], "sources": ["osm"], "stations": [{"stopCode": 9, "lines": "1", "name": "H\u0101lawa Station", "walkingMeters": 1033, "walkingSeconds": 745, "band": 15}]}, "geometry": {"type": "Point", "coordinates": [-157.9387425, 21.3671022]}}, {"type": "Feature", "properties": {"id": 13688105759, "name": "Subway", "category": "fast_food", "tags": ["fast-food", "sandwich"], "sources": ["osm"]}, "geometry": {"type": "Point", "coordinates": [-157.9336009, 21.3613538]}}, {"type": "Feature", "properties": {"id": 12985324109, "name": "Domino's", "category": "fast_food", "tags": ["fast-food", "pizza", "takeaway"], "sources": ["osm"], "stations": [{"stopCode": 9, "lines": "1", "name": "H\u0101lawa Station", "walkingMeters": 873, "walkingSeconds": 630, "band": 10}]}, "geometry": {"type": "Point", "coordinates": [-157.9300847, 21.3662426]}}, {"type": "Feature", "properties": {"id": 11612899253, "name": "McDonald's", "category": "fast_food", "tags": ["fast-food", "burger", "indoor-seating", "takeaway", "drive-through", "wifi"], "sources": ["osm"], "website": "https://www.mcdonalds.com/us/en-us/location/hi/honolulu/4561-salt-lake-blvd/12847.html", "phone": "+1 808-483-4750", "address": "4561 Salt Lake Boulevard", "hours": "Mo-Su 05:00-19:00", "stations": [{"stopCode": 9, "lines": "1", "name": "H\u0101lawa Station", "walkingMeters": 814, "walkingSeconds": 588, "band": 10}]}, "geometry": {"type": "Point", "coordinates": [-157.9300485, 21.3670341]}}, {"type": "Feature", "properties": {"id": 14134149005, "name": "Submarine Hull Ring", "category": "artwork", "tags": ["artwork"], "sources": ["osm"], "stations": [{"stopCode": 9, "lines": "1", "name": "H\u0101lawa Station", "walkingMeters": 1038, "walkingSeconds": 749, "band": 15}]}, "geometry": {"type": "Point", "coordinates": [-157.9385772, 21.3680161]}}, {"type": "Feature", "properties": {"id": 84750336, "name": "Pacific Fleet Submarine Museum", "category": "museum", "tags": ["museum", "air-conditioned"], "sources": ["osm"], "website": "https://www.bowfin.org/", "phone": "+1 808-423-1341", "address": "11 Arizona Memorial Drive", "hours": "Mo-Su 07:00-17:00; Nov Th[4] off; Dec 25 off; Jan 01 off", "stations": [{"stopCode": 9, "lines": "1", "name": "H\u0101lawa Station", "walkingMeters": 1079, "walkingSeconds": 778, "band": 15}]}, "geometry": {"type": "Point", "coordinates": [-157.9385398, 21.3685065]}}, {"type": "Feature", "properties": {"id": 165627406, "name": "USS Bowfin", "category": "attraction", "tags": ["attraction"], "sources": ["osm"], "website": "https://www.bowfin.org/", "stations": [{"stopCode": 9, "lines": "1", "name": "H\u0101lawa Station", "walkingMeters": 1121, "walkingSeconds": 809, "band": 15}]}, "geometry": {"type": "Point", "coordinates": [-157.9394592, 21.3687359]}}, {"type": "Feature", "properties": {"id": 451679471, "name": "Pearl Harbor Visitor Center Exhibit Galleries: Attack and Road to War", "category": "museum", "tags": ["museum", "wheelchair-accessible", "air-conditioned"], "sources": ["osm"], "stations": [{"stopCode": 9, "lines": "1", "name": "H\u0101lawa Station", "walkingMeters": 1099, "walkingSeconds": 793, "band": 15}]}, "geometry": {"type": "Point", "coordinates": [-157.9388458, 21.3666324]}}, {"type": "Feature", "properties": {"id": 165627408, "name": "Bowfin Park", "category": "park", "tags": ["park"], "sources": ["osm"], "website": "https://www.bowfin.org/", "stations": [{"stopCode": 9, "lines": "1", "name": "H\u0101lawa Station", "walkingMeters": 1079, "walkingSeconds": 778, "band": 10}]}, "geometry": {"type": "Point", "coordinates": [-157.9385322, 21.3685675]}}, {"type": "Feature", "properties": {"id": 1493825213, "name": "Navy Gateway Makalapa", "category": "hotel", "tags": ["hotel"], "sources": ["osm"]}, "geometry": {"type": "Point", "coordinates": [-157.9334811, 21.3614627]}}, {"type": "Feature", "properties": {"id": 1494501534, "name": "INDOPACOM Guest House", "category": "guest_house", "tags": ["guest-house"], "sources": ["osm"]}, "geometry": {"type": "Point", "coordinates": [-157.9356504, 21.3608343]}}, {"type": "Feature", "properties": {"id": 4485011732, "name": "USS Bowfin Giftshop", "category": "gift", "tags": ["gift", "air-conditioned"], "sources": ["osm"], "phone": "+1 808-824-3513", "stations": [{"stopCode": 9, "lines": "1", "name": "H\u0101lawa Station", "walkingMeters": 1079, "walkingSeconds": 778, "band": 15}]}, "geometry": {"type": "Point", "coordinates": [-157.938714, 21.3685299]}}, {"type": "Feature", "properties": {"id": 12985324112, "name": "Reuse Hawaii", "category": "doityourself", "tags": ["doityourself"], "sources": ["osm"], "stations": [{"stopCode": 9, "lines": "1", "name": "H\u0101lawa Station", "walkingMeters": 977, "walkingSeconds": 706, "band": 15}]}, "geometry": {"type": "Point", "coordinates": [-157.9301719, 21.3656303]}}, {"type": "Feature", "properties": {"id": 13688105760, "name": "MiniNEX", "category": "convenience", "tags": ["convenience"], "sources": ["osm"]}, "geometry": {"type": "Point", "coordinates": [-157.933062, 21.3616986]}}, {"type": "Feature", "properties": {"id": 451679474, "name": "Pearl Harbor Visitor Center Book Store", "category": "gift", "tags": ["gift"], "sources": ["osm"], "stations": [{"stopCode": 9, "lines": "1", "name": "H\u0101lawa Station", "walkingMeters": 1002, "walkingSeconds": 723, "band": 15}]}, "geometry": {"type": "Point", "coordinates": [-157.9386606, 21.3673269]}}, {"type": "Feature", "properties": {"id": 1493849457, "name": "Makalapa Fitness Center", "category": "fitness_centre", "tags": ["fitness-centre"], "sources": ["osm"]}, "geometry": {"type": "Point", "coordinates": [-157.9350015, 21.3609595]}}]}