{"type": "FeatureCollection", "features": [{"type": "Feature", "properties": {"id": 7799476402, "name": "Teapresso Bar", "category": "cafe", "tags": ["cafe", "bubble-tea", "takeaway"], "sources": ["osm"], "website": "https://www.teapressobar.com/", "phone": "+1 808 888 0671", "address": "4369 Lawehana Street"}, "geometry": {"type": "Point", "coordinates": [-157.927222, 21.3564619]}}, {"type": "Feature", "properties": {"id": 446748635, "name": "Aliamanu Neighboorhood Park", "category": "park", "tags": ["park"], "sources": ["osm"]}, "geometry": {"type": "Point", "coordinates": [-157.9251417, 21.3574032]}}, {"type": "Feature", "properties": {"id": 255019392, "name": "NEX Major Appliances", "category": "variety_store", "tags": ["variety-store"], "sources": ["osm"], "stations": [{"stopCode": 10, "lines": "1", "name": "Makalapa Station", "walkingMeters": 1017, "walkingSeconds": 735, "band": 15}]}, "geometry": {"type": "Point", "coordinates": [-157.9282653, 21.3503002]}}, {"type": "Feature", "properties": {"id": 827513811, "name": "Target", "category": "department_store", "tags": ["department-store"], "sources": ["osm"], "address": "4380 Lawehana Street", "stations": [{"stopCode": 10, "lines": "1", "name": "Makalapa Station", "walkingMeters": 987, "walkingSeconds": 712, "band": 15}]}, "geometry": {"type": "Point", "coordinates": [-157.9292738, 21.3552608]}}]}