{"type": "FeatureCollection", "features": [{"type": "Feature", "properties": {"id": 13646780656, "name": "Papa John's", "category": "fast_food", "tags": ["fast-food", "pizza", "takeaway"], "sources": ["osm"], "address": "2875 Paa Street"}, "geometry": {"type": "Point", "coordinates": [-157.8967597, 21.3453383]}}, {"type": "Feature", "properties": {"id": 4919220519, "name": "Hitachi Tree", "category": "attraction", "tags": ["attraction"], "sources": ["osm"]}, "geometry": {"type": "Point", "coordinates": [-157.8933217, 21.3470825]}}, {"type": "Feature", "properties": {"id": 463249246, "name": "Moanalua Community Park", "category": "park", "tags": ["park"], "sources": ["osm"], "address": "2900 Moanalua Road"}, "geometry": {"type": "Point", "coordinates": [-157.8939731, 21.3495027]}}, {"type": "Feature", "properties": {"id": 463249247, "name": "Moanalua Gardens", "category": "park", "tags": ["park"], "sources": ["osm"], "address": "2850-A Moanalua Road"}, "geometry": {"type": "Point", "coordinates": [-157.8921269, 21.3464731]}}, {"type": "Feature", "properties": {"id": 854645276, "name": "Texaco", "category": "convenience", "tags": ["convenience"], "sources": ["osm"]}, "geometry": {"type": "Point", "coordinates": [-157.8946658, 21.3444866]}}, {"type": "Feature", "properties": {"id": 240893338, "name": "The Home Depot", "category": "doityourself", "tags": ["doityourself"], "sources": ["osm"]}, "geometry": {"type": "Point", "coordinates": [-157.8957549, 21.3470067]}}, {"type": "Feature", "properties": {"id": 476771384, "name": "Kaiser Permanente Mapunapuna Medical Office", "category": "clinic", "tags": ["clinic"], "sources": ["osm"], "website": "https://healthy.kaiserpermanente.org/hawaii/facilities/Kaiser-Permanente-Mapunapuna-Medical-Office-100428", "phone": "+1 808 432 2000", "address": "2828 Paa Street"}, "geometry": {"type": "Point", "coordinates": [-157.8946719, 21.3457681]}}, {"type": "Feature", "properties": {"id": 493788015, "name": "Central Pacific Bank", "category": "bank", "tags": ["bank"], "sources": ["osm"], "address": "Mapunapuna Street"}, "geometry": {"type": "Point", "coordinates": [-157.8987362, 21.3443618]}}]}