{"type": "FeatureCollection", "features": [{"type": "Feature", "properties": {"id": 7718918762, "name": "Jack in the Box", "category": "fast_food", "tags": ["fast-food", "burger", "takeaway"], "sources": ["osm"], "website": "https://locations.jackinthebox.com/us/hi/honolulu/4510-salt-lake-blvd", "stations": [{"stopCode": 9, "lines": "1", "name": "H\u0101lawa Station", "walkingMeters": 1158, "walkingSeconds": 840, "band": 15}]}, "geometry": {"type": "Point", "coordinates": [-157.9274901, 21.3657205]}}, {"type": "Feature", "properties": {"id": 11161884260, "name": "Subway", "category": "fast_food", "tags": ["fast-food", "sandwich", "takeaway"], "sources": ["osm"], "website": "https://restaurants.subway.com/united-states/hi/honolulu/4510-salt-lake-blvd", "phone": "+1 808 487 7827", "stations": [{"stopCode": 9, "lines": "1", "name": "H\u0101lawa Station", "walkingMeters": 1162, "walkingSeconds": 843, "band": 15}]}, "geometry": {"type": "Point", "coordinates": [-157.9273035, 21.3654787]}}, {"type": "Feature", "properties": {"id": 7718918756, "name": "Taco Bell", "category": "fast_food", "tags": ["fast-food", "tex-mex", "takeaway", "drive-through"], "sources": ["osm"], "website": "https://locations.tacobell.com/hi/honolulu/4510-salt-lake-blvd.html", "stations": [{"stopCode": 9, "lines": "1", "name": "H\u0101lawa Station", "walkingMeters": 1158, "walkingSeconds": 840, "band": 15}]}, "geometry": {"type": "Point", "coordinates": [-157.9275915, 21.3659901]}}, {"type": "Feature", "properties": {"id": 7718918757, "name": "Pizza Hut Express", "category": "fast_food", "tags": ["fast-food", "pizza", "takeaway"], "sources": ["osm"], "website": "https://locations.pizzahut.com/hi/honolulu/4510-salt-lake-blvd", "stations": [{"stopCode": 9, "lines": "1", "name": "H\u0101lawa Station", "walkingMeters": 1191, "walkingSeconds": 864, "band": 15}]}, "geometry": {"type": "Point", "coordinates": [-157.9269692, 21.3656346]}}, {"type": "Feature", "properties": {"id": 11161884274, "name": "Mark\u2019s Drive Inn", "category": "fast_food", "tags": ["fast-food"], "sources": ["osm"], "phone": "+1 808 488 6796", "stations": [{"stopCode": 9, "lines": "1", "name": "H\u0101lawa Station", "walkingMeters": 1102, "walkingSeconds": 799, "band": 15}]}, "geometry": {"type": "Point", "coordinates": [-157.9277484, 21.3655749]}}, {"type": "Feature", "properties": {"id": 11161884279, "name": "Jamba Juice", "category": "fast_food", "tags": ["fast-food", "juice", "takeaway"], "sources": ["osm"], "hours": "Mo-Th 08:00-19:00; Fr-Sa 08:00-21:00; Su 09:00-20:00", "stations": [{"stopCode": 9, "lines": "1", "name": "H\u0101lawa Station", "walkingMeters": 1195, "walkingSeconds": 866, "band": 15}]}, "geometry": {"type": "Point", "coordinates": [-157.9269596, 21.3657612]}}, {"type": "Feature", "properties": {"id": 583590700, "name": "Oahu Veterans Center Park", "category": "park", "tags": ["park"], "sources": ["osm"]}, "geometry": {"type": "Point", "coordinates": [-157.9248965, 21.3611888]}}, {"type": "Feature", "properties": {"id": 657532066, "name": "Crosspointe Community Park", "category": "park", "tags": ["park"], "sources": ["osm"]}, "geometry": {"type": "Point", "coordinates": [-157.9227106, 21.3693681]}}, {"type": "Feature", "properties": {"id": 12985324114, "name": "Texaco", "category": "convenience", "tags": ["convenience"], "sources": ["osm"], "stations": [{"stopCode": 9, "lines": "1", "name": "H\u0101lawa Station", "walkingMeters": 1094, "walkingSeconds": 790, "band": 15}]}, "geometry": {"type": "Point", "coordinates": [-157.9294278, 21.3646792]}}]}