{"type": "FeatureCollection", "features": [{"type": "Feature", "properties": {"id": 468564691, "name": "Aiea Park Place Dog Park", "category": "park", "tags": ["park"], "sources": ["osm"]}, "geometry": {"type": "Point", "coordinates": [-157.918974, 21.3828538]}}, {"type": "Feature", "properties": {"id": 468564692, "name": "Aiea Park Place Recreation Center", "category": "park", "tags": ["park"], "sources": ["osm"]}, "geometry": {"type": "Point", "coordinates": [-157.9167847, 21.3855602]}}, {"type": "Feature", "properties": {"id": 1291609065, "name": "Halawa Market", "category": "supermarket", "tags": ["supermarket"], "sources": ["osm"]}, "geometry": {"type": "Point", "coordinates": [-157.9144695, 21.3801294]}}]}