{"type": "FeatureCollection", "features": [{"type": "Feature", "properties": {"id": 1741242805, "name": "Shakey's", "category": "restaurant", "tags": ["restaurant", "pizza"], "sources": ["osm"], "stations": [{"stopCode": 4, "lines": "1", "name": "H\u014d\u02bbae\u02bbae Station", "walkingMeters": 543, "walkingSeconds": 393, "band": 5}]}, "geometry": {"type": "Point", "coordinates": [-158.024504, 21.3778008]}}, {"type": "Feature", "properties": {"id": 8424480807, "name": "Starbucks", "category": "cafe", "tags": ["cafe", "coffee-shop", "takeaway", "drive-through"], "sources": ["osm"], "website": "https://www.starbucks.com/store-locator/store/1021348/waipahu-farrington-hwy-kuni-94-050-farrington-hwy-e-1-3-waipahu-hi-967971842-u", "stations": [{"stopCode": 4, "lines": "1", "name": "H\u014d\u02bbae\u02bbae Station", "walkingMeters": 648, "walkingSeconds": 468, "band": 5}]}, "geometry": {"type": "Point", "coordinates": [-158.0258605, 21.3774187]}}, {"type": "Feature", "properties": {"id": 1235876579, "name": "Taco Bell", "category": "fast_food", "tags": ["fast-food", "tex-mex", "takeaway", "drive-through"], "sources": ["osm"], "website": "https://locations.tacobell.com/hi/waipahu/94-050-farrington-hwy.html", "phone": "+1 808-677-3500", "address": "94-050 Farrington Highway", "hours": "Mo-Su 07:00-21:00", "stations": [{"stopCode": 4, "lines": "1", "name": "H\u014d\u02bbae\u02bbae Station", "walkingMeters": 698, "walkingSeconds": 505, "band": 10}]}, "geometry": {"type": "Point", "coordinates": [-158.0261744, 21.3770772]}}, {"type": "Feature", "properties": {"id": 907233068, "name": "McDonald's", "category": "fast_food", "tags": ["fast-food", "burger", "takeaway", "drive-through"], "sources": ["osm"], "website": "https://www.mcdonalds.com/us/en-us/location/hi/waipahu/94-212-leoku-st/22427.html", "phone": "+1 808-671-0881", "address": "94-212 Leoku Street", "hours": "Mo-Su 07:00-21:00", "stations": [{"stopCode": 4, "lines": "1", "name": "H\u014d\u02bbae\u02bbae Station", "walkingMeters": 436, "walkingSeconds": 314, "band": 5}]}, "geometry": {"type": "Point", "coordinates": [-158.0241327, 21.3784135]}}, {"type": "Feature", "properties": {"id": 12363511543, "name": "Popeyes", "category": "fast_food", "tags": ["fast-food", "chicken", "takeaway", "drive-through"], "sources": ["osm"], "website": "https://popeyeshawaii.com/", "phone": "+1 808-678-3550", "address": "94-050 Farrington Highway", "hours": "Mo-Su 10:00-23:00", "stations": [{"stopCode": 4, "lines": "1", "name": "H\u014d\u02bbae\u02bbae Station", "walkingMeters": 670, "walkingSeconds": 484, "band": 5}]}, "geometry": {"type": "Point", "coordinates": [-158.0259912, 21.3769923]}}, {"type": "Feature", "properties": {"id": 13900126801, "name": "Domino's Pizza", "category": "fast_food", "tags": ["fast-food", "pizza"], "sources": ["osm"], "website": "https://dominos.com/", "phone": "+1-808-379-0396", "address": "94-050 Farrington Highway", "hours": "Mo-Fr 10:00-23:00; Sa-Su 10:00-00:00", "stations": [{"stopCode": 4, "lines": "1", "name": "H\u014d\u02bbae\u02bbae Station", "walkingMeters": 628, "walkingSeconds": 455, "band": 5}]}, "geometry": {"type": "Point", "coordinates": [-158.0256997, 21.3771912]}}, {"type": "Feature", "properties": {"id": 907233067, "name": "Zippy's", "category": "fast_food", "tags": ["fast-food", "hawaiian", "japanese", "chinese", "american", "takeaway"], "sources": ["osm"], "website": "https://www.zippys.com/locations/waipahu/", "phone": "+1 808-671-4065", "address": "94-180 Farrington Highway", "hours": "Mo-Su 06:00-24:00", "stations": [{"stopCode": 4, "lines": "1", "name": "H\u014d\u02bbae\u02bbae Station", "walkingMeters": 547, "walkingSeconds": 394, "band": 5}]}, "geometry": {"type": "Point", "coordinates": [-158.0215738, 21.3792125]}}, {"type": "Feature", "properties": {"id": 1741242465, "name": "AT&T", "category": "mobile_phone", "tags": ["mobile-phone"], "sources": ["osm"], "website": "https://www.att.com/stores/hawaii/waipahu/826", "address": "94-050 Farrington Highway", "hours": "Mo-Fr 09:00-20:00; Sa 09:00-19:00; Su 09:00-17:00", "stations": [{"stopCode": 4, "lines": "1", "name": "H\u014d\u02bbae\u02bbae Station", "walkingMeters": 587, "walkingSeconds": 423, "band": 5}]}, "geometry": {"type": "Point", "coordinates": [-158.0249126, 21.3787099]}}, {"type": "Feature", "properties": {"id": 4196016689, "name": "Seafood City", "category": "supermarket", "tags": ["supermarket", "asian"], "sources": ["osm"], "website": "https://shopwaipahu.seafoodcity.com/", "phone": "+1 808-675-2350", "address": "94-050 Farrington Highway", "hours": "Mo-Su 08:00-21:00", "stations": [{"stopCode": 4, "lines": "1", "name": "H\u014d\u02bbae\u02bbae Station", "walkingMeters": 674, "walkingSeconds": 488, "band": 10}]}, "geometry": {"type": "Point", "coordinates": [-158.0260802, 21.3781266]}}, {"type": "Feature", "properties": {"id": 4195983993, "name": "Longs Drugs", "category": "pharmacy", "tags": ["pharmacy"], "sources": ["osm"], "website": "https://www.cvs.com/store-locator/waipahu-hi-pharmacies/94-060-farrington-highway-6-waipahu-hi-96797/storeid=9259", "address": "94-060 Farrington Highway", "hours": "24/7", "stations": [{"stopCode": 4, "lines": "1", "name": "H\u014d\u02bbae\u02bbae Station", "walkingMeters": 546, "walkingSeconds": 395, "band": 5}]}, "geometry": {"type": "Point", "coordinates": [-158.0248361, 21.3780239]}}, {"type": "Feature", "properties": {"id": 7731643307, "name": "5 Minute Pharmacy, LLC", "category": "pharmacy", "tags": ["pharmacy"], "sources": ["osm"], "address": "94-216 Farrington Highway", "stations": [{"stopCode": 4, "lines": "1", "name": "H\u014d\u02bbae\u02bbae Station", "walkingMeters": 692, "walkingSeconds": 499, "band": 5}]}, "geometry": {"type": "Point", "coordinates": [-158.0205692, 21.3799185]}}, {"type": "Feature", "properties": {"id": 449586843, "name": "The Queen's Medical Center - West Oahu", "category": "hospital", "tags": ["hospital", "emergency"], "sources": ["osm"], "website": "https://www.queens.org/locations/hospitals/qmc-west-oahu/", "phone": "+1 808 691 3000", "address": "91-2141 Fort Weaver Road"}, "geometry": {"type": "Point", "coordinates": [-158.0274226, 21.3720926]}}, {"type": "Feature", "properties": {"id": 12363511563, "name": "American Savings Bank", "category": "bank", "tags": ["bank"], "sources": ["osm"], "website": "https://www.asbhawaii.com/locations/oahu/waipahu", "address": "94-060 Farrington Highway", "hours": "Mo-Th 09:00-17:00; Fr 09:00-18:00; Sa,Su 09:00-13:00", "stations": [{"stopCode": 4, "lines": "1", "name": "H\u014d\u02bbae\u02bbae Station", "walkingMeters": 516, "walkingSeconds": 374, "band": 5}]}, "geometry": {"type": "Point", "coordinates": [-158.0246434, 21.3777097]}}, {"type": "Feature", "properties": {"id": 452971144, "name": "Hawaiian First Bank", "category": "bank", "tags": ["bank"], "sources": ["osm"], "website": "https://locations.fhb.com/hi-island-first-hawaiian-bank-waipahu-branch-59", "phone": "+1 808-671-3971", "address": "94-205 Leoku Street", "hours": "Mo-Fr 08:30-16:00; Sa 09:00-13:00", "stations": [{"stopCode": 4, "lines": "1", "name": "H\u014d\u02bbae\u02bbae Station", "walkingMeters": 350, "walkingSeconds": 252, "band": 5}]}, "geometry": {"type": "Point", "coordinates": [-158.0231817, 21.3782703]}}]}