{"type": "FeatureCollection", "features": [{"type": "Feature", "properties": {"id": 12152245941, "name": "Panda Express", "category": "fast_food", "tags": ["fast-food", "chinese", "takeaway"], "sources": ["osm"], "website": "https://www.pandaexpress.com/locations/hi/waipahu/2435", "phone": "+1 808-676-8899", "address": "94-799 Lumiaina Street", "hours": "Mo-Su 09:00-22:00; Fr,Sa 09:00-21:30"}, "geometry": {"type": "Point", "coordinates": [-158.0087326, 21.4005298]}}, {"type": "Feature", "properties": {"id": 12152245939, "name": "Subway", "category": "fast_food", "tags": ["fast-food", "sandwich", "takeaway"], "sources": ["osm"], "website": "https://restaurants.subway.com/united-states/hi/waipahu/94-799-lumiaina-st", "phone": "+1 808-676-7879", "address": "94-799 Lumiaina Street", "hours": "Mo-Su 09:00-22:00"}, "geometry": {"type": "Point", "coordinates": [-158.0085965, 21.4005048]}}, {"type": "Feature", "properties": {"id": 5813590954, "name": "Aloha Coffee & Juice Co", "category": "fast_food", "tags": ["fast-food", "juice"], "sources": ["osm"]}, "geometry": {"type": "Point", "coordinates": [-158.006644, 21.4024981]}}, {"type": "Feature", "properties": {"id": 5813602255, "name": "Kung Pao Wok", "category": "fast_food", "tags": ["fast-food", "chinese"], "sources": ["osm"], "address": "605 Lumiaina St"}, "geometry": {"type": "Point", "coordinates": [-158.0067176, 21.4025176]}}, {"type": "Feature", "properties": {"id": 829593664, "name": "McDonald's", "category": "fast_food", "tags": ["fast-food", "burger", "takeaway", "drive-through"], "sources": ["osm"], "website": "https://www.mcdonalds.com/us/en-us/location/hi/waipahu/94-795-lumiaina-st/12659.html", "phone": "+1 808-676-5966", "address": "94-795 Lumiaina Street", "hours": "24/7"}, "geometry": {"type": "Point", "coordinates": [-158.0075928, 21.4002918]}}, {"type": "Feature", "properties": {"id": 12152245938, "name": "Genki Sushi", "category": "restaurant", "tags": ["restaurant", "sushi"], "sources": ["osm"], "website": "https://www.genkisushiusa.com/", "phone": "+1 808-678-3180", "address": "94-799 Lumiaina Street", "hours": "Mo-Su 11:00-21:00; Fr,Sa 11:00-22:00"}, "geometry": {"type": "Point", "coordinates": [-158.0084603, 21.4004567]}}, {"type": "Feature", "properties": {"id": 12152245940, "name": "Baskin-Robbins", "category": "ice_cream", "tags": ["ice-cream"], "sources": ["osm"], "website": "https://locations.baskinrobbins.com/hi/waipahu/94-799-lumiaina-st-362029-br", "phone": "+1 808-676-6047", "address": "94-799 Lumiaina Street", "hours": "Mo-Su 10:00-22:00; Fr,Sa 10:00-22:30"}, "geometry": {"type": "Point", "coordinates": [-158.0086655, 21.4005154]}}, {"type": "Feature", "properties": {"id": 134605855, "name": "Chili's", "category": "restaurant", "tags": ["restaurant", "tex-mex"], "sources": ["osm"], "website": "https://www.chilis.com/locations/us/hawaii/waipahu/waikele/", "phone": "+1 808-677-7775", "address": "94-797 Lumiaina Street", "hours": "Mo-Su 11:00-22:00; Fr,Sa 11:00-23:00"}, "geometry": {"type": "Point", "coordinates": [-158.0082101, 21.4000881]}}, {"type": "Feature", "properties": {"id": 1479789735, "name": "Saks Off 5th", "category": "department_store", "tags": ["department-store"], "sources": ["osm"], "website": "https://www.saksoff5th.com/", "phone": "+1 808-676-1773", "address": "94-800 Lumiaina Street", "hours": "Mo-Th 10:00-19:00; Fr,Sa 10:00-20:00; Su 11:00-18:00"}, "geometry": {"type": "Point", "coordinates": [-158.0064653, 21.4033399]}}, {"type": "Feature", "properties": {"id": 5813602253, "name": "Guess", "category": "clothes", "tags": ["clothes"], "sources": ["osm"]}, "geometry": {"type": "Point", "coordinates": [-158.006529, 21.4024467]}}, {"type": "Feature", "properties": {"id": 5813602254, "name": "Tory Burch", "category": "clothes", "tags": ["clothes"], "sources": ["osm"], "address": "406 Lumiaina St"}, "geometry": {"type": "Point", "coordinates": [-158.006491, 21.4023805]}}, {"type": "Feature", "properties": {"id": 12121557544, "name": "Zales Outlet", "category": "jewelry", "tags": ["jewelry"], "sources": ["osm"], "website": "https://www.zales.com/", "phone": "+1 808-677-7188", "address": "94-790 Lumiaina Street", "hours": "Mo-Th 10:00-19:00; Fr,Sa 10:00-20:00; Su 11:00-18:00"}, "geometry": {"type": "Point", "coordinates": [-158.0074619, 21.4018833]}}, {"type": "Feature", "properties": {"id": 12121557545, "name": "Vans Outlet", "category": "shoes", "tags": ["shoes"], "sources": ["osm"], "website": "https://www.vans.com/en-us/stores/hi/waipahu/USA65", "phone": "+1 808-676-7169", "address": "94-790 Lumiaina Street", "hours": "Mo-Sa 11:00-19:00; Su 12:00-18:00"}, "geometry": {"type": "Point", "coordinates": [-158.0074753, 21.4018265]}}, {"type": "Feature", "properties": {"id": 12121557547, "name": "Tommy Hilfiger", "category": "clothes", "tags": ["clothes"], "sources": ["osm"], "website": "https://stores.tommy.com/hi/waipahu/83/", "phone": "+1 808-677-5402", "address": "94-790 Lumiaina Street", "hours": "Mo-Th 10:00-19:00; Fr,Sa 10:00-20:00; Su 11:00-18:00"}, "geometry": {"type": "Point", "coordinates": [-158.0075544, 21.4016429]}}, {"type": "Feature", "properties": {"id": 12121557548, "name": "Tommy Bahama", "category": "clothes", "tags": ["clothes"], "sources": ["osm"], "website": "https://www.tommybahama.com/store/Waipahu%20(Outlet)", "phone": "+1 808-686-9030", "address": "94-790 Lumiaina Street", "hours": "Mo-Th 10:00-19:00; Fr,Sa 10:00-20:00; Su 11:00-18:00"}, "geometry": {"type": "Point", "coordinates": [-158.0076255, 21.4014881]}}, {"type": "Feature", "properties": {"id": 12121557550, "name": "Zumiez", "category": "clothes", "tags": ["clothes"], "sources": ["osm"], "phone": "+1 808-678-2103", "address": "94-790 Lumiaina Street", "hours": "Mo-Th 10:00-19:00; Fr,Sa 10:00-20:00; Su 11:00-18:00"}, "geometry": {"type": "Point", "coordinates": [-158.0076858, 21.4012296]}}, {"type": "Feature", "properties": {"id": 12121557551, "name": "Michael Kors", "category": "clothes", "tags": ["clothes"], "sources": ["osm"], "website": "https://locations.michaelkors.com/us/hi/waipahu/94-790-lumiaina-st", "phone": "+1 808-680-7435", "address": "94-790 Lumiaina Street", "hours": "Mo-Th 10:00-19:00; Fr,Sa 10:00-20:00; Su 11:00-18:00"}, "geometry": {"type": "Point", "coordinates": [-158.0073385, 21.4010585]}}, {"type": "Feature", "properties": {"id": 12121557552, "name": "Levi's", "category": "clothes", "tags": ["clothes"], "sources": ["osm"], "website": "https://locations.levi.com/en-us/hi/waipahu/denim_waipahu_hi_400.html", "phone": "+1 808-676-7660", "address": "94-792 Lumiaina Street", "hours": "Mo-Th 10:00-19:00; Fr,Sa 10:00-20:00; Su 11:00-18:00"}, "geometry": {"type": "Point", "coordinates": [-158.006676, 21.4008762]}}, {"type": "Feature", "properties": {"id": 12121557553, "name": "Polo Ralph Lauren", "category": "clothes", "tags": ["clothes"], "sources": ["osm"], "website": "https://www.ralphlauren.com/locations/US/Waipahu/227", "phone": "+1 808-671-4401", "address": "94-792 Lumiaina Street", "hours": "Mo-Th 10:00-19:00; Fr,Sa 10:00-20:00; Su 11:00-18:00"}, "geometry": {"type": "Point", "coordinates": [-158.0065365, 21.4009]}}, {"type": "Feature", "properties": {"id": 12121557554, "name": "Carter's", "category": "clothes", "tags": ["clothes"], "sources": ["osm"], "website": "https://locations.carters.com/hi/waipahu/carters-waipahu-hi", "phone": "+1 808-678-9287", "address": "94-792 Lumiaina Street", "hours": "Mo-Th 10:00-19:00; Fr,Sa 10:00-20:00; Su 11:00-18:00"}, "geometry": {"type": "Point", "coordinates": [-158.0064279, 21.4009774]}}, {"type": "Feature", "properties": {"id": 12121557555, "name": "Crocs", "category": "shoes", "tags": ["shoes"], "sources": ["osm"], "website": "https://locations.crocs.com/shop/HI-Waipahu-10000285", "phone": "+1 808-677-2762", "address": "94-792 Lumiaina Street", "hours": "Mo-Th 10:00-19:00; Fr,Sa 10:00-20:00; Su 11:00-18:00"}, "geometry": {"type": "Point", "coordinates": [-158.0063783, 21.4010885]}}, {"type": "Feature", "properties": {"id": 12121557556, "name": "Clarks Outlet", "category": "shoes", "tags": ["shoes"], "sources": ["osm"], "website": "https://www.clarks.com/en-us/store-locator/UnitedStates/WAIPAHU/A867", "phone": "+1 808-678-3482", "address": "94-792 Lumiaina Street", "hours": "Mo-Th 10:00-19:00; Fr,Sa 10:00-20:00; Su 11:00-18:00"}, "geometry": {"type": "Point", "coordinates": [-158.0063541, 21.4011922]}}, {"type": "Feature", "properties": {"id": 12121557558, "name": "OshKosh B'gosh", "category": "clothes", "tags": ["clothes"], "sources": ["osm"], "website": "https://locations.oshkosh.com/hi/waipahu/", "phone": "+1 808-678-2773", "address": "94-792 Lumiaina Street", "hours": "Mo-Th 10:00-19:00; Fr,Sa 10:00-20:00; Su 11:00-18:00"}, "geometry": {"type": "Point", "coordinates": [-158.0063226, 21.4013907]}}, {"type": "Feature", "properties": {"id": 12121557559, "name": "Skechers", "category": "shoes", "tags": ["shoes"], "sources": ["osm"], "website": "https://local.skechers.com/HI/WAIPAHU/28/", "phone": "+1 808-680-9711", "address": "94-792 Lumiaina Street", "hours": "Mo-Th 10:00-19:00; Fr,Sa 10:00-20:00; Su 11:00-18:00"}, "geometry": {"type": "Point", "coordinates": [-158.0062629, 21.4016279]}}, {"type": "Feature", "properties": {"id": 12121557560, "name": "Calvin Klein", "category": "clothes", "tags": ["clothes"], "sources": ["osm"], "website": "https://stores.calvinklein.us/hi/waipahu/25/", "phone": "+1 808-677-2934", "address": "94-798 Lumiaina Street", "hours": "Mo-Th 10:00-19:00; Fr,Sa 10:00-20:00; Su 11:00-18:00"}, "geometry": {"type": "Point", "coordinates": [-158.0065177, 21.4019463]}}, {"type": "Feature", "properties": {"id": 12121557561, "name": "Adidas Outlet Store", "category": "sports", "tags": ["sports"], "sources": ["osm"], "website": "https://www.adidas.com/us", "phone": "+1 808-677-2702", "address": "94-790 Lumiaina Street", "hours": "Mo-Th 10:00-19:00; Fr,Sa 10:00-20:00; Su 11:00-18:00"}, "geometry": {"type": "Point", "coordinates": [-158.0067793, 21.4029477]}}, {"type": "Feature", "properties": {"id": 12152245937, "name": "Local Motion", "category": "clothes", "tags": ["clothes"], "sources": ["osm"], "website": "https://www.localmotionhawaii.com/", "phone": "+1 808-668-7873", "address": "94-799 Lumiaina Street", "hours": "Mo-Sa 11:00-20:00; Su 11:00-18:00"}, "geometry": {"type": "Point", "coordinates": [-158.0090705, 21.4004224]}}, {"type": "Feature", "properties": {"id": 1312885704, "name": "UFC Gym", "category": "fitness_centre", "tags": ["fitness-centre"], "sources": ["osm"], "website": "https://www.ufcgym.com/locations/waikele", "phone": "+1 808-400-6742", "hours": "Mo 04:00-24:00; Tu-Th 00:00-24:00; Fr 00:00-23:00; Sa,Su 06:00-19:00"}, "geometry": {"type": "Point", "coordinates": [-158.0023756, 21.4002454]}}]}