{"type": "FeatureCollection", "features": [{"type": "Feature", "properties": {"id": 938640835, "name": "Jack in the Box", "category": "fast_food", "tags": ["fast-food", "burger", "takeaway"], "sources": ["osm"], "website": "https://locations.jackinthebox.com/us/hi/waipahu/94-866-moloalo-ave", "phone": "+1 808-671-0033", "address": "94-866 Moloalo Street", "hours": "Mo-Su 06:00-22:00", "stations": [{"stopCode": 5, "lines": "1", "name": "Pouhala Station", "walkingMeters": 320, "walkingSeconds": 231, "band": 5}]}, "geometry": {"type": "Point", "coordinates": [-158.0028223, 21.3847527]}}, {"type": "Feature", "properties": {"id": 5844575486, "name": "Sato\u2019s Okamiya", "category": "restaurant", "tags": ["restaurant", "regional"], "sources": ["osm"], "phone": "+1-808-677-5503", "address": "94-235 Hanawai Circle", "hours": "Tu-Sa 07:30-12:00", "stations": [{"stopCode": 5, "lines": "1", "name": "Pouhala Station", "walkingMeters": 570, "walkingSeconds": 413, "band": 5}]}, "geometry": {"type": "Point", "coordinates": [-158.007554, 21.3841543]}}, {"type": "Feature", "properties": {"id": 6202575086, "name": "Honolulu Kitchen", "category": "restaurant", "tags": ["restaurant", "chinese"], "sources": ["osm"], "website": "https://www.honolulukitchen.net/", "phone": "+1-808-671-5241", "address": "94-861 Farrington Highway", "stations": [{"stopCode": 5, "lines": "1", "name": "Pouhala Station", "walkingMeters": 251, "walkingSeconds": 181, "band": 5}]}, "geometry": {"type": "Point", "coordinates": [-158.0025168, 21.383883]}}, {"type": "Feature", "properties": {"id": 12245063832, "name": "Papa John's", "category": "fast_food", "tags": ["fast-food", "pizza", "takeaway"], "sources": ["osm"], "website": "https://locations.papajohns.com/united-states/hi/96797/waipahu/94-1021-waipahu-st", "phone": "+1 808-677-7272", "address": "94-1021 Waipahu Street", "hours": "Mo-Su 09:30-23:00; Fr,Sa 09:30-24:00", "stations": [{"stopCode": 5, "lines": "1", "name": "Pouhala Station", "walkingMeters": 848, "walkingSeconds": 614, "band": 10}]}, "geometry": {"type": "Point", "coordinates": [-158.0043773, 21.3889251]}}, {"type": "Feature", "properties": {"id": 12282948873, "name": "Highway Inn", "category": "restaurant", "tags": ["restaurant", "hawaiian"], "sources": ["osm"], "website": "https://www.myhighwayinn.com/location-waipahu/", "phone": "+1 808-677-4345", "address": "94-830 Moloalo Street", "hours": "Mo-Th 09:30-15:00,18:00-20:00; Fr 09:30-20:30; Sa 09:00-20:30; Su 09:00-15:00", "stations": [{"stopCode": 5, "lines": "1", "name": "Pouhala Station", "walkingMeters": 335, "walkingSeconds": 246, "band": 5}]}, "geometry": {"type": "Point", "coordinates": [-158.0036652, 21.3847505]}}, {"type": "Feature", "properties": {"id": 12287391504, "name": "Da Ultimate Grindz HI", "category": "restaurant", "tags": ["restaurant"], "sources": ["osm"], "stations": [{"stopCode": 5, "lines": "1", "name": "Pouhala Station", "walkingMeters": 447, "walkingSeconds": 322, "band": 5}]}, "geometry": {"type": "Point", "coordinates": [-158.0067444, 21.3841645]}}, {"type": "Feature", "properties": {"id": 938640830, "name": "Tanioka's Seafoods & Catering", "category": "fast_food", "tags": ["fast-food", "seafood", "poke", "takeaway"], "sources": ["osm"], "website": "https://www.taniokas.com", "phone": "+1 808-671-3779", "address": "94-903 Farrington Highway", "hours": "We-Su 09:00-14:00; Mo-Tu off", "stations": [{"stopCode": 5, "lines": "1", "name": "Pouhala Station", "walkingMeters": 423, "walkingSeconds": 305, "band": 5}]}, "geometry": {"type": "Point", "coordinates": [-158.0011517, 21.3841625]}}, {"type": "Feature", "properties": {"id": 938640844, "name": "Arby's", "category": "fast_food", "tags": ["fast-food", "sandwich", "takeaway", "drive-through"], "sources": ["osm"], "website": "https://www.arbys.com/locations/us/hi/waipahu/94-866-moloalo-st/store-5986/", "phone": "+1 808-677-5342", "address": "94-866 Moloalo Street", "hours": "Mo-Su 09:00-23:00", "stations": [{"stopCode": 5, "lines": "1", "name": "Pouhala Station", "walkingMeters": 332, "walkingSeconds": 239, "band": 5}]}, "geometry": {"type": "Point", "coordinates": [-158.0023943, 21.3848265]}}, {"type": "Feature", "properties": {"id": 7731735649, "name": "Times Supermarkets", "category": "supermarket", "tags": ["supermarket", "pharmacy"], "sources": ["osm"], "website": "https://www.timessupermarkets.com/store/waipahu-times", "phone": "+1 808-671-0502", "address": "94-766 Farrington Highway", "hours": "Mo-Su 06:00-23:00", "stations": [{"stopCode": 5, "lines": "1", "name": "Pouhala Station", "walkingMeters": 417, "walkingSeconds": 301, "band": 5}]}, "geometry": {"type": "Point", "coordinates": [-158.0055883, 21.3843683]}}, {"type": "Feature", "properties": {"id": 1327660815, "name": "Aloha Island Mart", "category": "convenience", "tags": ["convenience"], "sources": ["osm"], "stations": [{"stopCode": 5, "lines": "1", "name": "Pouhala Station", "walkingMeters": 378, "walkingSeconds": 272, "band": 5}]}, "geometry": {"type": "Point", "coordinates": [-158.0048028, 21.3844663]}}, {"type": "Feature", "properties": {"id": 8695592033, "name": "Waipahu Market", "category": "supermarket", "tags": ["supermarket"], "sources": ["osm"], "stations": [{"stopCode": 5, "lines": "1", "name": "Pouhala Station", "walkingMeters": 264, "walkingSeconds": 190, "band": 5}]}, "geometry": {"type": "Point", "coordinates": [-158.0023996, 21.3839042]}}, {"type": "Feature", "properties": {"id": 8695592034, "name": "Tammy's Polynesian Market", "category": "supermarket", "tags": ["supermarket"], "sources": ["osm"], "stations": [{"stopCode": 5, "lines": "1", "name": "Pouhala Station", "walkingMeters": 179, "walkingSeconds": 129, "band": 5}]}, "geometry": {"type": "Point", "coordinates": [-158.0030264, 21.3840225]}}, {"type": "Feature", "properties": {"id": 12245686364, "name": "Boost Mobile", "category": "mobile_phone", "tags": ["mobile-phone"], "sources": ["osm"], "website": "https://www.boostmobile.com/locations/bd/boost-mobile-hi-waipahu-94-866-moloalo-st-ste-34-d1c-96797/", "phone": "+1 808-671-1177", "address": "94-866 Moloalo Street", "hours": "Mo-Sa 10:00-19:00; Su 10:00-18:00", "stations": [{"stopCode": 5, "lines": "1", "name": "Pouhala Station", "walkingMeters": 337, "walkingSeconds": 243, "band": 5}]}, "geometry": {"type": "Point", "coordinates": [-158.0027492, 21.3852063]}}, {"type": "Feature", "properties": {"id": 12287391460, "name": "Waipahu Florist", "category": "florist", "tags": ["florist"], "sources": ["osm"], "website": "https://www.waipahufloristhi.com/", "phone": "+1 808-677-3900", "address": "94-354 Hanawai Circle", "hours": "Mo-Fr 08:00-17:30; Sa 09:00-17:30", "stations": [{"stopCode": 5, "lines": "1", "name": "Pouhala Station", "walkingMeters": 524, "walkingSeconds": 379, "band": 5}]}, "geometry": {"type": "Point", "coordinates": [-158.0075222, 21.3840774]}}, {"type": "Feature", "properties": {"id": 1323288714, "name": "Shell", "category": "convenience", "tags": ["convenience"], "sources": ["osm"], "website": "https://find.shell.com/us/fuel/10010241-94-1037-waipahu-st", "phone": "+1 808-677-3351", "address": "94-1037 Waipahu Street", "hours": "24/7", "stations": [{"stopCode": 5, "lines": "1", "name": "Pouhala Station", "walkingMeters": 891, "walkingSeconds": 645, "band": 10}]}, "geometry": {"type": "Point", "coordinates": [-158.0044037, 21.3893665]}}, {"type": "Feature", "properties": {"id": 938640831, "name": "7-Eleven", "category": "convenience", "tags": ["convenience"], "sources": ["osm"], "website": "https://www.7elevenhawaii.com/location/the-waipahu-i-store", "address": "94-911 Farrington Highway", "hours": "24/7", "stations": [{"stopCode": 5, "lines": "1", "name": "Pouhala Station", "walkingMeters": 448, "walkingSeconds": 323, "band": 5}]}, "geometry": {"type": "Point", "coordinates": [-158.0009788, 21.3842229]}}, {"type": "Feature", "properties": {"id": 1328060931, "name": "Bank of Hawaii", "category": "bank", "tags": ["bank"], "sources": ["osm"], "website": "https://www.boh.com/", "phone": "+1 808-671-1731", "address": "94-712 Farrington Highway", "hours": "Mo-Fr 08:00-16:00; Sa 09:00-13:00", "stations": [{"stopCode": 5, "lines": "1", "name": "Pouhala Station", "walkingMeters": 449, "walkingSeconds": 325, "band": 5}]}, "geometry": {"type": "Point", "coordinates": [-158.0069772, 21.3838397]}}, {"type": "Feature", "properties": {"id": 12282948874, "name": "The UPS Store", "category": "post_office", "tags": ["post-office"], "sources": ["osm"], "website": "https://locations.theupsstore.com/hi/waipahu/94-830-moloalo-st", "phone": "+1 808-501-2209", "address": "94-830 Moloalo Street", "hours": "Mo-Fr 08:00-18:00; Sa,Su 08:30-15:00", "stations": [{"stopCode": 5, "lines": "1", "name": "Pouhala Station", "walkingMeters": 328, "walkingSeconds": 240, "band": 5}]}, "geometry": {"type": "Point", "coordinates": [-158.0035888, 21.3847642]}}, {"type": "Feature", "properties": {"id": 844656420, "name": "Waipahu Public Library", "category": "library", "tags": ["library", "wifi"], "sources": ["osm"], "website": "https://www.librarieshawaii.org/branch/waipahu-public-library/", "phone": "+1 808-675-0358", "address": "94-275 Mokuola Street", "hours": "Tu,Sa 09:00-16:00; We,Th 11:00-18:00; Fr 11:00-16:00", "stations": [{"stopCode": 5, "lines": "1", "name": "Pouhala Station", "walkingMeters": 419, "walkingSeconds": 302, "band": 5}]}, "geometry": {"type": "Point", "coordinates": [-158.0029138, 21.3858764]}}, {"type": "Feature", "properties": {"id": 178753196, "name": "Hans L'Orange Park", "category": "sports_centre", "tags": ["sports-centre", "baseball"], "sources": ["osm"], "address": "94-1024 Waipahu Street", "stations": [{"stopCode": 5, "lines": "1", "name": "Pouhala Station", "walkingMeters": 922, "walkingSeconds": 668, "band": 10}]}, "geometry": {"type": "Point", "coordinates": [-158.0058545, 21.3886658]}}]}