{"type": "FeatureCollection", "features": [{"type": "Feature", "properties": {"id": 162044619, "name": "Crestview Community Park", "category": "park", "tags": ["park"], "sources": ["osm"], "address": "94-1220 Lumikula Street"}, "geometry": {"type": "Point", "coordinates": [-157.994938, 21.4095833]}}, {"type": "Feature", "properties": {"id": 178755967, "name": "Mitsuo \"Mits\" Shito Waikele Neighborhood Park", "category": "park", "tags": ["park"], "sources": ["osm"], "address": "94-930 Lumiauau Street"}, "geometry": {"type": "Point", "coordinates": [-157.9966357, 21.4021645]}}]}