{"type": "FeatureCollection", "features": [{"type": "Feature", "properties": {"id": 479826617, "name": "Royal Kunia Park and Rec Center", "category": "park", "tags": ["park"], "sources": ["osm"]}, "geometry": {"type": "Point", "coordinates": [-158.0286494, 21.4076456]}}, {"type": "Feature", "properties": {"id": 1003266563, "name": "Recreation Center", "category": "sports_centre", "tags": ["sports-centre"], "sources": ["osm"]}, "geometry": {"type": "Point", "coordinates": [-158.0286155, 21.4081073]}}]}