{"type": "FeatureCollection", "features": [{"type": "Feature", "properties": {"id": 478365013, "name": "Hoalauna Community Park", "category": "park", "tags": ["park"], "sources": ["osm"], "address": "Keanui Drive"}, "geometry": {"type": "Point", "coordinates": [-158.0179438, 21.3320887]}}, {"type": "Feature", "properties": {"id": 1121960546, "name": "Hoalauna Playground", "category": "playground", "tags": ["playground"], "sources": ["osm"]}, "geometry": {"type": "Point", "coordinates": [-158.0175447, 21.3318533]}}, {"type": "Feature", "properties": {"id": 1121961801, "name": "Mini Park", "category": "park", "tags": ["park"], "sources": ["osm"]}, "geometry": {"type": "Point", "coordinates": [-158.0177291, 21.3362083]}}, {"type": "Feature", "properties": {"id": 1121961800, "name": "Montecity Community Pool", "category": "swimming_pool", "tags": ["swimming-pool"], "sources": ["osm"]}, "geometry": {"type": "Point", "coordinates": [-158.0143327, 21.3317667]}}, {"type": "Feature", "properties": {"id": 1121961803, "name": "TCLT Community Pool", "category": "swimming_pool", "tags": ["swimming-pool"], "sources": ["osm"]}, "geometry": {"type": "Point", "coordinates": [-158.0158158, 21.3365442]}}]}