{"type": "FeatureCollection", "features": [{"type": "Feature", "properties": {"id": 13778918602, "name": "Jamba", "category": "fast_food", "tags": ["fast-food", "juice", "takeaway"], "sources": ["osm"], "website": "https://locations.jamba.com", "phone": "+1-808-685-2440", "address": "91-1401 Fort Weaver Road", "hours": "Mo-Sa 07:00-21:00; Su 07:00-20:00"}, "geometry": {"type": "Point", "coordinates": [-158.0244215, 21.3347055]}}, {"type": "Feature", "properties": {"id": 13778885401, "name": "The Coffee Bean & Tea Leaf", "category": "cafe", "tags": ["cafe", "coffee-shop", "takeaway"], "sources": ["osm"], "website": "https://coffeebean.com/", "phone": "+1-808-685-1031", "address": "91-1401 Fort Weaver Road", "hours": "Mo-Su 05:00-20:00"}, "geometry": {"type": "Point", "coordinates": [-158.0245367, 21.3343674]}}, {"type": "Feature", "properties": {"id": 13778909601, "name": "L&L Hawaiian Barbecue", "category": "fast_food", "tags": ["fast-food", "hawaiian", "takeaway"], "sources": ["osm"], "website": "https://hawaiianbarbecue.com/", "phone": "+1-808-685-2888", "address": "91-1401 #A107 Fort Weaver Road", "hours": "Mo-Fr 10:00-20:00; Sa-Su 08:30-20:00"}, "geometry": {"type": "Point", "coordinates": [-158.0245458, 21.3346621]}}, {"type": "Feature", "properties": {"id": 13778924801, "name": "Taste of Hong Kong", "category": "restaurant", "tags": ["restaurant", "asian", "chinese"], "sources": ["osm"], "website": "https://taste-of-hong-kong.edan.io/", "phone": "+1-808-683-3838", "address": "91-1401 #A103 Fort Weaver Road", "hours": "Mo-Su 10:30-21:00"}, "geometry": {"type": "Point", "coordinates": [-158.0243307, 21.3347372]}}, {"type": "Feature", "properties": {"id": 478365008, "name": "Geiger Community Park", "category": "park", "tags": ["park"], "sources": ["osm"]}, "geometry": {"type": "Point", "coordinates": [-158.0276659, 21.3331992]}}, {"type": "Feature", "properties": {"id": 478365012, "name": "Geiger Community Park Playground", "category": "playground", "tags": ["playground"], "sources": ["osm"]}, "geometry": {"type": "Point", "coordinates": [-158.028062, 21.3339695]}}, {"type": "Feature", "properties": {"id": 13778885001, "name": "Foodland", "category": "supermarket", "tags": ["supermarket"], "sources": ["osm"], "website": "https://foodland.com/", "phone": "+1-808-685-3811", "address": "91-1401 Fort Weaver Road", "hours": "Mo-Su 05:00-22:00"}, "geometry": {"type": "Point", "coordinates": [-158.0246719, 21.3344688]}}, {"type": "Feature", "properties": {"id": 13778890801, "name": "Acacia Jewelry", "category": "jewelry", "tags": ["jewelry"], "sources": ["osm"], "phone": "+1-808-685-4714", "address": "91-1401 #A108 Fort Weaver Road", "hours": "Mo-Sa 10:00-17:00"}, "geometry": {"type": "Point", "coordinates": [-158.0245977, 21.3346439]}}, {"type": "Feature", "properties": {"id": 13778925702, "name": "Pearl Hawaii Federal Credit Union", "category": "bank", "tags": ["bank"], "sources": ["osm"], "website": "https://pearlhawaii.com/", "phone": "+1-808-737-4328", "address": "91-1401 #A102 Fort Weaver Road", "hours": "Mo-Fr 09:00-17:00; Sa 09:00-14:00"}, "geometry": {"type": "Point", "coordinates": [-158.0242799, 21.334755]}}]}