{"type": "FeatureCollection", "features": [{"type": "Feature", "properties": {"id": 7209608386, "name": "Starbucks", "category": "cafe", "tags": ["cafe", "coffee-shop", "takeaway", "wifi"], "sources": ["osm"], "website": "https://www.starbucks.com/store-locator/store/21044-88761/waikele-premium-outlets-94-799-lumiaina-street-waipahu-hi-967975046-us", "phone": "+1 808-678-3418", "address": "94-799 Lumiaina Street", "hours": "Mo-Fr 04:00-21:00; Sa,Su 05:00-21:00"}, "geometry": {"type": "Point", "coordinates": [-158.0068715, 21.3995316]}}, {"type": "Feature", "properties": {"id": 12152245934, "name": "Jamba", "category": "fast_food", "tags": ["fast-food", "juice", "takeaway"], "sources": ["osm"], "website": "https://locations.jamba.com/hi/waipahu-(oahu)/94-821-lumiaina-st", "phone": "+1 808-678-3138", "address": "94-821 Lumiaina Street", "hours": "Mo-Fr 06:00-21:00; Sa,Su 07:00-21:00"}, "geometry": {"type": "Point", "coordinates": [-158.0067953, 21.3994965]}}, {"type": "Feature", "properties": {"id": 829593663, "name": "KFC", "category": "fast_food", "tags": ["fast-food", "chicken", "takeaway", "drive-through"], "sources": ["osm"], "website": "https://locations.kfc.com/hi/waipahu/94-801-lumiaina-street", "phone": "+1 808-676-4502", "address": "94-801 Lumiaina Street", "hours": "Mo-Su 10:00-22:00"}, "geometry": {"type": "Point", "coordinates": [-158.0092016, 21.3999241]}}, {"type": "Feature", "properties": {"id": 829593662, "name": "Safeway", "category": "supermarket", "tags": ["supermarket"], "sources": ["osm"], "website": "https://local.safeway.com/safeway/hi/waipahu/94-809-lumiaina-st.html", "phone": "+1 808-664-7725", "address": "94-809 Lumiaina Street", "hours": "24/7"}, "geometry": {"type": "Point", "coordinates": [-158.008001, 21.3983726]}}, {"type": "Feature", "properties": {"id": 7743113934, "name": "Old Navy Outlet", "category": "clothes", "tags": ["clothes", "wheelchair-accessible"], "sources": ["osm"], "website": "https://oldnavy.gap.com/stores/hi/waipahu/oldnavy-6460.html", "phone": "+1 808-646-7720", "address": "94-815 Lumiana Street", "hours": "Mo-Sa 10:00-21:00; Su 10:00-19:00"}, "geometry": {"type": "Point", "coordinates": [-158.0075381, 21.3984025]}}, {"type": "Feature", "properties": {"id": 7745050400, "name": "Petco", "category": "pet", "tags": ["pet"], "sources": ["osm"], "website": "https://stores.petco.com/hi/waipahu/pet-supplies-waipahu-hi-2133.html", "phone": "+1 808-678-3678", "address": "94-817 Lumiaina Street", "hours": "Mo-Sa 10:00-20:00; Su 10:00-19:00"}, "geometry": {"type": "Point", "coordinates": [-158.0072501, 21.398386]}}, {"type": "Feature", "properties": {"id": 9996630097, "name": "Banana Republic", "category": "clothes", "tags": ["clothes"], "sources": ["osm"], "website": "https://bananarepublicfactory.gapfactory.com/stores/hi/waipahu/banana-republic-9305.html", "phone": "+1 808-638-2603", "address": "94-815 Lumiana Street", "hours": "Mo-Sa 10:00-19:00; Th 11:00-19:00; Su 11:00-18:00"}, "geometry": {"type": "Point", "coordinates": [-158.0073818, 21.3983779]}}, {"type": "Feature", "properties": {"id": 12152245935, "name": "Gap Factory", "category": "clothes", "tags": ["clothes"], "sources": ["osm"], "website": "https://www.gapfactory.com/stores/hi/waipahu/gap-2434.html", "phone": "+1 808-646-7722", "address": "94-821 Lumiaina Street", "hours": "Mo-Sa 10:00-20:00; Su 10:00-18:00"}, "geometry": {"type": "Point", "coordinates": [-158.0067444, 21.3999435]}}, {"type": "Feature", "properties": {"id": 829593661, "name": "Lowe's", "category": "doityourself", "tags": ["doityourself"], "sources": ["osm"], "website": "https://www.lowes.com/store/HI-Waipahu/0119", "phone": "+1 808-676-8381", "address": "94-805 Lumiana Street", "hours": "Mo-Sa 06:00-22:00; Su 07:00-21:00"}, "geometry": {"type": "Point", "coordinates": [-158.0089445, 21.3983842]}}]}