{"type": "FeatureCollection", "features": [{"type": "Feature", "properties": {"id": 4715904377, "name": "Panda Express", "category": "fast_food", "tags": ["fast-food", "chinese", "wheelchair-accessible"], "sources": ["osm"], "address": "91 Ka Makana Alii Mall"}, "geometry": {"type": "Point", "coordinates": [-158.0517976, 21.3331886]}}, {"type": "Feature", "properties": {"id": 4662287745, "name": "Wendy's", "category": "fast_food", "tags": ["fast-food", "burger", "drive-through", "wheelchair-accessible"], "sources": ["osm"]}, "geometry": {"type": "Point", "coordinates": [-158.054607, 21.3350435]}}, {"type": "Feature", "properties": {"id": 4715904375, "name": "California Pizza Kitchen", "category": "restaurant", "tags": ["restaurant", "pizza", "wheelchair-accessible"], "sources": ["osm"], "address": "91 Kapolei Parkway"}, "geometry": {"type": "Point", "coordinates": [-158.0516985, 21.3336303]}}, {"type": "Feature", "properties": {"id": 4715904376, "name": "Cinnabon", "category": "fast_food", "tags": ["fast-food", "dessert", "takeaway", "wheelchair-accessible"], "sources": ["osm"], "website": "https://locations.cinnabon.com/hi/kapolei/91-5431-kapolei-pkwy", "address": "91-5431 Kapolei Parkway"}, "geometry": {"type": "Point", "coordinates": [-158.0517403, 21.333351]}}, {"type": "Feature", "properties": {"id": 5886489135, "name": "Five Guys", "category": "fast_food", "tags": ["fast-food", "burger", "wheelchair-accessible"], "sources": ["osm"]}, "geometry": {"type": "Point", "coordinates": [-158.0519348, 21.3336618]}}, {"type": "Feature", "properties": {"id": 1360545444, "name": "Taco Bell", "category": "fast_food", "tags": ["fast-food", "tex-mex", "takeaway", "drive-through"], "sources": ["osm"], "website": "https://locations.tacobell.com/hi/kapolei/91-5431-kapolei-pkwy.html?utm_source=yext&utm_campaign=googlelistings&utm_medium=referral&utm_term=037068&utm_content=website&y_source=1_MjY4NzM5MTItNzE1LWxvY2F0aW9uLndlYnNpdGU%3D", "phone": "+18086937900", "address": "91-5431 Kapolei Parkway", "hours": "Mo-Su 07:00-00:00"}, "geometry": {"type": "Point", "coordinates": [-158.0507228, 21.3344967]}}, {"type": "Feature", "properties": {"id": 1360545363, "name": "Teapresso Bar", "category": "cafe", "tags": ["cafe", "bubble-tea", "outdoor-seating"], "sources": ["osm"], "phone": "+18086937416", "address": "91-5431 Kapolei Parkway", "hours": "Mo-Su 08:00-21:00"}, "geometry": {"type": "Point", "coordinates": [-158.0539143, 21.3332003]}}, {"type": "Feature", "properties": {"id": 11064162373, "name": "The Coffee Bean & Tea Leaf", "category": "cafe", "tags": ["cafe", "coffee-shop", "takeaway"], "sources": ["osm"]}, "geometry": {"type": "Point", "coordinates": [-158.0517119, 21.3327347]}}, {"type": "Feature", "properties": {"id": 11064162371, "name": "Auntie Anne's", "category": "fast_food", "tags": ["fast-food", "pretzel", "takeaway"], "sources": ["osm"]}, "geometry": {"type": "Point", "coordinates": [-158.0513441, 21.332784]}}, {"type": "Feature", "properties": {"id": 11064162379, "name": "Moani Island Bistro & Bar", "category": "restaurant", "tags": ["restaurant", "regional"], "sources": ["osm"]}, "geometry": {"type": "Point", "coordinates": [-158.0525225, 21.332743]}}, {"type": "Feature", "properties": {"id": 13648684102, "name": "Chick-fil-A", "category": "fast_food", "tags": ["fast-food", "chicken", "takeaway"], "sources": ["osm"], "website": "http://chick-fil-a.com", "address": "91-5480 Bldg. 3 Kapolei Parkway", "hours": "Mo-Sa 06:30-22:00", "stations": [{"stopCode": 1, "lines": "1", "name": "Kualaka\u02bbi Station", "walkingMeters": 1288, "walkingSeconds": 932, "band": 15}]}, "geometry": {"type": "Point", "coordinates": [-158.0525087, 21.3362162]}}, {"type": "Feature", "properties": {"id": 825518720, "name": "Jollibee", "category": "fast_food", "tags": ["fast-food", "burger", "takeaway", "drive-through"], "sources": ["osm"], "website": "https://locations.jollibeefoods.com/usa/hi/kapolei/91-5431-kapolei-pkwy?utm_medium=organic&utm_source=local&utm_campaign=googlelistings&utm_content=website&utm_term=3038", "address": "91-5431 Kapolei Parkway", "hours": "Mo-Fr 09:00-22:00"}, "geometry": {"type": "Point", "coordinates": [-158.054371, 21.3341935]}}, {"type": "Feature", "properties": {"id": 1191702213, "name": "The Cheesecake Factory", "category": "restaurant", "tags": ["restaurant", "american"], "sources": ["osm"], "website": "https://locations.thecheesecakefactory.com/hi/kapolei-202.html?utm_source=Google&utm_medium=Maps&utm_campaign=Google+Places", "phone": "+1-808-670-2666", "address": "91 Ka Makana Alii Main Driveway", "hours": "Mo-Fr 11:30-23:00; Sa-Su 10:00-23:00"}, "geometry": {"type": "Point", "coordinates": [-158.0503753, 21.3338661]}}, {"type": "Feature", "properties": {"id": 737338059, "name": "Hampton Inn & Suites Oahu/Kapolei", "category": "hotel", "tags": ["hotel", "wifi"], "sources": ["osm"], "address": "91-5434 Kapolei Parkway", "hours": "24/7"}, "geometry": {"type": "Point", "coordinates": [-158.0522979, 21.3323057]}}, {"type": "Feature", "properties": {"id": 4661773977, "name": "Macy's", "category": "department_store", "tags": ["department-store", "wheelchair-accessible"], "sources": ["osm"], "website": "https://www.macys.com/stores/hi/kapolei/ka-makana-alii_464.html", "phone": "+1-808-600-2000", "address": "91-5431 Kapolei Parkway", "hours": "Mo-Sa 10:00-21:00; Su 10:00-18:00"}, "geometry": {"type": "Point", "coordinates": [-158.0528708, 21.3348235]}}, {"type": "Feature", "properties": {"id": 4662277597, "name": "H&M", "category": "clothes", "tags": ["clothes", "wheelchair-accessible"], "sources": ["osm"]}, "geometry": {"type": "Point", "coordinates": [-158.0526436, 21.3335694]}}, {"type": "Feature", "properties": {"id": 4715904378, "name": "Foot Locker", "category": "shoes", "tags": ["shoes", "wheelchair-accessible"], "sources": ["osm"]}, "geometry": {"type": "Point", "coordinates": [-158.0513285, 21.3326071]}}, {"type": "Feature", "properties": {"id": 7170985885, "name": "Victoria's Secret", "category": "clothes", "tags": ["clothes", "wheelchair-accessible"], "sources": ["osm"]}, "geometry": {"type": "Point", "coordinates": [-158.0522804, 21.3333819]}}, {"type": "Feature", "properties": {"id": 11064162380, "name": "Lids", "category": "clothes", "tags": ["clothes"], "sources": ["osm"]}, "geometry": {"type": "Point", "coordinates": [-158.0515344, 21.3327185]}}, {"type": "Feature", "properties": {"id": 11064162383, "name": "American Eagle Outfitters", "category": "clothes", "tags": ["clothes"], "sources": ["osm"]}, "geometry": {"type": "Point", "coordinates": [-158.0520653, 21.3324621]}}, {"type": "Feature", "properties": {"id": 13874707601, "name": "Old Navy", "category": "clothes", "tags": ["clothes"], "sources": ["osm"], "website": "https://oldnavy.gap.com/", "phone": "+1-808-726-2405", "address": "91-5431 #D-102 Kapolei Parkway", "hours": "Mo-Sa 10:00-21:00; Su 10:00-07:00"}, "geometry": {"type": "Point", "coordinates": [-158.0506125, 21.3330537]}}, {"type": "Feature", "properties": {"id": 13648704401, "name": "Longs Drugs", "category": "pharmacy", "tags": ["pharmacy"], "sources": ["osm"], "website": "https://www.cvs.com/", "address": "91-5480 Kapolei Parkway", "hours": "Mo-Su 07:00-23:00", "stations": [{"stopCode": 1, "lines": "1", "name": "Kualaka\u02bbi Station", "walkingMeters": 1250, "walkingSeconds": 905, "band": 15}]}, "geometry": {"type": "Point", "coordinates": [-158.052733, 21.3372856]}}, {"type": "Feature", "properties": {"id": 13649040801, "name": "Straub Benioff Medical Center - Kapolei Clinic & Urgent Care", "category": "clinic", "tags": ["clinic"], "sources": ["osm"], "website": "https://hawaiipacifichealth.org/", "phone": "+1-808-426-9300", "address": "91-5431 Kapolei Parkway", "hours": "Mo-Su 10:00-20:00"}, "geometry": {"type": "Point", "coordinates": [-158.0539484, 21.3330028]}}, {"type": "Feature", "properties": {"id": 7201715797, "name": "24 Hour Fitness", "category": "fitness_centre", "tags": ["fitness-centre", "wifi"], "sources": ["osm"], "website": "https://www.24hourfitness.com/", "phone": "+1 808 377 6855", "hours": "24/7"}, "geometry": {"type": "Point", "coordinates": [-158.053666, 21.3321968]}}]}