{"type": "FeatureCollection", "features": [{"type": "Feature", "properties": {"id": 887450772, "name": "Starbucks", "category": "cafe", "tags": ["cafe", "coffee-shop", "takeaway", "wifi"], "sources": ["osm"], "website": "https://www.starbucks.com/store-locator/store/116441/keaunui-ft-weaver-91-1105-keaunui-drive-500-ewa-beach-hi-967066363-u", "address": "91 Keaunui Drive"}, "geometry": {"type": "Point", "coordinates": [-158.0212906, 21.3276208]}}, {"type": "Feature", "properties": {"id": 4715904596, "name": "Panda Express", "category": "fast_food", "tags": ["fast-food", "chinese", "wheelchair-accessible"], "sources": ["osm"], "address": "91-1061 Keaunui Drive"}, "geometry": {"type": "Point", "coordinates": [-158.020415, 21.3278918]}}, {"type": "Feature", "properties": {"id": 4715904602, "name": "Buffalo Wild Wings", "category": "restaurant", "tags": ["restaurant", "wings", "wheelchair-accessible"], "sources": ["osm"], "website": "https://buffalowildwings.com"}, "geometry": {"type": "Point", "coordinates": [-158.020533, 21.3281216]}}, {"type": "Feature", "properties": {"id": 887447185, "name": "McDonald's", "category": "fast_food", "tags": ["fast-food", "burger", "takeaway"], "sources": ["osm"], "website": "https://www.mcdonalds.com/us/en-us/location/hi/ewa-beach/91-1051-keaunui-dr/33833.html", "address": "91-1051 Keaunui Drive"}, "geometry": {"type": "Point", "coordinates": [-158.0226088, 21.3268788]}}, {"type": "Feature", "properties": {"id": 10261695961, "name": "Golden Coin", "category": "restaurant", "tags": ["restaurant", "filipino"], "sources": ["osm"]}, "geometry": {"type": "Point", "coordinates": [-158.0211993, 21.3265638]}}, {"type": "Feature", "properties": {"id": 13812620101, "name": "Thai Pho", "category": "restaurant", "tags": ["restaurant", "thai", "vietnamese"], "sources": ["osm"], "phone": "+1-808-888-3010", "address": "91-1121 #114 Keaunui Drive", "hours": "Mo-Su 11:00-21:00"}, "geometry": {"type": "Point", "coordinates": [-158.0207464, 21.3283442]}}, {"type": "Feature", "properties": {"id": 478365007, "name": "Laulani Community Park", "category": "park", "tags": ["park"], "sources": ["osm"], "address": "91-1050 Keaunui Drive"}, "geometry": {"type": "Point", "coordinates": [-158.0257334, 21.3255022]}}, {"type": "Feature", "properties": {"id": 887447192, "name": "Safeway", "category": "supermarket", "tags": ["supermarket"], "sources": ["osm"], "website": "https://local.safeway.com/safeway/hi/ewa-beach/91-1119-keaunui-dr.html", "phone": "+1 808-683-3200", "address": "91-1119 Keaunui Drive Road"}, "geometry": {"type": "Point", "coordinates": [-158.0201312, 21.3269586]}}, {"type": "Feature", "properties": {"id": 8034220741, "name": "Walgreens", "category": "pharmacy", "tags": ["pharmacy"], "sources": ["osm"], "website": "https://www.walgreens.com/locator/walgreens-91-1081+keaunui+dr-ewa+beach-hi-96706/id=15146", "address": "91-1081 Keaunui Drive"}, "geometry": {"type": "Point", "coordinates": [-158.022048, 21.3274801]}}, {"type": "Feature", "properties": {"id": 13812677601, "name": "Queen's Island Urgent Care", "category": "clinic", "tags": ["clinic"], "sources": ["osm"], "phone": "+1-808-691-7482", "address": "91-6390 Kapolei Parkway", "hours": "Mo-Su 08:00-20:00"}, "geometry": {"type": "Point", "coordinates": [-158.0237092, 21.3204179]}}, {"type": "Feature", "properties": {"id": 13812678801, "name": "EmPower Health", "category": "clinic", "tags": ["clinic"], "sources": ["osm"], "phone": "+1-808-691-8200", "address": "91-6390 Kapolei Parkway", "hours": "Mo-Fr 08:00-17:00"}, "geometry": {"type": "Point", "coordinates": [-158.0237718, 21.3205721]}}, {"type": "Feature", "properties": {"id": 14096033202, "name": "The UPS Store", "category": "post_office", "tags": ["post-office"], "sources": ["osm"], "website": "https://locations.theupsstore.com/hi/ewa-beach/91-1121-keaunui-dr?utm_source=Yext&utm_medium=organic&utm_campaign=Listings", "phone": "+1-808-683-1700", "address": "91-1121 #108 Keaunui Drive", "hours": "Mo-Fr 08:00-18:30; Sa 09:00-16:00; Su 10:00-15:00"}, "geometry": {"type": "Point", "coordinates": [-158.0208493, 21.3282907]}}]}