{"type": "FeatureCollection", "features": [{"type": "Feature", "properties": {"id": 5010453521, "name": "Hawaii's Plantation Village", "category": "museum", "tags": ["museum", "wifi"], "sources": ["osm"], "website": "http://www.hawaiiplantationvillage.org", "phone": "+1-808-677-0110", "address": "94-695 Waipahu Street", "hours": "Mo-Sa 09:00-14:00", "stations": [{"stopCode": 5, "lines": "1", "name": "Pouhala Station", "walkingMeters": 1263, "walkingSeconds": 912, "band": 15}]}, "geometry": {"type": "Point", "coordinates": [-158.0119099, 21.3853492]}}, {"type": "Feature", "properties": {"id": 178740224, "name": "Waipahu Cultural Garden Park", "category": "park", "tags": ["park"], "sources": ["osm"], "stations": [{"stopCode": 5, "lines": "1", "name": "Pouhala Station", "walkingMeters": 1274, "walkingSeconds": 920, "band": 15}]}, "geometry": {"type": "Point", "coordinates": [-158.0117497, 21.3850539]}}, {"type": "Feature", "properties": {"id": 4195983994, "name": "Pacific Supermarket", "category": "supermarket", "tags": ["supermarket"], "sources": ["osm"], "address": "Farrington Highway", "stations": [{"stopCode": 4, "lines": "1", "name": "H\u014d\u02bbae\u02bbae Station", "walkingMeters": 880, "walkingSeconds": 635, "band": 10}]}, "geometry": {"type": "Point", "coordinates": [-158.019419, 21.381581]}}, {"type": "Feature", "properties": {"id": 1334649345, "name": "Aloha Island Mart", "category": "convenience", "tags": ["convenience"], "sources": ["osm"], "website": "https://www.alohaislandmart.com/locations/loc/store/aloha-island-mart-leokane", "phone": "+1 808-680-9234", "stations": [{"stopCode": 4, "lines": "1", "name": "H\u014d\u02bbae\u02bbae Station", "walkingMeters": 701, "walkingSeconds": 505, "band": 10}]}, "geometry": {"type": "Point", "coordinates": [-158.0192893, 21.3804058]}}, {"type": "Feature", "properties": {"id": 12298409121, "name": "Shell", "category": "convenience", "tags": ["convenience"], "sources": ["osm"], "address": "94-380 Pupupani Street", "stations": [{"stopCode": 4, "lines": "1", "name": "H\u014d\u02bbae\u02bbae Station", "walkingMeters": 1093, "walkingSeconds": 791, "band": 15}]}, "geometry": {"type": "Point", "coordinates": [-158.0158461, 21.3820912]}}]}