{"type": "FeatureCollection", "features": [{"type": "Feature", "properties": {"id": 1253899015, "name": "Toddler Park", "category": "playground", "tags": ["playground"], "sources": ["osm"], "stations": [{"stopCode": 2, "lines": "1", "name": "Keone\u02bbae Station", "walkingMeters": 653, "walkingSeconds": 471, "band": 15}, {"stopCode": 3, "lines": "1", "name": "Honouliuli Station", "walkingMeters": 969, "walkingSeconds": 698, "band": 15}]}, "geometry": {"type": "Point", "coordinates": [-158.0484083, 21.3622696]}}]}