{"type": "FeatureCollection", "features": [{"type": "Feature", "properties": {"id": 1470128451, "name": "Pupu Ole Street Mini Park", "category": "park", "tags": ["park"], "sources": ["osm"], "stations": [{"stopCode": 4, "lines": "1", "name": "H\u014d\u02bbae\u02bbae Station", "walkingMeters": 1210, "walkingSeconds": 872, "band": 15}]}, "geometry": {"type": "Point", "coordinates": [-158.0140804, 21.3797079]}}, {"type": "Feature", "properties": {"id": 12458582400, "name": "ABC Furniture", "category": "furniture", "tags": ["furniture"], "sources": ["osm"], "website": "https://www.abcfurniturehawaii.com/", "phone": "+1 808-677-2322", "address": "94-137 Leoleo Street", "hours": "Mo-Sa 10:00-16:30", "stations": [{"stopCode": 4, "lines": "1", "name": "H\u014d\u02bbae\u02bbae Station", "walkingMeters": 599, "walkingSeconds": 432, "band": 10}]}, "geometry": {"type": "Point", "coordinates": [-158.0196378, 21.3760812]}}]}