{"type": "FeatureCollection", "features": [{"type": "Feature", "properties": {"id": 178756890, "name": "Waipahu District Park", "category": "park", "tags": ["park"], "sources": ["osm"], "address": "94-230 Paiwa Street", "hours": "Mo-Su 05:00-22:00", "stations": [{"stopCode": 5, "lines": "1", "name": "Pouhala Station", "walkingMeters": 1027, "walkingSeconds": 740, "band": 15}]}, "geometry": {"type": "Point", "coordinates": [-157.999923, 21.3872957]}}, {"type": "Feature", "properties": {"id": 12181240272, "name": "Waipahu Boxing Gym", "category": "fitness_centre", "tags": ["fitness-centre", "boxing"], "sources": ["osm"], "website": "http://waipahuboxing.com/", "phone": "+1 808-375-8807", "address": "94-230 Paiwa Street", "stations": [{"stopCode": 5, "lines": "1", "name": "Pouhala Station", "walkingMeters": 772, "walkingSeconds": 556, "band": 10}]}, "geometry": {"type": "Point", "coordinates": [-157.9991182, 21.3869302]}}]}