{"type": "FeatureCollection", "features": [{"type": "Feature", "properties": {"id": 13362228134, "name": "Local Joe West", "category": "cafe", "tags": ["cafe"], "sources": ["osm"], "address": "91-3598 Nana Hope Street", "hours": "Mo,Fr 06:00-14:00; Tu-Th 06:30-14:00; Sa-Su 07:30-16:00", "stations": [{"stopCode": 2, "lines": "1", "name": "Keone\u02bbae Station", "walkingMeters": 238, "walkingSeconds": 172, "band": 5}]}, "geometry": {"type": "Point", "coordinates": [-158.0496822, 21.3589078]}}, {"type": "Feature", "properties": {"id": 1253899037, "name": "Hoopili Soccer Park", "category": "park", "tags": ["park"], "sources": ["osm"], "address": "Iwikuamo'o Street", "stations": [{"stopCode": 3, "lines": "1", "name": "Honouliuli Station", "walkingMeters": 1209, "walkingSeconds": 872, "band": 15}]}, "geometry": {"type": "Point", "coordinates": [-158.0423495, 21.3595593]}}]}