{"type": "FeatureCollection", "features": [{"type": "Feature", "properties": {"id": 4219907489, "name": "Jack in the Box", "category": "fast_food", "tags": ["fast-food", "burger", "takeaway"], "sources": ["osm"], "website": "https://locations.jackinthebox.com/us/hi/waipahu/94-327-kunia-rd", "address": "94-327 Kunia Road"}, "geometry": {"type": "Point", "coordinates": [-158.033967, 21.387921]}}, {"type": "Feature", "properties": {"id": 178239028, "name": "Denny's", "category": "restaurant", "tags": ["restaurant", "american"], "sources": ["osm"], "hours": "24/7"}, "geometry": {"type": "Point", "coordinates": [-158.0335924, 21.3869937]}}, {"type": "Feature", "properties": {"id": 4219903090, "name": "Times Supermarkets", "category": "supermarket", "tags": ["supermarket"], "sources": ["osm"], "address": "94-615 Kupuohi Street"}, "geometry": {"type": "Point", "coordinates": [-158.0342201, 21.3897144]}}, {"type": "Feature", "properties": {"id": 7170817985, "name": "Bank of Hawaii", "category": "bank", "tags": ["bank"], "sources": ["osm"]}, "geometry": {"type": "Point", "coordinates": [-158.03326, 21.3882792]}}]}