{"type": "FeatureCollection", "features": [{"type": "Feature", "properties": {"id": 4715904599, "name": "Starbucks", "category": "cafe", "tags": ["cafe", "coffee-shop", "takeaway", "wheelchair-accessible"], "sources": ["osm"], "website": "https://www.starbucks.com/store-locator/store/92864/safeway-ewa-beach-2897-91-1119-keaunui-st-ewa-beach-hi-96706-us"}, "geometry": {"type": "Point", "coordinates": [-158.019932, 21.3270323]}}, {"type": "Feature", "properties": {"id": 478365006, "name": "Puuloa District Park", "category": "park", "tags": ["park"], "sources": ["osm"], "address": "91-970 Kaileolea Drive"}, "geometry": {"type": "Point", "coordinates": [-158.0187474, 21.3235224]}}, {"type": "Feature", "properties": {"id": 554993314, "name": "PuuloaPark", "category": "park", "tags": ["park"], "sources": ["osm"]}, "geometry": {"type": "Point", "coordinates": [-158.0115234, 21.321652]}}]}